FID,C_EDPP,NUMIND,DHMOS,COMMUNE,DD,DESCRIPT,WATERNAME,PRELEV,REGION,NOMOS,PROVINCE,codeau,longitude,latitude,the_geom
2c8a3e04-2024-4b22-96d5-5168a05d1245.0,64090703,GR1270090564090703,ΠΑΛΛΗΝΗΣ,PALLINIS,ΠΕΥΚΟΧΩΡΙΟΥ,ΞΕΝΟΔΟΧΕΙΟ 'KOSTIS',ΠΕΥΚΟΧΩΡΙ,PEFKOCHORI - HOTEL 'KOSTIS',KENTRIKI MAKEDONIA,ΧΑΛΚΙΔΙΚΗΣ,Chalkidiki,1,23.61264038,39.9892807,POINT (466780.07582458615 4426352.612100476)
2c8a3e04-2024-4b22-96d5-5168a05d1245.1,22010801,GR2220010122010801,ΚΕΡΚΥΡΑ-ΚΕΡΚΥΡΑΙΩΝ,KERKYRAION,ΚΕΡΚΥΡΑ-ΚΕΡΚΥΡΑΣ,ΞΕΝΟΔΟΧΕΙΟ 'KONTOKALI BAY',ΚΟΝΤΟΚΑΛΙ,KONTOKALI - HOTEL 'KONTOKALI BAY',IONIA NISIA,ΚΕΡΚΥΡΑΣ,KERKYRA,1,19.87361145,39.65027618,POINT (145773.22386071837 4396798.980936952)
2c8a3e04-2024-4b22-96d5-5168a05d1245.2,22040601,GR2220040822040601,ΚΕΡΚΥΡΑ-ΕΣΠΕΡΙΩΝ,ESPERION,ΚΕΡΚΥΡΑ-ΚΑΡΟΥΣΑΔΩΝ,ΚΕΝΤΡΟ ΑΚΤΗΣ,ΑΣΤΡΑΚΕΡΗ,ASTRAKERI,IONIA NISIA,ΚΕΡΚΥΡΑΣ,KERKYRA,1,19.76944351,39.80416489,POINT (137639.71564307806 4414303.851390641)
2c8a3e04-2024-4b22-96d5-5168a05d1245.3,22090301,GR2220090922090301,ΚΕΡΚΥΡΑ-ΜΕΛΙΤΕΙΕΩΝ,MELITEIEON,ΚΕΡΚΥΡΑ-ΧΛΟΜΟΥ,ΚΕΝΤΡΟ ΑΚΤΗΣ,ΙΣΣΟΣ,ISOS,IONIA NISIA,ΚΕΡΚΥΡΑΣ,KERKYRA,1,19.94444466,39.4402771,POINT (150800.62790193636 4373204.1197549105)
2c8a3e04-2024-4b22-96d5-5168a05d1245.4,22120201,GR2220120522120201,ΚΕΡΚΥΡΑ-ΠΑΡΕΛΙΩΝ,PARELION,ΚΕΡΚΥΡΑ-ΓΙΑΝΝΑΔΩΝ,ΕΝΑΝΤΙ ΞΕΝΟΔΟΧΕΙΟΥ ΕΡΜΟΝΕΣ,ΕΡΜΟΝΕΣ,ERMONES - HOTEL ERMONES,IONIA NISIA,ΚΕΡΚΥΡΑΣ,KERKYRA,1,19.76722145,39.62361145,POINT (136501.33582540823 4394263.674642631)
2c8a3e04-2024-4b22-96d5-5168a05d1245.5,06050102,GR2440050106050102,ΑΤΑΛΑΝΤΗΣ,ATALANTIS,ΑΤΑΛΑΝΤΗΣ,ΑΡΙΣΤΕΡΑ ΔΗΜΟΤΙΚΟΥ ΚΑΦΕΝΕΙΟΥ,ΣΚΑΛΑ ΑΤΑΛΑΝΤΗΣ,SKALA ATALANTIS -ARISTERA DIMOTIKOU KAFENEIOU,STEREA ELLADA,ΦΘΙΩΤΙΔΑΣ,Fthiotida,1,23.08888817,35.5233345,POINT (417241.4702935686 3931173.8255478195)
2c8a3e04-2024-4b22-96d5-5168a05d1245.6,06070301,GR2440070106070301,ΔΑΦΝΟΥΣΙΩΝ,DAFNOUSION,ΛΙΒΑΝΑΤΩΝ,HOTEL ΤΣΑΡΟΥΧΑΣ,"ΛΙΒΑΝΑΤΕΣ,ΚΥΑΝΗ ΑΚΤΗ","LIVANATES,KYANI AKTI - HOTEL 'TSAROUCHAS'",STEREA ELLADA,ΦΘΙΩΤΙΔΑΣ,Fthiotida,1,23.07777786,38.72166824,POINT (419680.4935579552 4286006.516674828)
2c8a3e04-2024-4b22-96d5-5168a05d1245.7,06070401,GR2440070106070401,ΔΑΦΝΟΥΣΙΩΝ,DAFNOUSION,ΛΙΒΑΝΑΤΩΝ,BAR 'FRANTIC',"ΛΙΒΑΝΑΤΕΣ,ΣΧΟΙΝΙΑΣ","LIVANATES,SCHOINIAS - BAR 'FRANTIC'",STEREA ELLADA,ΦΘΙΩΤΙΔΑΣ,Fthiotida,1,23.07777786,38.72166824,POINT (419680.4935579552 4286006.516674828)
2c8a3e04-2024-4b22-96d5-5168a05d1245.8,82080601,GR4220080182080601,ΙΟΣ-ΙΗΤΩΝ,IOU,ΙΟΣ-ΙΟΥ,ΑΡΙΣΤΕΡΟ ΑΚΡΟ ΑΚΤΗΣ,ΙΟΣ-ΜΥΛΟΠΟΤΑΣ,MYLOPOTAMOS,NOTIO AIGAIO,ΚΥΚΛΑΔΩΝ,Kyklades,1,25.29722214,36.71944427,POINT (615698.1420872812 4064245.702921391)
2c8a3e04-2024-4b22-96d5-5168a05d1245.9,61010101,GR1250010161010101,ΚΑΤΕΡΙΝΗΣ,KATERINIS,ΚΑΤΕΡΙΝΗΣ,ΚΕΝΤΡΟ ΑΚΤΗΣ,ΟΛΥΜΠΙΑΚΗ ΑΚΤΗ,OLYMPIAKI AKTI,KENTRIKI MAKEDONIA,ΠΙΕΡΙΑΣ,Pieria,1,22.60555649,40.23500061,POINT (381227.39355170744 4454486.446659503)
2c8a3e04-2024-4b22-96d5-5168a05d1245.10,61030801,GR1250030561030801,ΑΝΑΤ.ΟΛΥΜΠΟΥ,ANATOLIKOU OLYMPOU,ΣΚΟΤΙΝΑΣ,ΚΟΙΝΟΤΙΚΗ ΠΛΑΖ,ΣΚΟΤΙΝΑ,SKOTINA - KOINOTIKI PLAZ,KENTRIKI MAKEDONIA,ΠΙΕΡΙΑΣ,Pieria,1,22.58749962,40.03749847,POINT (379342.91894459195 4432588.380920641)
2c8a3e04-2024-4b22-96d5-5168a05d1245.11,43020101,GR1430020143020101,ΑΓΡΙΑΣ,AGRIAS,ΑΓΡΙΑΣ,ΕΝΑΝΤΙ ΚΕΝΤΡΟΥ 'ΨΑΡΟΤΑΒΕΡΝΑ ΤΟΥ ΘΩΜΑ',ΑΓΡΙΑ,AGRIA - PSAROTAVERNA TOU THOMA,THESSALIA,ΜΑΓΝΗΣΙΑΣ,Magnisia,1,23.02166748,39.34027863,POINT (415540.81342569436 4354707.915531234)
2c8a3e04-2024-4b22-96d5-5168a05d1245.12,81090401,GR4210090181090401,ΡΟΔΟΣ-ΚΑΛΛΙΘΕΑΣ,KALLITHEAS,ΡΟΔΟΣ-ΚΑΛΥΘΙΩΝ,ΙΑΜΑΤΙΚΗ ΠΗΓΗ,ΚΑΛΛΙΘΕΑ,KALLITHEA -IAMATIKI PIGI,NOTIO AIGAIO,ΔΩΔΕΚΑΝΗΣΟΥ,Dodekanisos,1,28.26666641,36.38888931,POINT (882605.1107464398 4035257.982451084)
2c8a3e04-2024-4b22-96d5-5168a05d1245.13,82080602,GR4220080182080602,ΙΟΣ-ΙΗΤΩΝ,IOU,ΙΟΣ-ΙΟΥ,ΔΕΞΙΟ ΑΚΡΟ ΑΚΤΗΣ,ΙΟΣ-ΜΥΛΟΠΟΤΑΣ,MYLOPOTAMOS,NOTIO AIGAIO,ΚΥΚΛΑΔΩΝ,Kyklades,1,25.29722214,36.71944427,POINT (615698.1420872812 4064245.702921391)
2c8a3e04-2024-4b22-96d5-5168a05d1245.14,81170801,GR4210170181170801,ΡΟΔΟΣ-ΛΙΝΔΙΩΝ,LINDION,ΡΟΔΟΣ-ΛΙΝΔΟΥ,ΚΕΝΤΡΟ ΑΚΤΗΣ,ΛΟΘΙΑΡΙΚΑ,LOTHIARIKA,NOTIO AIGAIO,ΔΩΔΕΚΑΝΗΣΟΥ,Dodekanisos,1,28.04722214,36.10833359,POINT (864211.9408923842 4003266.078439824)
2c8a3e04-2024-4b22-96d5-5168a05d1245.15,91260501,GR4310260191260501,ΚΡΗΤΗ-ΧΕΡΣΟΝΗΣΟΥ,CHERSONISOU,ΚΡΗΤΗ-ΛΙΜ.ΧΕΡΣΟΝΗΣΟΥ,ΕΝΑΝΤΙ ΞΕΝΟΔΟΧΕΙΟΥ 'ΝΑΝΑ BEACH',ΔΡΑΠΑΝΟΣ,DRAPANOS - ENANTI HOTEL 'NANA BEACH',KRITI,ΗΡΑΚΛΕΙΟΥ,Irakleio,1,25.38888931,35.33611298,POINT (626072.9256736155 3910913.322745363)
2c8a3e04-2024-4b22-96d5-5168a05d1245.16,92011501,GR4320010392011501,ΚΡΗΤΗ-ΑΓ.ΝΙΚΟΛΑΟΥ,AGIOU NIKOLAOU,ΚΡΗΤΗ-ΕΛΟΥΝΤΑΣ,ΕΝΑΝΤΙ ΞΕΝΟΔΟΧΕΙΟΥ 'BLUE BAY',"ΕΛΟΥΝΤΑ, BLUE BAY",ELOUNTA  -  HOTEL 'BLUE BAY',KRITI,ΛΑΣΙΘΙΟΥ,Lasithi,1,25.72805595,35.27222061,POINT (657022.8470772081 3904311.8709993744)
2c8a3e04-2024-4b22-96d5-5168a05d1245.17,93040101,GR4330040893040101,ΚΡΗΤΗ-ΓΕΡΟΠΟΤΑΜΟΥ,GEROPOTAMOU,ΚΡΗΤΗ-ΜΕΛΙΔΟΝΙΟΥ,ΒΑΡΚΟΤΟΠΟΣ,ΜΠΑΛΙ,BALI - VARKOTOPOS,KRITI,ΡΕΘΥΜΝΗΣ,Rethymni,1,24.78333282,35.42361069,POINT (570961.4804237226 3920014.252988337)
2c8a3e04-2024-4b22-96d5-5168a05d1245.18,84060101,GR4120060184060101,ΣΑΜΟΣ-ΠΥΘΑΓΟΡΕΙΟΥ,PYTHAGOREIOU,ΣΑΜΟΣ-ΠΥΘΑΓΟΡΕΙΟΥ,ΜΕΣΟΝ ΑΚΤΗΣ,ΓΛΥΚΟΡΙΖΑ,GLYKORIZA,VOREIO AIGAIO,ΣΑΜΟΥ,Samos,1,26.97222137,37.69722366,POINT (761903.9971862312 4176092.138122896)
2c8a3e04-2024-4b22-96d5-5168a05d1245.19,64100201,GR1270100364100201,ΠΑΝΑΓΙΑΣ,PANAGIAS,ΠΥΡΓΑΔΙΚΙΩΝ,ΚΕΝΤΡΟ ΑΚΤΗΣ,ΚΑΜΠΟΣ,KAMPOS,KENTRIKI MAKEDONIA,ΧΑΛΚΙΔΙΚΗΣ,Chalkidiki,1,23.68694496,40.32222366,POINT (473253.899773853 4463282.339733059)
2c8a3e04-2024-4b22-96d5-5168a05d1245.20,13110102,GR2320110113110102,ΛΑΡΙΣΣΟΥ,LARISSOU,ΜΕΤΟΧΙΟΥ,"KALOGRIA BEACH, ΑΡΙΣΤΕΡΟ ΑΚΡΟ",ΚΑΛΟΓΡΙΑ,KALOGRIA,DYTIKI ELLADA,ΑΧΑΙΑΣ,Achaia,1,21.35083389,38.15000153,POINT (267714.23787774483 4225486.430868092)
2c8a3e04-2024-4b22-96d5-5168a05d1245.21,06070601,GR2440070106070601,ΔΑΦΝΟΥΣΙΩΝ,DAFNOUSION,ΛΙΒΑΝΑΤΩΝ,ΚΕΝΤΡΟ ΑΚΤΗΣ,ΣΟΥΒΑΛΑ,SOUVALA,STEREA ELLADA,ΦΘΙΩΤΙΔΑΣ,Fthiotida,1,23.02916718,38.76610947,POINT (415506.8925011351 4290982.152623689)
2c8a3e04-2024-4b22-96d5-5168a05d1245.22,15090501,GR2530090815090501,ΞΥΛΟΚΑΣΤΡΟΥ,XYLOKASTROU,,ΚΕΝΤΡΟ ΑΚΤΗΣ,ΚΑΜΑΡΙ,KAMARI,PELOPONNISOS,ΚΟΡΙΝΘΙΑΣ,Korinthia,1,22.56972313,38.0961113,POINT (374436.1408187098 4217156.823990121)
2c8a3e04-2024-4b22-96d5-5168a05d1245.23,43080401,GR1430080143080401,ΑΦΕΤΩΝ,AFETON,ΝΕΟΧΩΡΙΟΥ,ΚΕΝΤΡΟ ΑΚΤΗΣ,ΚΑΛΛΙΦΤΕΡΗ,KALLIFTERI,THESSALIA,ΜΑΓΝΗΣΙΑΣ,Magnisia,1,23.1566658,39.27999878,POINT (427112.4842611129 4347901.012878473)
2c8a3e04-2024-4b22-96d5-5168a05d1245.24,92010801,GR4320010792010801,ΚΡΗΤΗ-ΑΓ.ΝΙΚΟΛΑΟΥ,AGIOU NIKOLAOU,ΚΡΗΤΗ-ΚΑΛΟΥ ΧΩΡΙΟΥ,ΚΕΝΤΡΟ ΚΟΙΝΟΤΙΚΗΣ ΠΛΑΖ,ΒΟΥΛΙΣΜΑ,VOULISMA  - MESON KOINOTIKIS AKTIS,KRITI,ΛΑΣΙΘΙΟΥ,Lasithi,1,25.74444389,35.1277771,POINT (658794.7921544043 3888316.5858454187)
2c8a3e04-2024-4b22-96d5-5168a05d1245.25,42100201,GR1420100142100201,ΕΥΡΥΜΕΝΩΝ,EVRIMENON,ΣΤΟΜΙΟΥ,ΚΑΦΕ 'ΦΛΟΙΣΒΟΣ',ΣΤΟΜΙΟ,STOMIO - KAFE FLOISVOS,THESSALIA,ΛΑΡΙΣΑΣ,Larisa,1,22.72222137,39.875,POINT (390578.73340840155 4414378.078530874)
2c8a3e04-2024-4b22-96d5-5168a05d1245.26,42110101,GR1420110242110101,ΚΑΤΩ ΟΛΥΜΠΟΥ,KATO OLYMPOU,ΑΙΓΑΝΗΣ,ΕΝΑ ΧΙΛΙΟΜ.ΑΡΙΣΤΕΡΑ ΞΕΝΟΔΟΧΕΙΟΥ ΠΟΛΥΖΟΥ,Ν.ΜΕΣΑΓΓΑΛΑ,NEA MESANGALA - 1KM ARISTERA HOTEL POLYZOU,THESSALIA,ΛΑΡΙΣΑΣ,Larisa,1,22.70416641,39.96250153,POINT (389175.64494900167 4424112.328597888)
2c8a3e04-2024-4b22-96d5-5168a05d1245.27,42110102,GR1420110242110102,ΚΑΤΩ ΟΛΥΜΠΟΥ,KATO OLYMPOU,ΑΙΓΑΝΗΣ,ΕΝΑΝΤΙ ΞΕΝΟΔΟΧΕΙΟΥ ΠΟΛΥΖΟΥ,Ν.ΜΕΣΑΓΓΑΛΑ,NEA MESANGALA - ENANTI HOTEL POLYZOU,THESSALIA,ΛΑΡΙΣΑΣ,Larisa,1,22.70694351,39.95833206,POINT (389406.1259756181 4423646.369463744)
2c8a3e04-2024-4b22-96d5-5168a05d1245.28,32010301,GR2120010132010301,ΗΓΟΥΜΕΝΙΤΣΗΣ,IGOUMENITSIS,ΗΓΟΥΜΕΝΙΤΣΑΣ,ΕΝΑΝΤΙ ΔΕΗ,ΜΑΚΡΥΓΙΑΛΙ,MAKRYGIALI,IPEIROS,ΘΕΣΠΡΩΤΙΑΣ,THESPROTIA,1,20.20666695,39.51722336,POINT (173736.12669152347 4380763.233844255)
2c8a3e04-2024-4b22-96d5-5168a05d1245.29,64090801,GR1270090664090801,ΠΑΛΛΗΝΗΣ,PALLINIS,ΠΟΛΥΧΡΟΝΟ,"ΚΟΙΝΟΤΙΚΗ ΠΛΑΖ - ΣΚΑΛΑ,ΞΕΝΟΔΟΧΕΙΟ 'AKROGIALI'",ΠΟΛΥΧΡΟΝΟ,"POLYCHRONO - KOINOTIKI PLAZ,HOTEL AKROGIALI",KENTRIKI MAKEDONIA,ΧΑΛΚΙΔΙΚΗΣ,Chalkidiki,1,23.56055641,40.00694275,POINT (462343.1213284009 4428333.783204115)
2c8a3e04-2024-4b22-96d5-5168a05d1245.30,43010301,GR1430010143010301,ΒΟΛΟΥ,VOLOU,ΒΟΛΟΥ,ΠΑΓΑΣΩΝ,ΔΗΜ.ΑΚΤΗ ΒΟΛΟΥ,PAGASON - DIMOTIKI AKTI VOLOU,THESSALIA,ΜΑΓΝΗΣΙΑΣ,Magnisia,1,22.92666626,39.32666779,POINT (407335.8963840806 4353290.265897191)
2c8a3e04-2024-4b22-96d5-5168a05d1245.31,84060302,GR4120061184060302,ΣΑΜΟΣ-ΠΥΘΑΓΟΡΕΙΟΥ,PYTHAGOREIOU,ΣΑΜΟΣ-ΧΩΡΑΣ,ΜΕΤΑΞΥ ΚΕΡΑΙΑΣ ΑΕΡΟΔΡΟΜΕΙΟΥ ΚΑΙ ΠΡΩΤΟ ΠΟΡΟ,ΠΟΤΟΚΑΚΙ,POTOKAKI,VOREIO AIGAIO,ΣΑΜΟΥ,Samos,1,26.89999962,37.68333435,POINT (755582.6987047972 4174350.953676233)
2c8a3e04-2024-4b22-96d5-5168a05d1245.32,22050401,GR2220051022050401,ΚΕΡΚΥΡΑ-ΘΙΝΑΛΙΟΥ,THINALIOU,ΚΕΡΚΥΡΑ-ΣΦΑΚΕΡΩΝ,ΑΝΑΤΟΛΙΚΑ,ΡΟΔΑ,RODA - ANATOLIKA,IONIA NISIA,ΚΕΡΚΥΡΑΣ,KERKYRA,1,19.79999924,39.79722214,POINT (140220.45534090776 4413409.198579045)
2c8a3e04-2024-4b22-96d5-5168a05d1245.33,16030201,GR2540030116030201,ΑΣΩΠΟΥ,ASOPOU,ΠΑΠΑΔΙΑΝΙΚΩΝ,ΠΑΧΕΙΑ ΑΜΜΟΣ,ΠΛΥΤΡΑ,PLYTRA,PELOPONNISOS,ΛΑΚΩΝΙΑΣ,Lakonia,1,22.83333397,36.69722366,POINT (395632.36472324847 4061630.6015798645)
2c8a3e04-2024-4b22-96d5-5168a05d1245.34,42110103,GR1420110242110103,ΚΑΤΩ ΟΛΥΜΠΟΥ,KATO OLYMPOU,ΑΙΓΑΝΗΣ,ΕΝΑ ΧΙΛΙΟΜ.ΔΕΞΙΑ ΞΕΝΟΔΟΧΕΙΟΥ ΠΟΛΥΖΟΥ,Ν.ΜΕΣΑΓΓΑΛΑ,NEA MESANGALA - 1KM DEXIA HOTEL POLLYZOU,THESSALIA,ΛΑΡΙΣΑΣ,Larisa,1,22.71111107,39.94722366,POINT (389744.2370520858 4422407.952650705)
2c8a3e04-2024-4b22-96d5-5168a05d1245.35,42180201,GR1420180242180201,ΜΕΛΙΒΟΙΑΣ,MELIVOIAS,ΜΕΛΙΒΟΙΑΣ,100 ΜΕΤΡΑ ΔΕΞΙΑ ΑΚΡΩΤΗΡΙΟΥ ΔΕΡΜΑΤΑΣ,ΒΕΛΙΚΑ,VELIKA - 100M DEXIA AKROTIRIOU DERMATAS,THESSALIA,ΛΑΡΙΣΑΣ,Larisa,1,22.86666679,39.77222061,POINT (402787.02167244646 4402803.943178196)
2c8a3e04-2024-4b22-96d5-5168a05d1245.36,92020201,GR4320020292020201,ΚΡΗΤΗ-ΙΕΡΑΠΕΤΡΑΣ,IERAPETRAS,ΚΡΗΤΗ-ΑΓ.ΙΩΑΝΝΟΥ,"ΜΕΓΑΛΗ ΠΑΡΑΛΙΑ,ΞΕΝ.'MAGIC LIFE LYKTOS RESORT'","ΚΟΥΤΣΟΥΝΑΡΙ,ΑΓ.ΙΩΑΝΝΗΣ",KOUTSOUNARI  - ENANTI HOTEL 'LYKTOS BEACH',KRITI,ΛΑΣΙΘΙΟΥ,Lasithi,1,25.83749962,35.00833511,POINT (667518.7057136198 3875220.627861179)
2c8a3e04-2024-4b22-96d5-5168a05d1245.37,92020301,GR4320021392020301,ΚΡΗΤΗ-ΙΕΡΑΠΕΤΡΑΣ,IERAPETRAS,ΚΡΗΤΗ-ΜΥΡΤΟΥ,ΚΕΝΤΡΟ ΚΟΙΝΟΤΙΚΗΣ ΠΛΑΖ,ΜΥΡΤΟΣ,MYRTOS -  ENANTI KINOTIKIS PLAZ,KRITI,ΛΑΣΙΘΙΟΥ,Lasithi,1,25.58666611,35.00388718,POINT (644636.3429442316 3874335.2410839186)
2c8a3e04-2024-4b22-96d5-5168a05d1245.38,92022901,GR4320020292022901,ΚΡΗΤΗ-ΙΕΡΑΠΕΤΡΑΣ,IERAPETRAS,ΚΡΗΤΗ-ΑΓ.ΙΩΑΝΝΟΥ,ΕΝΑΝΤΙ ΞΕΝΟΔΟΧΕΙΟΥ 'ΚΑΚΚΟΣ ΒΑΥ',ΚΟΥΤΣΟΥΝΑΡΙ 2,KOUTSOUNARI 2 - HOTEL KAKKOS BAY,KRITI,ΛΑΣΙΘΙΟΥ,Lasithi,1,25.84083366,35.01250076,POINT (667814.3495233608 3875688.4194311355)
2c8a3e04-2024-4b22-96d5-5168a05d1245.39,92023101,GR4320020192023101,ΚΡΗΤΗ-ΙΕΡΑΠΕΤΡΑΣ,IERAPETRAS,ΚΡΗΤΗ-ΙΕΡΑΠΕΤΡΑΣ,ΕΝΑΝΤΙ ΞΕΝΟΔΟΧΕΙΟΥ 'PETRA MARE',ΙΕΡΑΠΕΤΡΑ 3,IERAPETRA 3 - HOTEL PETRA MARE,KRITI,ΛΑΣΙΘΙΟΥ,Lasithi,1,25.75027847,35.00972366,POINT (659556.2943746962 3875231.6779519287)
2c8a3e04-2024-4b22-96d5-5168a05d1245.40,92030101,GR4320030192030101,ΚΡΗΤΗ-ΙΤΑΝΟΥ,ITANOU,ΚΡΗΤΗ-ΠΑΛΑΙΚΑΣΤΡΟΥ,"ΑΡΙΣΤΕΡΟ ΑΚΡΟ ΑΚΤΗΣ, ΚΟΝΤΑ ΣΤΟ ΠΟΤΑΜΑΚΙ",ΒΑΙ (ΦΟΙΝΙΚΟΔΑΣΟΣ),"VAI  - ARISTERO AKRO AKTIS,POTAMAKI",KRITI,ΛΑΣΙΘΙΟΥ,Lasithi,1,26.26083374,35.25444412,POINT (705533.0767877459 3903314.306654394)
2c8a3e04-2024-4b22-96d5-5168a05d1245.41,92030102,GR4320030192030102,ΚΡΗΤΗ-ΙΤΑΝΟΥ,ITANOU,ΚΡΗΤΗ-ΠΑΛΑΙΚΑΣΤΡΟΥ,"ΔΕΞΙΟ ΑΚΡΟ ΑΚΤΗΣ, ΚΑΤΩ ΑΠΟ ΤΑΒΕΡΝΑ",ΒΑΙ (ΦΟΙΝΙΚΟΔΑΣΟΣ),"VAI  - DEXIO AKRO AKTIS,TAVERNA",KRITI,ΛΑΣΙΘΙΟΥ,Lasithi,1,26.26666641,35.25444412,POINT (706063.9266245252 3903326.4185019797)
2c8a3e04-2024-4b22-96d5-5168a05d1245.42,92040201,GR4320040192040201,ΚΡΗΤΗ-ΛΕΥΚΗΣ,LEFKIS,ΚΡΗΤΗ-ΖΙΡΟΥ,ΜΠΡΟΣΤΑ ΣΤΗΝ ΤΑΒΕΡΝΑ ΑΚΡΟΓΙΑΛΙ,ΒΟΥΡΛΙΑ,VOURLIA - TAVERNA AKROGIALI,KRITI,ΛΑΣΙΘΙΟΥ,Lasithi,1,26.23166656,35.03527832,POINT (703424.5441516287 3878942.62866177)
2c8a3e04-2024-4b22-96d5-5168a05d1245.43,92050101,GR4320050692050101,ΚΡΗΤΗ-ΜΑΚΡΥ ΓΙΑΛΟΥ,MAKRY GIALOU,ΚΡΗΤΗ-ΠΕΥΚΩΝ,ΕΝΑΝΤΙ ΚΑΦΕΤΕΡΙΑΣ PROFIL(ΠΡΩΗΝ ΧΑΒΑΙ),ΑΝΑΛΗΨΗ,ANALIPSI  - KAFETERIA 'PROFIL',KRITI,ΛΑΣΙΘΙΟΥ,Lasithi,1,25.98027802,35.03888702,POINT (680481.389608474 3878859.015195709)
2c8a3e04-2024-4b22-96d5-5168a05d1245.44,92050401,GR4320050692050401,ΚΡΗΤΗ-ΜΑΚΡΥ ΓΙΑΛΟΥ,MAKRY GIALOU,ΚΡΗΤΗ-ΠΕΥΚΩΝ,ΕΝΑΝΤΙ ΞΕΝΟΔΟΧΕΙΟΥ SUNWING (ΣΟΠΑΤΑ),"ΜΑΚΡΥΓΙΑΛΟΣ,ΛΑΓΚΟΥΦΑ","MAKRYGIALOS  - LAGOUFA, HOTEL 'SUNWING'",KRITI,ΛΑΣΙΘΙΟΥ,Lasithi,1,25.98472214,35.03610992,POINT (680892.9345150597 3878558.9358435553)
2c8a3e04-2024-4b22-96d5-5168a05d1245.45,92060301,GR4320060492060301,ΚΡΗΤΗ-ΝΕΑΠΟΛΗΣ,NEAPOLIS,ΚΡΗΤΗ-ΒΡΑΧΑΣΙΟΥ,ΕΝΑΝΤΙ ΞΕΝ. 'ΚΑΛΗΜΕΡΑ ΚΡΗΤΗ',ΜΠΟΥΦΟΥ,BOUFOU  -  HOTEL KALIMERA KRITI,KRITI,ΛΑΣΙΘΙΟΥ,Lasithi,1,25.50833321,35.30833435,POINT (636975.7250634428 3907991.087845538)
2c8a3e04-2024-4b22-96d5-5168a05d1245.46,92080201,GR4320080192080201,ΚΡΗΤΗ-ΣΗΤΕΙΑΣ,SITEIAS,ΚΡΗΤΗ-ΣΗΤΕΙΑΣ,ΕΝΑΝΤΙ ΞΕΝΟΔΟΧΕΙΟΥ 'ΓΑΛΛΙΚΟΝ',ΣΗΤΕΙΑ 1,SITEIA  - ENANTI HOTEL GALLIKON,KRITI,ΛΑΣΙΘΙΟΥ,Lasithi,1,26.11388969,35.20500183,POINT (692279.2905877266 3897534.9144338914)
2c8a3e04-2024-4b22-96d5-5168a05d1245.47,92080301,GR4320080192080301,ΚΡΗΤΗ-ΣΗΤΕΙΑΣ,SITEIAS,ΚΡΗΤΗ-ΣΗΤΕΙΑΣ,ΕΝΑΝΤΙ BAY VIEW HOTEL (ΔΙΑΚΛΑΔΩΣΗ ΠΡΟΣ ΠΕΤΡΑ),ΣΗΤΕΙΑ 2,SITEIA  - ENANTI BAY VIEW,KRITI,ΛΑΣΙΘΙΟΥ,Lasithi,1,26.11944389,35.20249939,POINT (692790.9602122866 3897268.3752895384)
2c8a3e04-2024-4b22-96d5-5168a05d1245.48,92080401,GR4320080192080401,ΚΡΗΤΗ-ΣΗΤΕΙΑΣ,SITEIAS,ΚΡΗΤΗ-ΣΗΤΕΙΑΣ,ΚΑΡΑΒΟΠΕΤΡΑ/ΕΝΑΝΤΙ ΤΟΥ ΞΕΝΟΔΟΧΕΙΟΥ 'PARADISE',ΣΗΤΕΙΑ 3,SITEIA  - ENANTI HOTEL 'PARADISE',KRITI,ΛΑΣΙΘΙΟΥ,Lasithi,1,26.12277794,35.20166779,POINT (693096.4872625719 3897182.454672978)
2c8a3e04-2024-4b22-96d5-5168a05d1245.49,93010201,GR4330010193010201,ΚΡΗΤΗ-ΡΕΘΥΜΝΗΣ,RETHYMNIS,ΚΡΗΤΗ-ΡΕΘΥΜΝΗΣ,ΕΝΑΝΤΙ ΞΕΝΟΔΟΧΕΙΟΥ 'PORTO RETHYMNO',ΡΕΘΥΜΝΟ 1,RETHYMNO - ENANTI HOTEL 'PORTO RETHYMNO',KRITI,ΡΕΘΥΜΝΗΣ,Rethymni,1,24.47500038,35.36833191,POINT (543000.1396572657 3913705.4913686225)
2c8a3e04-2024-4b22-96d5-5168a05d1245.50,93010501,GR4330010193010501,ΚΡΗΤΗ-ΡΕΘΥΜΝΗΣ,RETHYMNIS,ΚΡΗΤΗ-ΡΕΘΥΜΝΗΣ,"ΜΥΣΣΙΡΙΑ,ΕΝΑΝΤΙ ΞΕΝΟΔΟΧΕΙΟΥ 'CRETA PALACE'",ΡΕΘΥΜΝΟ 4,MYSSIRIA  - ENANTI HOTEL 'CRETA PALACE',KRITI,ΡΕΘΥΜΝΗΣ,Rethymni,1,24.51666641,35.3702774,POINT (546784.1381018297 3913940.1607534275)
2c8a3e04-2024-4b22-96d5-5168a05d1245.51,93010701,GR4330010193010701,ΚΡΗΤΗ-ΡΕΘΥΜΝΗΣ,RETHYMNIS,ΚΡΗΤΗ-ΡΕΘΥΜΝΗΣ,ΕΝΑΝΤΙ ΞΕΝΟΔΟΧΕΙΟΥ 'ΜΙΝΩΣ MARE',ΡΕΘΥΜΝΟ 6/ΠΛΑΤΑΝΙΑΣ,RETHYMNO - HOTEL MINOS MARE,KRITI,ΡΕΘΥΜΝΗΣ,Rethymni,1,24.51972198,35.36444473,POINT (547065.051819161 3913294.5950840237)
2c8a3e04-2024-4b22-96d5-5168a05d1245.52,13110201,GR2320110713110201,ΛΑΡΙΣΣΟΥ,LARISSOU,ΛΑΚΚΟΠΕΤΡΑΣ,ΞΕΝΟΔΟΧΕΙΟ LAKOPETRA BEACH,ΛΑΚΚΟΠΕΤΡΑ,LAKKOPETRA - HOTEL LAKOPETRA BEACH,DYTIKI ELLADA,ΑΧΑΙΑΣ,Achaia,1,21.30027771,38.18388748,POINT (263393.1149371717 4229375.449085556)
2c8a3e04-2024-4b22-96d5-5168a05d1245.53,14010701,GR2330011814010701,ΠΥΡΓΟΥ,PYRGOU,ΣΚΑΦΙΔIΑΣ,ΞΕΝΟΔΟΧΕΙΟ 'OLYMPIAN VILLAGE',ΣΚΑΦΙΔΙΑ,SKAFIDIA - HOTEL OLYMPIAN VILLAGE,DYTIKI ELLADA,ΗΛΕΙΑΣ,Ileia,1,21.31944466,37.69166565,POINT (263499.74606516835 4174699.21610978)
2c8a3e04-2024-4b22-96d5-5168a05d1245.54,14030201,GR2330030114030201,ΑΜΑΛΙΑΔΟΣ,AMALIADOS,ΑΜΑΛΙΑΔΟΣ,ΕΜΠΡΟΣΘΕΝ ΚΕΝΤΡΟΥ ΡΕΜΟΥΝΔΟΥ,ΚΟΥΡΟΥΤΑ,KOUROUTA - KENTRO REMOUNDOU,DYTIKI ELLADA,ΗΛΕΙΑΣ,Ileia,1,21.28333282,37.76666641,POINT (260556.82278450768 4183114.4189096345)
2c8a3e04-2024-4b22-96d5-5168a05d1245.55,14030202,GR2330030114030202,ΑΜΑΛΙΑΔΟΣ,AMALIADOS,ΑΜΑΛΙΑΔΟΣ,CAMPING ΠΕΡΙΟΧΗΣ ΛΕΣΧΗΣ,ΚΟΥΡΟΥΤΑ,KOUROUTA - CAMPING PERIOCHIS LESCHIS,DYTIKI ELLADA,ΗΛΕΙΑΣ,Ileia,1,21.28333282,37.76666641,POINT (260556.82278450768 4183114.4189096345)
2c8a3e04-2024-4b22-96d5-5168a05d1245.56,14110101,GR2330110114110101,ΖΑΧΑΡΩΣ,ZACHAROS,ΖΑΧΑΡΩΣ,ΕΜΠΡΟΣΘΕΝ ΚΕΝΤΡΟΥ ΜΑΙΣΤΡΑΛΙ,ΖΑΧΑΡΩ,ZACHARO - KENTRO MAISTRALI,DYTIKI ELLADA,ΗΛΕΙΑΣ,Ileia,1,21.29999924,37.63333511,POINT (261598.47422568055 4168274.7026290116)
2c8a3e04-2024-4b22-96d5-5168a05d1245.57,A2160402,GR30006401A2160402,ΜΑΡΚΟΠΟΥΛΟ ΜΕΣΟΓΑΙΑΣ,MARKOPOULO MESOGEAS,ΜΑΡΚΟΠΟΥΛΟ ΜΕΣΟΓΑΙΑΣ,ΑΡΙΣΤΕΡΟ ΑΚΡΟ ΑΚΤΗΣ,ΑΥΛΑΚΙ,AVLAKI,ATTIKI,ΑΤΤΙΚΗΣ,Attiki,1,24.02555466,37.87555695,POINT (502097.9864216412 4191720.1741101267)
2c8a3e04-2024-4b22-96d5-5168a05d1245.58,24010501,GR2240010124010501,ΛΕΥΚΑΔΑ-ΛΕΥΚΑΔΟΣ,LEFKADOS,ΛΕΥΚΑΔΑ-ΛΕΥΚΑΔΑΣ,ΕΡΓΟΣΤΑΣΙΟ ΤΑΟΛ,ΓΥΡΑ,GYRA - ERGOSTASIO  TAOL,IONIA NISIA,ΛΕΥΚΑΔΑΣ,LEFKADA,1,20.71750069,38.84999847,POINT (214978.700100471 4304965.335931051)
2c8a3e04-2024-4b22-96d5-5168a05d1245.59,24010502,GR2240010124010502,ΛΕΥΚΑΔΑ-ΛΕΥΚΑΔΟΣ,LEFKADOS,ΛΕΥΚΑΔΑ-ΛΕΥΚΑΔΑΣ,ΚΑΦΕΝΕΙΟ ΑΦΩΝ ΦΕΤΣΗ,ΓΥΡΑ,GYRA - KAFENEIO FETSI,IONIA NISIA,ΛΕΥΚΑΔΑΣ,LEFKADA,1,20.70000076,38.84999847,POINT (213459.6029754954 4305020.131444717)
2c8a3e04-2024-4b22-96d5-5168a05d1245.60,43130401,GR1430130543130401,ΜΟΥΡΕΣΙΟΥ,MOURESIOU,ΜΟΥΡΕΣΙΟΥ,ΚΕΝΤΡΟ ΑΚΤΗΣ,ΠΑΠΑ ΝΕΡΟ,PAPA NERO,THESSALIA,ΜΑΓΝΗΣΙΑΣ,Magnisia,1,23.17000008,39.40833282,POINT (428393.2835100701 4362132.858778896)
2c8a3e04-2024-4b22-96d5-5168a05d1245.61,61100101,GR1250100261100101,ΠΑΡΑΛΙΑΣ,PARALIAS,ΠΑΡΑΛΙΑΣ,ΔΕΞΙΑ  ΞΕΝΟΔΟΧΕΙΟΥ ΑΛΚΥΩΝ,ΠΑΡΑΛΙΑ,PARALIA - DEXIA HOTEL ALKYON,KENTRIKI MAKEDONIA,ΠΙΕΡΙΑΣ,Pieria,1,22.60277748,40.27777863,POINT (381065.90490151604 4459238.584591742)
2c8a3e04-2024-4b22-96d5-5168a05d1245.62,42180202,GR1420180242180202,ΜΕΛΙΒΟΙΑΣ,MELIVOIAS,ΜΕΛΙΒΟΙΑΣ,ΚΕΝΤΡΟ ΣΦΥΡΙ,ΒΕΛΙΚΑ,VELIKA - KENTRO SFYRI,THESSALIA,ΛΑΡΙΣΑΣ,Larisa,1,22.86944389,39.76944351,POINT (403020.9690168352 4402492.6053309105)
2c8a3e04-2024-4b22-96d5-5168a05d1245.63,43010101,GR1430010143010101,ΒΟΛΟΥ,VOLOU,ΒΟΛΟΥ,ΕΝΑΝΤΙ ΔΗΜΟΤΙΚΟΥ ΠΑΡΚΟΥ ΑΛΥΚΩΝ,ΑΛΥΚΕΣ,ALYKES - DIMOTIKO PARKO,THESSALIA,ΜΑΓΝΗΣΙΑΣ,Magnisia,1,22.92666626,39.32500076,POINT (407333.69988675084 4353105.2591546755)
2c8a3e04-2024-4b22-96d5-5168a05d1245.64,92020101,GR4320020192020101,ΚΡΗΤΗ-ΙΕΡΑΠΕΤΡΑΣ,IERAPETRAS,ΚΡΗΤΗ-ΙΕΡΑΠΕΤΡΑΣ,"ΑΡΙΣΤ.ΑΚΡΟ,ΕΝΑΝΤΙ ΤΑΒΕΡΝΑΣ ΚΑΤΩ ΑΠΟ ΤΟ CASTELLO",ΙΕΡΑΠΕΤΡΑ ΔΗΜ. ΠΛΑΖ,IERAPETRA - ENANTI TAVERNAS KATO APO CASTELLO,KRITI,ΛΑΣΙΘΙΟΥ,Lasithi,1,25.75,35.00833511,POINT (659533.6255144472 3875077.1730365376)
2c8a3e04-2024-4b22-96d5-5168a05d1245.65,92020102,GR4320020192020102,ΚΡΗΤΗ-ΙΕΡΑΠΕΤΡΑΣ,IERAPETRAS,ΚΡΗΤΗ-ΙΕΡΑΠΕΤΡΑΣ,"ΔΕΞΙΟ ΑΚΡΟ, ΕΝΑΝΤΙ ΤΟΥ ΓΥΜΝΑΣΙΟΥ",ΙΕΡΑΠΕΤΡΑ ΔΗΜ. ΠΛΑΖ,IERAPETRA  - ENANTI GYMNASIOU,KRITI,ΛΑΣΙΘΙΟΥ,Lasithi,1,25.73888969,35.01055527,POINT (658515.3723934396 3875306.0203552363)
2c8a3e04-2024-4b22-96d5-5168a05d1245.66,93040501,GR4330040893040501,ΚΡΗΤΗ-ΓΕΡΟΠΟΤΑΜΟΥ,GEROPOTAMOU,ΚΡΗΤΗ-ΜΕΛΙΔΟΝΙΟΥ,ΕΝΑΝΤΙ ΞΕΝΟΔΟΧΕΙΟΥ 'BALI PARADISE',ΜΠΑΛΙ-ΛΙΒΑΔΙ,"BALI - LIVADI, HOTEL BALI PARADISE",KRITI,ΡΕΘΥΜΝΗΣ,Rethymni,1,24.78333282,35.41333389,POINT (570970.512338248 3918874.3442460415)
2c8a3e04-2024-4b22-96d5-5168a05d1245.67,23060701,GR2230060223060701,ΚΕΦΑΛΛΗΝΙΑ-ΠΑΛΙΚΗΣ,PALIKIS,ΚΕΦΑΛΛΗΝ-ΑΓ.ΘΕΚΛΗΣ,ΚΕΝΤΡΟ ΑΚΤΗΣ,ΠΕΤΑΝΟΙ,PETANOI,IONIA NISIA,ΚΕΦΑΛΛΗΝΙΑΣ,KEFALLINIA,1,20.37666702,38.26333237,POINT (182821.05898089038 4240957.393456078)
2c8a3e04-2024-4b22-96d5-5168a05d1245.68,93110102,GR4330110993110102,ΚΡΗΤΗ-ΦΟΙΝΙΚΑ,FOINIKA,ΚΡΗΤΗ-ΜΥΡΘΙΟΥ,100μ. ΑΡΙΣΤΕΡΑ ΞΕΝΟΔΟΧΕΙΟΥ 'ΔΑΜΝΟΝΙ ΒΑΥ',ΔΑΜΝΟΝΙ,DAMNONI - ARISTERA 'DAMNONI BAY',KRITI,ΡΕΘΥΜΝΗΣ,Rethymni,1,24.41361046,35.17555618,POINT (537512.5560259208 3892301.014834036)
2c8a3e04-2024-4b22-96d5-5168a05d1245.69,93110202,GR4330110193110202,ΚΡΗΤΗ-ΦΟΙΝΙΚΑ,FOINIKA,ΚΡΗΤΗ-ΣΕΛΛΙΩΝ,ΕΝΑΝΤΙ ΞΕΝΟΔΟΧΕΙΟΥ 'ΑΛΙΑΝΘΟΣ',ΠΛΑΚΙΑΣ,PLAKIAS  - ENANTI HOTEL ALIANTHOS,KRITI,ΡΕΘΥΜΝΗΣ,Rethymni,1,24.39666748,35.17499924,POINT (535969.9261124932 3892233.0694954)
2c8a3e04-2024-4b22-96d5-5168a05d1245.70,94010201,GR4340010194010201,ΚΡΗΤΗ-ΧΑΝΙΩΝ,CHANION,ΚΡΗΤΗ-ΧΑΝΙΩΝ,ΕΝΑΝΤΙ ΚΕΝΤΡΟΥ ΑΚΡΟΓΙΑΛΙ,"ΧΑΝΙΑ,ΝΕΑ ΧΩΡΑ","CHANIA - NEA CHORA,KENTRO AKROGIALI",KRITI,ΧΑΝΙΩΝ,Chania,1,24.01833344,35.50666809,POINT (501512.98512184224 3928943.9915664443)
2c8a3e04-2024-4b22-96d5-5168a05d1245.71,94020101,GR4340020294020101,ΚΡΗΤΗ-ΑΚΡΩΤΗΡΙΟΥ,AKROTIRIOU,ΚΡΗΤΗ-ΚΟΥΝΟΥΠΙΔΙΑΝΩΝ,ΚΕΝΤΡΟ ΚΟΛΠΙΣΚΟΥ,ΑΓ.ΟΝΟΥΦΡΙΟΣ,AGIOS ONOUFRIOS  - MESON KOLPISKOU,KRITI,ΧΑΝΙΩΝ,Chania,1,24.07666588,35.56000137,POINT (506798.4563167098 3934861.5077864183)
2c8a3e04-2024-4b22-96d5-5168a05d1245.72,94020201,GR4340020294020201,ΚΡΗΤΗ-ΑΚΡΩΤΗΡΙΟΥ,AKROTIRIOU,ΚΡΗΤΗ-ΚΟΥΝΟΥΠΙΔΙΑΝΩΝ,ΕΝΑΝΤΙ ΣΗΜΕΙΟΥ ΕΚΒΟΛΗΣ ΠΟΤΑΜΟΥ,ΚΑΛΑΘΑΣ,KALATHAS  - SIMEIO EKVOLIS POTAMOU,KRITI,ΧΑΝΙΩΝ,Chania,1,24.08833313,35.55555725,POINT (507856.14010470844 3934369.523094641)
2c8a3e04-2024-4b22-96d5-5168a05d1245.73,94020301,GR4340020494020301,ΚΡΗΤΗ-ΑΚΡΩΤΗΡΙΟΥ,AKROTIRIOU,ΚΡΗΤΗ-ΣΤΕΡΝΩΝ,ΑΡΙΣΤΕΡΑ ΑΚΤΗΣ,ΜΑΡΑΘΙ,MARATHI  - ARISTERO AKRO,KRITI,ΧΑΝΙΩΝ,Chania,1,24.18333244,35.5027771,POINT (516476.9660826005 3928527.971497737)
2c8a3e04-2024-4b22-96d5-5168a05d1245.74,94020401,GR4340020294020401,ΚΡΗΤΗ-ΑΚΡΩΤΗΡΙΟΥ,AKROTIRIOU,ΚΡΗΤΗ-ΚΟΥΝΟΥΠΙΔΙΑΝΩΝ,ΚΕΝΤΡΟ ΑΚΤΗΣ,ΠΑΡΑΛΙΑ ΣΤΑΥΡΟΥ,STAVROS   -   MESON AKTIS,KRITI,ΧΑΝΙΩΝ,Chania,1,24.09555626,35.59166718,POINT (508506.8818185811 3938375.101274549)
2c8a3e04-2024-4b22-96d5-5168a05d1245.75,94040101,GR4340040194040101,ΚΡΗΤΗ-ΑΡΜΕΝΩΝ,ARMENON,ΚΡΗΤΗ-ΚΑΛΥΒΩΝ,ΕΝΑΝΤΙ ΚΕΝΤΡΟΥ ΜΑΙΣΤΡΑΛΙ,ΚΑΛΥΒΕΣ,KALYVES  - ENANTI KENTROU 'MAISTRALI',KRITI,ΧΑΝΙΩΝ,Chania,1,24.17000008,35.45166779,POINT (515277.5517321239 3922857.3176538073)
2c8a3e04-2024-4b22-96d5-5168a05d1245.76,94050101,GR4340050894050101,ΚΡΗΤΗ-ΒΑΜΟΥ,VAMOU,ΚΡΗΤΗ-ΠΛΑΚΑΣ,ΚΕΝΤΡΟ ΔΡΑΚΑΚΗ,ΑΛΜΥΡΙΔΑ,ALMYRIDA  - ENANTI KENTROU DRAKAKI,KRITI,ΧΑΝΙΩΝ,Chania,1,24.19916725,35.45055389,POINT (517924.6418869233 3922739.0476821023)
2c8a3e04-2024-4b22-96d5-5168a05d1245.77,94070301,GR4340070294070301,ΚΡΗΤΗ-ΓΕΩΡΓΙΟΥΠΟΛΕΩΣ,GEORGIOUPOLEOS,ΚΡΗΤΗ-ΓΕΩΡΓΙΟΥΠΟΛΗΣ,ΕΝΑΝΤΙ ΞΕΝΟΔΟΧΕΙΟΥ 'MARE MONTE',ΠΕΡΑΣΤΙΚΟΣ,PERASTIKOS - HOTEL 'MARE MONTE',KRITI,ΧΑΝΙΩΝ,Chania,1,24.27277756,35.35805511,POINT (524633.0726548383 3912496.350182826)
2c8a3e04-2024-4b22-96d5-5168a05d1245.78,94070401,GR4340070194070401,ΚΡΗΤΗ-ΓΕΩΡΓΙΟΥΠΟΛΕΩΣ,GEORGIOUPOLEOS,ΚΡΗΤΗ-ΚΟΥΡΝΑ,ΞΕΝΟΔΟΧΕΙΟ ΜΥΘΟΣ PALACE,ΚΑΒΡΟΣ,KAVROS - HOTEL MYTHOS,KRITI,ΧΑΝΙΩΝ,Chania,1,24.29055595,35.35472107,POINT (526249.3423094827 3912131.192448343)
2c8a3e04-2024-4b22-96d5-5168a05d1245.79,94140101,GR4340140194140101,ΚΡΗΤΗ-ΚΟΛΥΜΒΑΡΙΟΥ,KOLYMPARIOU,ΚΡΗΤΗ-ΚΟΛΥΜΠΑΡΙΟΥ,"ΚΕΝΤΡΟ ΑΚΤΗΣ,ΕΝΑΝΤΙ ΤΑΒΕΡΝΩΝ",ΚΟΛΥΜΠΑΡΙ,KOLYMPARI   -  MESON AKTIS ENANTI TAVERNON,KRITI,ΧΑΝΙΩΝ,Chania,1,23.78249931,35.54416656,POINT (480135.41968395276 3933124.5711637577)
2c8a3e04-2024-4b22-96d5-5168a05d1245.80,94180501,GR4340180194180501,ΚΡΗΤΗ-Ν.ΚΥΔΩΝΙΑΣ,NEAS KYDONIAS,ΚΡΗΤΗ-ΔΑΡΑΤΣΟΥ,"ΕΟΤ-ΧΡΥΣΗ ΑΚΤΗ, ΚΕΝΤΡΟ ΑΚΤΗΣ",ΧΡΥΣΗ ΑΚΤΗ,"CHRYSI AKTI,EOT - MESON AKTIS",KRITI,ΧΑΝΙΩΝ,Chania,1,23.93666649,35.50666809,POINT (494107.03166073037 3928945.68059959)
2c8a3e04-2024-4b22-96d5-5168a05d1245.81,94190101,GR4340190194190101,ΚΡΗΤΗ-ΠΕΛΕΚΑΝΟΥ,PELEKANOU,ΚΡΗΤΗ-ΠΑΛΑΙΟΧΩΡΑΣ,ΒΡΑΧΑΚΙΑ,"ΠΑΛΙΟΧΩΡΑ,ΠΑΧΕΙΑ ΑΜΜΟΣ",PACHEIA AMMOS  - VRACHAKIA,KRITI,ΧΑΝΙΩΝ,Chania,1,23.6669445,35.22999954,POINT (469543.6736266232 3898311.3687705453)
2c8a3e04-2024-4b22-96d5-5168a05d1245.82,94190201,GR4340190194190201,ΚΡΗΤΗ-ΠΕΛΕΚΑΝΟΥ,PELEKANOU,ΚΡΗΤΗ-ΠΑΛΑΙΟΧΩΡΑΣ,ΑΡΙΣΤΕΡΑ ΠΛΗΣΙΟΝ ΒΡΑΧΟΥ,"ΠΑΛΙΟΧΩΡΑ,ΧΑΛΙΚΙΑ",CHALIKIA  - ARISTERA PLISION VRACHOU,KRITI,ΧΑΝΙΩΝ,Chania,1,23.6669445,35.22999954,POINT (469543.6736266232 3898311.3687705453)
2c8a3e04-2024-4b22-96d5-5168a05d1245.83,94190202,GR4340190194190202,ΚΡΗΤΗ-ΠΕΛΕΚΑΝΟΥ,PELEKANOU,ΚΡΗΤΗ-ΠΑΛΑΙΟΧΩΡΑΣ,"ΕΝΑΝΤΙ ΤΑΒΕΡΝΑΣ ,100μ ΑΠΟ ΒΡΑΧΟ","ΠΑΛΙΟΧΩΡΑ,ΧΑΛΙΚΙΑ",CHALIKIA  - 100m APO VRACHO,KRITI,ΧΑΝΙΩΝ,Chania,1,23.6669445,35.22999954,POINT (469543.6736266232 3898311.3687705453)
2c8a3e04-2024-4b22-96d5-5168a05d1245.84,94190401,GR4340190194190401,ΚΡΗΤΗ-ΠΕΛΕΚΑΝΟΥ,PELEKANOU,ΚΡΗΤΗ-ΠΑΛΑΙΟΧΩΡΑ,ΜΕΣΟΝ ΑΚΤΗΣ,ΓΡΑΜΜΕΝΟ,GRAMMENO,KRITI,ΧΑΝΙΩΝ,Chania,1,23.63583374,35.23389053,POINT (466714.26575509756 3898752.6006339686)
2c8a3e04-2024-4b22-96d5-5168a05d1245.85,94200301,GR4340201294200301,ΚΡΗΤΗ-ΠΛΑΤΑΝΙΑ,PLATANIA,ΚΡΗΤΗ-ΠΛΑΤΑΝΙΑ,ΕΝΑΝΤΙ ΔΗΜΟΤΙΚΟΥ ΣΧΟΛΕΙΟΥ,ΠΛΑΤΑΝΙΑΣ,PLATANIAS  - ENANTI DIMOTIKOU SCHOLEIOU,KRITI,ΧΑΝΙΩΝ,Chania,1,23.9113884,35.52083206,POINT (491816.084686517 3930518.540468212)
2c8a3e04-2024-4b22-96d5-5168a05d1245.86,23050301,GR2230050523050301,ΚΕΦΑΛΛΗΝΙΑ-ΛΕΙΒΑΘΟΥΣ,LEIVATHOU,ΚΕΦΑΛΛΗΝ-ΛΟΥΡΔΑΤΩΝ,ΚΕΝΤΡΟ ΑΚΤΗΣ,ΛΟΥΡΔΑΤΑ,LOURDATA,IONIA NISIA,ΚΕΦΑΛΛΗΝΙΑΣ,KEFALLINIA,1,20.63666725,38.11249924,POINT (204968.26183851698 4223354.47081918)
2c8a3e04-2024-4b22-96d5-5168a05d1245.87,23050501,GR2230050623050501,ΚΕΦΑΛΛΗΝΙΑ-ΛΕΙΒΑΘΟΥΣ,LEIVATHOU,ΚΕΦΑΛΛΗΝ-ΜΕΤΑΞΑΤΩΝ,ΚΕΝΤΡΟ ΑΚΤΗΣ,ΠΑΡΑΛΙΑ ΑΒΥΘΟΣ,PARALIA AVYTHOS,IONIA NISIA,ΚΕΦΑΛΛΗΝΙΑΣ,KEFALLINIA,1,20.5,38.11388779,POINT (192988.217142564 4223952.246315547)
2c8a3e04-2024-4b22-96d5-5168a05d1245.88,32010302,GR2120010132010302,ΗΓΟΥΜΕΝΙΤΣΗΣ,IGOUMENITSIS,ΗΓΟΥΜΕΝΙΤΣΑΣ,ΤΕΡΜΑ ΠΑΡΑΛΙΑΣ ΦΤΕΛΙΑΣ,ΜΑΚΡΥΓΙΑΛΙ,MAKRYGIALI - PARALIA FTELIAS,IPEIROS,ΘΕΣΠΡΩΤΙΑΣ,THESPROTIA,1,20.18583298,39.51944351,POINT (171954.97960279215 4381085.731603943)
2c8a3e04-2024-4b22-96d5-5168a05d1245.89,34010201,GR2140010134010201,ΠΡΕΒΕΖΗΣ,PREVEZIS,ΠΡΕΒΕΖΑΣ,ΤΟΥΡΙΣΤΙΚΟ ΠΕΡΙΠΤΕΡΟ,ΚΥΑΝΗ ΑΚΤΗ,KYANI AKTI - TOURISTIKO PERIPTERO,IPEIROS,ΠΡΕΒΕΖΑΣ,PREVEZA,1,20.75,38.93583298,POINT (218139.55415954816 4314392.4787848)
2c8a3e04-2024-4b22-96d5-5168a05d1245.90,34010301,GR2140010334010301,ΠΡΕΒΕΖΗΣ,PREVEZIS,ΜΥΤΙΚΑ,ΙΟΝΙΟ ΜΟΤΕΛ,ΜΟΝΟΛΙΘΙ,MONOLITHI - IONIO MOTEL,IPEIROS,ΠΡΕΒΕΖΑΣ,PREVEZA,1,20.70083427,39.03333282,POINT (214269.25137105974 4325369.232967807)
2c8a3e04-2024-4b22-96d5-5168a05d1245.91,43010201,GR1430010143010201,ΒΟΛΟΥ,VOLOU,ΒΟΛΟΥ,ΚΕΝΤΡΟ 'ΚΑΛΛΙΘΕΑ',ΒΟΛΟΣ - ΑΝΑΥΡΟΣ,ANAVROS - KENTRO KALLITHEA,THESSALIA,ΜΑΓΝΗΣΙΑΣ,Magnisia,1,22.96333313,39.3516655,POINT (410528.16889657424 4356027.9296973515)
2c8a3e04-2024-4b22-96d5-5168a05d1245.92,A2620202,GR30007001A2620202,ΑΝΑΒΥΣΣΟΥ,ANAVYSSOU,,ΑΡΙΣΤΕΡΟ ΑΚΡΟ ΞΕΝΟΔΟΧΕΙΟΥ 'EDEN BEACH',"ΜΑΥΡΟ ΛΙΘΑΡΙ,EDEN",MAVRO LITHARI - ARISTERA HOTEL 'EDEN BEACH',ATTIKI,ΑΤΤΙΚΗΣ,Attiki,1,23.90805626,37.7266655,POINT (491748.09377463674 4175204.779473408)
2c8a3e04-2024-4b22-96d5-5168a05d1245.93,A2080103,GR30005601A2080103,ΒΟΥΛΙΑΓΜΕΝΗΣ,VOULIAGMENIS,ΒΟΥΛΙΑΓΜΕΝΗΣ,ΜΕΣΟΝ ΠΛΑΖ ΕΝΑΝΤΙ ΣΥΓΚΡΟΤΗΜΑΤΩΝ Β ΚΑΙ Γ,ΑΣΤΕΡΑΣ,ASTERAS,ATTIKI,ΑΤΤΙΚΗΣ,Attiki,1,23.77750015,37.81555557,POINT (480266.6023031599 4185086.1972525814)
2c8a3e04-2024-4b22-96d5-5168a05d1245.94,94200401,GR4340201294200401,ΚΡΗΤΗ-ΠΛΑΤΑΝΙΑ,PLATANIA,,ΞΕΝΟΔΟΧΕΙΟ PORTO PLATANIA,ΛΙΜΑΝΑΚΙ ΠΛΑΤΑΝΙΑ,LIMANAKI PLATANIA,KRITI,ΧΑΝΙΩΝ,Chania,1,23.91277695,35.51889038,POINT (491941.834624417 3930302.826689595)
2c8a3e04-2024-4b22-96d5-5168a05d1245.95,A2060201,GR30005401A2060201,ΒΑΡΗΣ,VARIS,ΒΑΡΗΣ,ΔΕΞΙΟ ΑΚΡΟ ΑΚΤΗΣ ΕΝΑΝΤΙ SNACK-BAR,ΒΑΡΚΙΖΑ,"VARKIZA,EOT - SNACK-BAR",ATTIKI,ΑΤΤΙΚΗΣ,Attiki,1,23.8077774,37.82055664,POINT (482932.7324248193 4185635.030729353)
2c8a3e04-2024-4b22-96d5-5168a05d1245.96,A2070101,GR30005501A2070101,ΒΟΥΛΑΣ,VOULAS,ΒΟΥΛΑΣ,ΔΕΞΙΟ ΑΚΡΟ ΑΚΤΗΣ ΕΝΑΝΤΙ ΕΞΟΔΟΥ CAMPING,ΑΠΟΛΛΩΝΙΕΣ ΒΟΥΛΑΣ Α,VOULA A,ATTIKI,ΑΤΤΙΚΗΣ,Attiki,1,23.75,37.85555649,POINT (477858.00170635607 4189530.3072147965)
2c8a3e04-2024-4b22-96d5-5168a05d1245.97,A2080101,GR30005601A2080101,ΒΟΥΛΙΑΓΜΕΝΗΣ,VOULIAGMENIS,ΒΟΥΛΙΑΓΜΕΝΗΣ,ΑΡΙΣΤΕΡΟ ΑΚΡΟ ΕΝΑΝΤΙ ΣΧΟΛΗΣ ΣΚΙ,ΑΣΤΕΡΑΣ,ASTERAS,ATTIKI,ΑΤΤΙΚΗΣ,Attiki,1,23.77416611,37.80916595,POINT (479971.52759784024 4184378.04592973)
2c8a3e04-2024-4b22-96d5-5168a05d1245.98,11080701,GR2510080411080701,ΚΡΑΝΙΔΙΟΥ,KRANIDIOU,ΠΟΡΤΟ ΧΕΛΙΟΥ,ΕΝΑΝΤΙ ΞΕΝΟΔΟΧΕΙΟΥ ΧΙΝΙΤΣΑ,ΠΟΡΤΟ ΧΕΛΙ B,PORTO CHELI - HOTEL 'CHINITSA',PELOPONNISOS,ΑΡΓΟΛΙΔΑΣ,Argolida,1,23.14805603,37.32500076,POINT (424370.5785270063 4130978.6483002165)
2c8a3e04-2024-4b22-96d5-5168a05d1245.99,12040502,GR2520041812040502,ΒΟΡΕΙΑΣ ΚΥΝΟΥΡΙΑΣ,VOREIAS KYNOURIAS,ΠΑΡΑΛΙΟΥ ΑΣΤΡΟΥΣ,ΕΝΑΝΤΙ ΞΕΝΟΔΟΧΕΙΟΥ ΚΑΛΛΙΣΤΩ,ΚΑΛΛΙΣΤΩ,PARALIO ASTROS - HOTEL 'KALLISTO',PELOPONNISOS,ΑΡΚΑΔΙΑΣ,Arkadia,1,22.76388931,37.42916489,POINT (390484.63666350435 4142911.818043152)
2c8a3e04-2024-4b22-96d5-5168a05d1245.100,13080101,GR2320080713080101,ΔΥΜΗΣ,DYMIS,ΝΙΦΟΡΑΙΙΚΩΝ,CAMPING ΝΙΦΟΡΕΙΚΩΝ,ΝΙΦΟΡΕΙΚΑ,NIFOREIKA - CAMPING NIFOREIKON,DYTIKI ELLADA,ΑΧΑΙΑΣ,Achaia,1,21.5177784,38.15166855,POINT (282350.19408505183 4225266.469963194)
2c8a3e04-2024-4b22-96d5-5168a05d1245.101,16060201,GR2540061316060201,ΓΥΘΕΙΟΥ,GYTHEIOU,ΝΕΟΧΩΡΙΟΥ,ΜΕΤΑΞΥ ΞΕΝΟΔ.BELLE-ELEN ΚΑΙ CAMPING ΚΡΟΝΟΥ,ΒΑΘΥ,VATHI - HOTEL BELLE ELEN KAI CAMPING KRONOU,PELOPONNISOS,ΛΑΚΩΝΙΑΣ,Lakonia,1,22.53055573,36.70555496,POINT (368598.00867369736 4062927.0480804206)
2c8a3e04-2024-4b22-96d5-5168a05d1245.102,16060401,GR2540060116060401,ΓΥΘΕΙΟΥ,GYTHEIOU,ΓΥΘΕΙΟΥ,ΠΛΑΖ ΣΕΛΙΝΙΤΣΑ,ΓΥΘΕΙΟ 2,GYTHEIO - PLAZ SELINITSA,PELOPONNISOS,ΛΑΚΩΝΙΑΣ,Lakonia,1,22.59861183,36.70277786,POINT (374672.61171198345 4062527.8202281394)
2c8a3e04-2024-4b22-96d5-5168a05d1245.103,16060701,GR2540060116060701,ΓΥΘΕΙΟΥ,GYTHEIOU,ΓΥΘΕΙΟΥ,"CAMPING ΓΙΑΝΝΑΚΑΚΟΥ, ΔΕΞΙΟ ΑΚΡΟ",ΜΑΥΡΟΒΟΥΝΙ 1,MAVROVOUNI - CAMPING GIANNAKAKOU,PELOPONNISOS,ΛΑΚΩΝΙΑΣ,Lakonia,1,22.57500076,36.73333359,POINT (372613.8675512654 4065948.636076718)
2c8a3e04-2024-4b22-96d5-5168a05d1245.104,16060702,GR2540060116060702,ΓΥΘΕΙΟΥ,GYTHEIOU,ΓΥΘΕΙΟΥ,"CAMPING ΓIANNAKAKOY, ΑΡΙΣΤΕΡΟ ΑΚΡΟ",ΜΑΥΡΟΒΟΥΝΙ 1,MAVROVOYNI - CAMPING GIANNAKAKOU,PELOPONNISOS,ΛΑΚΩΝΙΑΣ,Lakonia,1,22.57500076,36.73749924,POINT (372620.74537540035 4066410.917230906)
2c8a3e04-2024-4b22-96d5-5168a05d1245.105,16060801,GR2540060116060801,ΓΥΘΕΙΟΥ,GYTHEIOU,ΓΥΘΕΙΟΥ,"CAMPING ΔΕΜΕΣΤΙΧΑ, ΔΕΞΙΟ ΑΚΡΟ",ΜΑΥΡΟΒΟΥΝΙ 2,MAVROVOUNI - CAMPING DEMESTICHA,PELOPONNISOS,ΛΑΚΩΝΙΑΣ,Lakonia,1,22.58194351,36.79722214,POINT (373338.9369148775 4073027.2176405247)
2c8a3e04-2024-4b22-96d5-5168a05d1245.106,16060802,GR2540060116060802,ΓΥΘΕΙΟΥ,GYTHEIOU,ΓΥΘΕΙΟΥ,"CAMPING ΔΕΜΕΣΤΙΧΑ, ΑΡΙΣΤΕΡΟ ΑΚΡΟ",ΜΑΥΡΟΒΟΥΝΙ 2,MAVROVOUNI - CAMPING DEMESTICHA,PELOPONNISOS,ΛΑΚΩΝΙΑΣ,Lakonia,1,22.58194351,36.79861069,POINT (373341.2217006428 4073181.312756549)
2c8a3e04-2024-4b22-96d5-5168a05d1245.107,17010601,GR2550010117010601,ΚΑΛΑΜΑΤΑΣ,KALAMATAS,ΚΑΛΑΜΑΤΑΣ,ΞΕΝΟΔΟΧΕΙΟ ΦΙΛΟΞΕΝΙΑ,ΚΑΛΑΜΑΤΑ 3/ΒΕΡΓΑ,VERGA - HOTEL'FILOXENIA',PELOPONNISOS,ΜΕΣΣΗΝΙΑΣ,Messinia,1,22.14305496,37.02222061,POINT (334666.23597608303 4098661.1100867186)
2c8a3e04-2024-4b22-96d5-5168a05d1245.108,17010701,GR2550011117010701,ΚΑΛΑΜΑΤΑΣ,KALAMATAS,Μ.ΜΑΝΤΙΝΕΙΑΣ,ΤΟΥΡΙΣΤΙΚΟ ΚΑΤΑΣΤΗΜΑ,ΜΙΚΡΗ ΜΑΝΤΙΝΕΙΑ,MIKRI MANTINEIA - TOURISTIKO,PELOPONNISOS,ΜΕΣΣΗΝΙΑΣ,Messinia,1,22.14305496,36.97222137,POINT (334558.00906189386 4093113.6157932403)
2c8a3e04-2024-4b22-96d5-5168a05d1245.109,17180101,GR2550180117180101,ΚΥΠΑΡΙΣΣΙΑΣ,KYPARISSIAS,ΚΥΠΑΡΙΣΣΙΑΣ,ΑΡΙΣΤΕΡΑ ΠΟΤΑΜΟΥ,ΑΙ ΛΑΓΟΥΔΗΣ,AI LAGOUDIS - POTAMI,PELOPONNISOS,ΜΕΣΣΗΝΙΑΣ,Messinia,1,21.64999962,37.2444458,POINT (291411.23638385476 4124289.3215847244)
2c8a3e04-2024-4b22-96d5-5168a05d1245.110,17200601,GR2550200617200601,ΜΕΘΩΝΗΣ,METHONIS,ΦΟΙΝΙΚΟΥΝΤΑΣ,ΑΡΙΣΤΕΡΟ ΑΚΡΟ ΚΟΙΝΟΤΙΚΗΣ ΑΚΤΗΣ,ΦΟΙΝΙΚΟΥΝΤΑ,FOINIKOUNTA,PELOPONNISOS,ΜΕΣΣΗΝΙΑΣ,Messinia,1,21.80833244,36.80611038,POINT (304336.1364732212 4075316.2658629133)
2c8a3e04-2024-4b22-96d5-5168a05d1245.111,17220101,GR2550220117220101,ΜΕΣΣΗΝΗΣ,MESSINIS,ΜΕΣΣΗΝΗΣ,"100Μ ΔΕΞΙΑ ΑΝΑΨΥΚΤ.,ΕΝΑΝΤΙ ΚΕΝΤΡ.ΖΑΦΥΡΟΠΟΥΛΟΥ","ΑΓ.ΚΩΝΣΤΑΝΤΙΝΟΣ,ΜΠΟΥΚΑ",BOUKA - AG.KONSTANTINOS,PELOPONNISOS,ΜΕΣΣΗΝΙΑΣ,Messinia,1,22.01666641,37.02222061,POINT (323422.1131531759 4098888.0756808827)
2c8a3e04-2024-4b22-96d5-5168a05d1245.112,17220102,GR2550220117220102,ΜΕΣΣΗΝΗΣ,MESSINIS,ΜΕΣΣΗΝΗΣ,100M ΑΡΙΣΤΕΡΑ ΑΝΑΨΥΚΤΗΡΙΟΥ,"ΑΓ.ΚΩΝΣΤΑΝΤΙΝΟΣ,ΜΠΟΥΚΑ",BOUKA - AG.KONSTANTINOS,PELOPONNISOS,ΜΕΣΣΗΝΙΑΣ,Messinia,1,22.01666641,37.02222061,POINT (323422.1131531759 4098888.0756808827)
2c8a3e04-2024-4b22-96d5-5168a05d1245.113,21020101,GR2210020321020101,ΖΑΚΥΝΘΟΣ-ΑΛΥΚΩΝ,ALYKON,ΖΑΚΥΝΘΟΣ-ΑΛΙΚΑΝΑ,ΕΝΑΝΤΙ ΞΕΝΟΔΟΧΕΙΟΥ ΒΑΛΑΗ,ΑΛΙΚΑΝΑΣ,ALIKANAS - HOTEL VALAI,IONIA NISIA,ΖΑΚΥΝΘΟΥ,ZAKYNTHOS,1,20.78611183,37.84444427,POINT (217046.2009884414 4193136.830620831)
2c8a3e04-2024-4b22-96d5-5168a05d1245.114,21020102,GR2210020321020102,ΖΑΚΥΝΘΟΣ-ΑΛΥΚΩΝ,ALYKON,ΖΑΚΥΝΘΟΣ-ΑΛΙΚΑΝΑ,100 Μ. ΑΡΙΣΤΕΡΑ ΡΕΜΑΤΟΣ ΣΚΟΥΡΤΗ,ΑΛΙΚΑΝΑΣ,ALIKANAS - 100 M. ARISTERA REMATOS SKOURTI,IONIA NISIA,ΖΑΚΥΝΘΟΥ,ZAKYNTHOS,1,20.78611183,37.84444427,POINT (217046.2009884414 4193136.830620831)
2c8a3e04-2024-4b22-96d5-5168a05d1245.115,21020201,GR2210020121020201,ΖΑΚΥΝΘΟΣ-ΑΛΥΚΩΝ,ALYKON,ΖΑΚΥΝΘΟΣ-ΚΑΤΑΣΤΑΡΙΟΥ,ΑΡΙΣΤΕΡΑ ΞΕΝΟΔΟΧΕΙΟΥ ΜΟΝΤΡΕΑΛ,ΑΛΥΚΕΣ,ALYKES - HOTEL MONTREAL,IONIA NISIA,ΖΑΚΥΝΘΟΥ,ZAKYNTHOS,1,20.76444435,37.8461113,POINT (215145.54009920996 4193387.7752632387)
2c8a3e04-2024-4b22-96d5-5168a05d1245.116,21020202,GR2210020121020202,ΖΑΚΥΝΘΟΣ-ΑΛΥΚΩΝ,ALYKON,ΖΑΚΥΝΘΟΣ-ΚΑΤΑΣΤΑΡΙΟΥ,"ΔΕΞΙΑ,ΠΡΟΣΒΑΣΗ ΚΟΝΤΑ ΣΤΟ ΠΟΤΑΜΙ",ΑΛΥΚΕΣ,ALYKES - DEXIA,IONIA NISIA,ΖΑΚΥΝΘΟΥ,ZAKYNTHOS,1,20.77222252,37.84361267,POINT (215820.52650346878 4193086.57667931)
2c8a3e04-2024-4b22-96d5-5168a05d1245.117,21030101,GR2210030721030101,ΖΑΚΥΝΘΟΣ-ΑΡΚΑΔΙΩΝ,ARKADION,ΖΑΚΥΝΘΟΣ-ΤΡΑΓΑΚΙ,ΥΨΟΣ ΠΡΟΣΒΑΣΗΣ,"ΑΜΠΟΥΛΑ,ΤΡΑΓΑΚΙ","AMPOULA,TRAGAKI - YPSOS PROSVASIS",IONIA NISIA,ΖΑΚΥΝΘΟΥ,ZAKYNTHOS,1,20.84722137,37.82916641,POINT (222367.70362419955 4191257.68783295)
2c8a3e04-2024-4b22-96d5-5168a05d1245.118,21030201,GR2210030721030201,ΖΑΚΥΝΘΟΣ-ΑΡΚΑΔΙΩΝ,ARKADION,ΖΑΚΥΝΘΟΣ-ΤΡΑΓΑΚΙ,ΕΝΑΝΤΙ ΞΕΝΟΔΟΧΕΙΟΥ 'ΚΑΡΑΒΕΛ',ΜΠΟΥΚΑ,BOUKA - HOTEL KARAVEL,IONIA NISIA,ΖΑΚΥΝΘΟΥ,ZAKYNTHOS,1,20.86388969,37.82500076,POINT (223819.42873970154 4190745.7550214296)
2c8a3e04-2024-4b22-96d5-5168a05d1245.119,21030301,GR2210030521030301,ΖΑΚΥΝΘΟΣ-ΑΡΚΑΔΙΩΝ,ARKADION,ΖΑΚΥΝΘΟΣ-ΠΛΑΝΟΥ,ΚΕΝΤΡΙΚΗ ΠΡΟΣΒΑΣΗ,ΤΣΙΛΙΒΙ,TSILIVI - KENTRIKI PROSVASI,IONIA NISIA,ΖΑΚΥΝΘΟΥ,ZAKYNTHOS,1,20.87361145,37.81888962,POINT (224652.6260503069 4190038.7789523774)
2c8a3e04-2024-4b22-96d5-5168a05d1245.120,22010101,GR2220010122010101,ΚΕΡΚΥΡΑ-ΚΕΡΚΥΡΑΙΩΝ,KERKYRAION,ΚΕΡΚΥΡΑ-ΚΕΡΚΥΡΑΣ,ΞΕΝΟΔΟΧΕΙΟ 'KERKIRA GOLF',ΑΛΥΚΕΣ ΠΟΤΑΜΟΥ,ALYKES POTAMOU - HOTEL 'KERKIRA GOLF',IONIA NISIA,ΚΕΡΚΥΡΑΣ,KERKYRA,1,19.89583397,39.63360977,POINT (147595.94397956858 4394860.752946123)
2c8a3e04-2024-4b22-96d5-5168a05d1245.121,22010701,GR2220010122010701,ΚΕΡΚΥΡΑ-ΚΕΡΚΥΡΑΙΩΝ,KERKYRAION,ΚΕΡΚΥΡΑ-ΚΕΡΚΥΡΑΣ,ΞΕΝΟΔΟΧΕΙΟ CORFU IMPERIAL (πρωηνΑΣΤΗΡ ΠΑΛΛΑΣ),ΚΟΜΜΕΝΟ,KOMMENO - HOTEL 'CORFU IMPERIAL',IONIA NISIA,ΚΕΡΚΥΡΑΣ,KERKYRA,1,19.85083389,39.65222168,POINT (143828.04456183306 4397105.091817735)
2c8a3e04-2024-4b22-96d5-5168a05d1245.122,22020101,GR2220021122020101,ΚΕΡΚΥΡΑ-ΑΓΙΟΥ ΓΕΩΡΓΙ,AGIOU GEORGIOU,ΚΕΡΚΥΡΑ-ΠΑΓΩΝ,ΞΕΝΟΔΟΧΕΙΟ 'ΑΛΚΥΩΝ',ΑΓ.ΓΕΩΡΓΙΟΣ,AGIOS GEORGIOS - HOTEL ALKYON,IONIA NISIA,ΚΕΡΚΥΡΑΣ,KERKYRA,1,19.6744442,39.72000122,POINT (129051.11441473513 4405347.209523252)
2c8a3e04-2024-4b22-96d5-5168a05d1245.123,22030101,GR2220031022030101,ΚΕΡΚΥΡΑ-ΑΧΙΛΛΕΙΩΝ,ACHILLEION,ΚΕΡΚΥΡΑ-ΚΑΤΩ ΓΑΡΟΥΝΑ,AGIOS GORDIOS HOTEL,ΑΓΙΟΣ ΓΟΡΔΙΟΣ,AGIOS GORDIOS  - AGIOS GORDIOS HOTEL,IONIA NISIA,ΚΕΡΚΥΡΑΣ,KERKYRA,1,19.81805611,39.58611298,POINT (140672.39477993417 4389894.926168761)
2c8a3e04-2024-4b22-96d5-5168a05d1245.124,22040201,GR2220040522040201,ΚΕΡΚΥΡΑ-ΕΣΠΕΡΙΩΝ,ESPERION,ΚΕΡΚΥΡΑ-ΑΥΛΙΩΤΩΝ,ΚΕΝΤΡΟ ΑΚΤΗΣ,ΑΓ.ΣΤΕΦΑΝΟΣ,AGIOS STEFANOS,IONIA NISIA,ΚΕΡΚΥΡΑΣ,KERKYRA,1,19.95555496,39.76666641,POINT (153390.72966033034 4409401.849880666)
2c8a3e04-2024-4b22-96d5-5168a05d1245.125,22040401,GR2220040922040401,ΚΕΡΚΥΡΑ-ΕΣΠΕΡΙΩΝ,ESPERION,ΚΕΡΚΥΡΑ-ΜΑΓΟΥΛΑΔΩΝ,ΕΝΑΝΤΙ ΞΕΝΟΔΟΧΕΙΟΥ ΜΑΡΙΝΑ,ΑΡΙΛΛΑ,ARILLA - HOTEL MARINA,IONIA NISIA,ΚΕΡΚΥΡΑΣ,KERKYRA,1,19.63555527,39.73555374,POINT (125800.59892348347 4407236.536523782)
2c8a3e04-2024-4b22-96d5-5168a05d1245.126,22050101,GR2220050822050101,ΚΕΡΚΥΡΑ-ΘΙΝΑΛΙΟΥ,THINALIOU,ΚΕΡΚΥΡΑ-ΠΕΡΙΘΕΙΑΣ,"ΚΕΝΤΡΟ ΑΚΤΗΣ,GELINA HOTEL",ΑΛΜΥΡΟΣ,ALMYROS  - GELINA HOTEL,IONIA NISIA,ΚΕΡΚΥΡΑΣ,KERKYRA,1,19.81861115,39.80138779,POINT (141836.2118337071 4413797.146187474)
2c8a3e04-2024-4b22-96d5-5168a05d1245.127,22050201,GR2220050622050201,ΚΕΡΚΥΡΑ-ΘΙΝΑΛΙΟΥ,THINALIOU,ΚΕΡΚΥΡΑ-ΛΟΥΤΣΩΝ,ΚΕΝΤΡΟ ΑΚΤΗΣ,ΑΠΡΑΟΣ - ΚΑΛΑΜΑΚΙ,APRAOS - KALAMAKI,IONIA NISIA,ΚΕΡΚΥΡΑΣ,KERKYRA,1,19.88472176,39.80027771,POINT (147492.79421337615 4413410.906316797)
2c8a3e04-2024-4b22-96d5-5168a05d1245.128,22050301,GR2220050822050301,ΚΕΡΚΥΡΑ-ΘΙΝΑΛΙΟΥ,THINALIOU,ΚΕΡΚΥΡΑ-ΠΕΡΙΘΕΙΑΣ,ΕΝΑΝΤΙ ΕΚΚΛΗΣΙΑΣ ΑΓ.ΣΠΥΡΙΔΩΝΑ,"ΠΕΡΙΘΕΙΑ,ΑΓ.ΣΠΥΡΙΔΩΝΑΣ","PERITHIA,AGIOS SPYRIDONAS",IONIA NISIA,ΚΕΡΚΥΡΑΣ,KERKYRA,1,19.70027733,39.78555679,POINT (131616.4313243902 4412520.022050573)
2c8a3e04-2024-4b22-96d5-5168a05d1245.129,22060201,GR2220060122060201,ΚΕΡΚΥΡΑ-ΚΑΣΣΟΠΑΙΩΝ,KASSOPAION,ΚΕΡΚΥΡΑ-ΚΑΣΣΩΠΑΙΩΝ,ΚΕΝΤΡΟ ΑΚΤΗΣ,ΓΙΜΑΡΙ,GIMARI,IONIA NISIA,ΚΕΡΚΥΡΑΣ,KERKYRA,1,19.91666603,39.78722382,POINT (150162.59259210454 4411835.676992589)
2c8a3e04-2024-4b22-96d5-5168a05d1245.130,22060301,GR2220060222060301,ΚΕΡΚΥΡΑ-ΚΑΣΣΟΠΑΙΩΝ,KASSOPAION,ΚΕΡΚΥΡΑ-ΚΑΣΣΙΟΠΗΣ,ΕΝΑΝΤΙ ΜΕΣΑΙΩΝΙΚΟΥ ΦΡΟΥΡΙΟΥ,ΚΑΛΑΜΙΩΝΕΣ,KALAMIONES - FROURIO,IONIA NISIA,ΚΕΡΚΥΡΑΣ,KERKYRA,1,19.93333244,39.78333282,POINT (151570.6250465433 4411338.764906638)
2c8a3e04-2024-4b22-96d5-5168a05d1245.131,22060401,GR2220060422060401,ΚΕΡΚΥΡΑ-ΚΑΣΣΟΠΑΙΩΝ,KASSOPAION,ΚΕΡΚΥΡΑ-ΣΙΝΙΩΝ,ΕΝΑΝΤΙ ΕΣΤΙΑΤΟΡΕΙΟΥ 'ΚΕΡΑΣΙΑ',ΚΕΡΑΣΙΑ,KERASIA - ESTIATOREIO 'KERASIA',IONIA NISIA,ΚΕΡΚΥΡΑΣ,KERKYRA,1,19.93333244,39.78333282,POINT (151570.6250465433 4411338.764906638)
2c8a3e04-2024-4b22-96d5-5168a05d1245.132,22060501,GR2220060322060501,ΚΕΡΚΥΡΑ-ΚΑΣΣΟΠΑΙΩΝ,KASSOPAION,ΚΕΡΚΥΡΑ-ΚΑΣΣΩΠΑΙΩΝ,ΚΕΝΤΡΟ ΑΚΤΗΣ(ΚΡΟΥΖΕΡΗ),ΝΗΣΑΚΙ,NISAKI - KROUZERI,IONIA NISIA,ΚΕΡΚΥΡΑΣ,KERKYRA,1,19.91944504,39.79444504,POINT (150437.09337150332 4412626.731251163)
2c8a3e04-2024-4b22-96d5-5168a05d1245.133,22070101,GR2220070122070101,ΚΕΡΚΥΡΑ-ΚΟΡΙΣΣΙΩΝ,KORISSION,ΚΕΡΚΥΡΑ-ΑΡΓΥΡΑΔΩΝ,ΚΕΝΤΡΟ ΑΚΤΗΣ,ΑΓ.ΓΕΩΡΓΙΟΣ,AGIOS GEORGIOS,IONIA NISIA,ΚΕΡΚΥΡΑΣ,KERKYRA,1,19.95555496,39.42499924,POINT (151681.13194991267 4371464.715343441)
2c8a3e04-2024-4b22-96d5-5168a05d1245.134,22070201,GR2220070122070201,ΚΕΡΚΥΡΑ-ΚΟΡΙΣΣΙΩΝ,KORISSION,ΚΕΡΚΥΡΑ-ΑΡΓΥΡΑΔΩΝ,ΚΕΝΤΡΟ ΑΚΤΗΣ,ΜΑΡΑΘΙΑΣ,MARATHIAS,IONIA NISIA,ΚΕΡΚΥΡΑΣ,KERKYRA,1,19.97500038,39.41944504,POINT (153327.95749088872 4370772.813753213)
2c8a3e04-2024-4b22-96d5-5168a05d1245.135,22090101,GR2220090722090101,ΚΕΡΚΥΡΑ-ΜΕΛΙΤΕΙΕΩΝ,MELITEIEON,ΚΕΡΚΥΡΑ-ΣΤΡΟΓΓΥΛΗΣ,ΚΕΝΤΡΟ ΑΚΤΗΣ,ΑΓ.ΙΩΑΝΝΗΣ ΣΤΡΟΓΥΛΛΗΣ,AGIOS IOANNIS STROGYLLIS,IONIA NISIA,ΚΕΡΚΥΡΑΣ,KERKYRA,1,19.92499924,39.5055542,POINT (149454.84580894787 4380527.843181921)
2c8a3e04-2024-4b22-96d5-5168a05d1245.136,22090201,GR2220090222090201,ΚΕΡΚΥΡΑ-ΜΕΛΙΤΕΙΕΩΝ,MELITEIEON,ΚΕΡΚΥΡΑ-ΑΓ.ΜΑΤΘΑΙΟΥ,ΚΕΝΤΡΟ ΑΚΤΗΣ,ΑΓ.ΜΑΤΘΑΙΟΣ,AGIOS MATHAIOS,IONIA NISIA,ΚΕΡΚΥΡΑΣ,KERKYRA,1,19.85555649,39.5,POINT (143453.17351254128 4380183.937062826)
2c8a3e04-2024-4b22-96d5-5168a05d1245.137,22100201,GR2220100122100201,ΚΕΡΚΥΡΑ-ΠΑΛΑΙΟΚΑΣΤΡΙ,PALAIOKASTRITSAS,ΚΕΡΚΥΡΑ-ΛΑΚΩΝΩΝ,XENIA HOTEL,"ΠΑΛΑΙΟΚΑΣΤΡΙΤΣΑ,ΧΕΝΙΑ",PALAIOKASTRITSA - XENIA HOTEL,IONIA NISIA,ΚΕΡΚΥΡΑΣ,KERKYRA,1,19.70666695,39.67499924,POINT (131574.71802738885 4400217.22319566)
2c8a3e04-2024-4b22-96d5-5168a05d1245.138,22120101,GR2220120922120101,ΚΕΡΚΥΡΑ-ΠΑΡΕΛΙΩΝ,PARELION,ΚΕΡΚΥΡΑ-ΠΕΛΕΚΑ,GLYFADA BEACH HOTEL,ΓΛΥΦΑΔΑ,GLYFADA - GLYFADA BEACH HOTEL,IONIA NISIA,ΚΕΡΚΥΡΑΣ,KERKYRA,1,19.80333328,39.59444427,POINT (139450.7090824938 4390879.257707297)
2c8a3e04-2024-4b22-96d5-5168a05d1245.139,22120301,GR2220120922120301,ΚΕΡΚΥΡΑ-ΠΑΡΕΛΙΩΝ,PARELION,ΚΕΡΚΥΡΑ-ΠΕΛΕΚΑ,BAR 'NAFTIS',ΚΟΝΤΟΓΙΑΛΟΣ,KONTOGIALOS - BAR NAFTIS,IONIA NISIA,ΚΕΡΚΥΡΑΣ,KERKYRA,1,19.80694389,39.58333206,POINT (139703.277846255 4389631.000233832)
2c8a3e04-2024-4b22-96d5-5168a05d1245.140,22130201,GR2220130622130201,ΚΕΡΚΥΡΑ-ΦΑΙΑΚΩΝ,FAIAKON,ΚΕΡΚΥΡΑ-ΣΠΑΡΤΥΛΑ,ΕΝΑΝΤΙ ΚΕΝΤΡΟΥ 'Ο ΓΙΑΝΝΑΚΟΣ',ΜΠΑΡΜΠΑΤΙ,BARBATI - KENTRO GIANNAKOS,IONIA NISIA,ΚΕΡΚΥΡΑΣ,KERKYRA,1,19.84166718,39.70833206,POINT (143330.5118838392 4403372.068610625)
2c8a3e04-2024-4b22-96d5-5168a05d1245.141,22130202,GR2220130622130202,ΚΕΡΚΥΡΑ-ΦΑΙΑΚΩΝ,FAIAKON,ΚΕΡΚΥΡΑ-ΣΠΑΡΤΥΛΑ,ΚΕΝΤΡΟ ΑΚΤΗΣ,ΜΠΑΡΜΠΑΤΙ,BARBATI -,IONIA NISIA,ΚΕΡΚΥΡΑΣ,KERKYRA,1,19.86694527,39.71666718,POINT (145541.0878687339 4404197.082019681)
2c8a3e04-2024-4b22-96d5-5168a05d1245.142,22130303,GR2220130122130303,ΚΕΡΚΥΡΑ-ΦΑΙΑΚΩΝ,FAIAKON,ΚΕΡΚΥΡΑ-Κ.ΚΟΡΑΚΙΑΝΑ,ΕΝΑΝΤΙ ΕΣΤΙΑΤΟΡΙΟΥ 'ΑΣΤΕΡΙΑ',ΥΨΟΣ,YPSOS - ESTIATORIO ASTERIA,IONIA NISIA,ΚΕΡΚΥΡΑΣ,KERKYRA,1,19.86694527,39.68444443,POINT (145375.94000493156 4400619.082560495)
2c8a3e04-2024-4b22-96d5-5168a05d1245.143,23010401,GR2230010123010401,ΚΕΦΑΛΛΗΝΙΑ-ΑΡΓΟΣΤΟΛΙ,ARGOSTOLIOU,ΚΕΦΑΛΛΗΝ-ΑΡΓΟΣΤΟΛΙΟΥ,ΚΕΝΤΡΟ ΑΚΤΗΣ,ΜΑΚΡΥΣ ΓΙΑΛΟΣ,MAKRYS GIALOS,IONIA NISIA,ΚΕΦΑΛΛΗΝΙΑΣ,KEFALLINIA,1,20.47999954,38.15166855,POINT (191393.46909256832 4228212.206903424)
2c8a3e04-2024-4b22-96d5-5168a05d1245.144,23010402,GR2230010123010402,ΚΕΦΑΛΛΗΝΙΑ-ΑΡΓΟΣΤΟΛΙ,ARGOSTOLIOU,ΚΕΦΑΛΛΗΝ-ΑΡΓΟΣΤΟΛΙΟΥ,ΔΕΞΙΟ ΑΚΡΟ ΑΚΤΗΣ,ΜΑΚΡΥΣ ΓΙΑΛΟΣ,MAKRYS GIALOS,IONIA NISIA,ΚΕΦΑΛΛΗΝΙΑΣ,KEFALLINIA,1,20.48444366,38.1511116,POINT (191780.67048822518 4228135.695581888)
2c8a3e04-2024-4b22-96d5-5168a05d1245.145,23010801,GR2230010123010801,ΚΕΦΑΛΛΗΝΙΑ-ΑΡΓΟΣΤΟΛΙ,ARGOSTOLIOU,ΚΕΦΑΛΛΗΝ-ΑΡΓΟΣΤΟΛΙΟΥ,ΑΡΙΣΤΕΡΟ ΑΚΡΟ ΑΚΤΗΣ,ΠΛΑΤΥΣ ΓΥΑΛΟΣ,PLATYS GIALOS,IONIA NISIA,ΚΕΦΑΛΛΗΝΙΑΣ,KEFALLINIA,1,20.47999954,38.16500092,POINT (191449.7152085037 4229692.244376235)
2c8a3e04-2024-4b22-96d5-5168a05d1245.146,23010803,GR2230010123010803,ΚΕΦΑΛΛΗΝΙΑ-ΑΡΓΟΣΤΟΛΙ,ARGOSTOLIOU,ΚΕΦΑΛΛΗΝ-ΑΡΓΟΣΤΟΛΙΟΥ,ΔΕΞΙΟ ΑΚΡΟ ΑΚΤΗΣ,ΠΛΑΤΥΣ ΓΥΑΛΟΣ,PLATYS GIALOS,IONIA NISIA,ΚΕΦΑΛΛΗΝΙΑΣ,KEFALLINIA,1,20.47999954,38.16500092,POINT (191449.7152085037 4229692.244376235)
2c8a3e04-2024-4b22-96d5-5168a05d1245.147,23020301,GR2230020623020301,ΚΕΦΑΛΛΗΝΙΑ-ΕΛΕΙΟΥ,ELEIOU,ΚΕΦΑΛΛΗΝ-ΜΑΡΚΟΠΟΥΛΟΥ,ΑΓΙΑ ΒΑΡΒΑΡΑ,ΚΑΤΕΛΕΙΟΣ,KATELEIOS - AGIA VARVARA,IONIA NISIA,ΚΕΦΑΛΛΗΝΙΑΣ,KEFALLINIA,1,20.75749969,38.06861115,POINT (215394.88055862824 4218105.479770554)
2c8a3e04-2024-4b22-96d5-5168a05d1245.148,23020701,GR2230021023020701,ΚΕΦΑΛΛΗΝΙΑ-ΕΛΕΙΟΥ,ELEIOU,ΚΕΦΑΛΛΗΝ-ΣΚΑΛΑΣ,ΑΡΙΣΤΕΡΟ ΑΚΡΟ ΑΚΤΗΣ,ΠΑΡΑΛΙΑ ΣΚΑΛΑΣ,PARALIA SKALAS,IONIA NISIA,ΚΕΦΑΛΛΗΝΙΑΣ,KEFALLINIA,1,20.79999924,38.06666565,POINT (219116.79255983178 4217760.290964296)
2c8a3e04-2024-4b22-96d5-5168a05d1245.149,23020702,GR2230021023020702,ΚΕΦΑΛΛΗΝΙΑ-ΕΛΕΙΟΥ,ELEIOU,ΚΕΦΑΛΛΗΝ-ΣΚΑΛΑΣ,ΚΕΝΤΡΟ ΑΚΤΗΣ,ΠΑΡΑΛΙΑ ΣΚΑΛΑΣ,PARALIA SKALAS,IONIA NISIA,ΚΕΦΑΛΛΗΝΙΑΣ,KEFALLINIA,1,20.79999924,38.06666565,POINT (219116.79255983178 4217760.290964296)
2c8a3e04-2024-4b22-96d5-5168a05d1245.150,23020703,GR2230021023020703,ΚΕΦΑΛΛΗΝΙΑ-ΕΛΕΙΟΥ,ELEIOU,ΚΕΦΑΛΛΗΝ-ΣΚΑΛΑΣ,ΔΕΞΙΟ ΑΚΡΟ ΑΚΤΗΣ,ΠΑΡΑΛΙΑ ΣΚΑΛΑΣ,PARALIA SKALAS,IONIA NISIA,ΚΕΦΑΛΛΗΝΙΑΣ,KEFALLINIA,1,20.79999924,38.06666565,POINT (219116.79255983178 4217760.290964296)
2c8a3e04-2024-4b22-96d5-5168a05d1245.151,23021001,GR2230020923021001,ΚΕΦΑΛΛΗΝΙΑ-ΕΛΕΙΟΥ,ELEIOU,ΚΕΦΑΛΛΗΝ-ΠΟΡΟΥ,ΑΡΙΣΤΕΡΟ ΑΚΡΟ ΑΚΤΗΣ,ΑΡΑΓΙΑ,RAGIA,IONIA NISIA,ΚΕΦΑΛΛΗΝΙΑΣ,KEFALLINIA,1,20.77166748,38.16333389,POINT (217004.0646349145 4228576.020022858)
2c8a3e04-2024-4b22-96d5-5168a05d1245.152,23060601,GR2230060623060601,ΚΕΦΑΛΛΗΝΙΑ-ΠΑΛΙΚΗΣ,PALIKIS,ΚΕΦΑΛΛΗΝ-ΚΑΤΩΓΗΣ,ΕΝΑΝΤΙ ΞΕΝΟΔΟΧΕΙΟΥ 'KEPHALONIA PALACE',ΞΙ (ΜΑΝΤΖΑΒΙΝΑΤΑ),XI - HOTEL 'KEPHALONIA PALACE',IONIA NISIA,ΚΕΦΑΛΛΗΝΙΑΣ,KEFALLINIA,1,20.41833305,38.1594429,POINT (186021.3187812886 4229282.711576015)
2c8a3e04-2024-4b22-96d5-5168a05d1245.153,23070201,GR2230070223070201,ΚΕΦΑΛΛΗΝΙΑ-ΠΥΛΑΡΕΩΝ,PYLAREON,ΚΕΦΑΛΛΗΝ-ΔΙΒΑΡΑΤΩΝ,ΑΡΙΣΤΕΡΟ ΑΚΡΟ ΑΚΤΗΣ,ΜΥΡΤΟΣ,MYRTOS,IONIA NISIA,ΚΕΦΑΛΛΗΝΙΑΣ,KEFALLINIA,1,20.53611183,38.34388733,POINT (197111.42980773828 4249364.433111528)
2c8a3e04-2024-4b22-96d5-5168a05d1245.154,23070202,GR2230070223070202,ΚΕΦΑΛΛΗΝΙΑ-ΠΥΛΑΡΕΩΝ,PYLAREON,ΚΕΦΑΛΛΗΝ-ΔΙΒΑΡΑΤΩΝ,ΔΕΞΙΟ ΑΚΡΟ ΑΚΤΗΣ,ΜΥΡΤΟΣ,MYRTOS,IONIA NISIA,ΚΕΦΑΛΛΗΝΙΑΣ,KEFALLINIA,1,20.53888893,38.34777832,POINT (197370.48967542563 4249787.020510484)
2c8a3e04-2024-4b22-96d5-5168a05d1245.155,93010601,GR4330010193010601,ΚΡΗΤΗ-ΡΕΘΥΜΝΗΣ,RETHYMNIS,ΚΡΗΤΗ-ΡΕΘΥΜΝΗΣ,ΕΝΑΝΤΙ ΞΕΝΟΔΟΧΕΙΟΥ 'STERIS',ΡΕΘΥΜΝΟ 3,RETHYMNO  - ENANTI HOTEL STERIS,KRITI,ΡΕΘΥΜΝΗΣ,Rethymni,1,24.47500038,35.36833191,POINT (543000.1396572657 3913705.4913686225)
2c8a3e04-2024-4b22-96d5-5168a05d1245.156,94180101,GR4340180194180101,ΚΡΗΤΗ-Ν.ΚΥΔΩΝΙΑΣ,NEAS KYDONIAS,ΚΡΗΤΗ-ΔΑΡΑΤΣΟΥ,ΔΕΞΙΟ ΑΚΡΟ ΑΚΤΗΣ ΣΤΑ ΒΡΑΧΑΚΙΑ,ΑΓ.ΑΠΟΣΤΟΛΟΙ-ΕΟΤ,"AGIOI APOSTOLOI,EOT - DEXIO AKRO AKTIS",KRITI,ΧΑΝΙΩΝ,Chania,1,23.93666649,35.50666809,POINT (494107.03166073037 3928945.68059959)
2c8a3e04-2024-4b22-96d5-5168a05d1245.157,94180102,GR4340180194180102,ΚΡΗΤΗ-Ν.ΚΥΔΩΝΙΑΣ,NEAS KYDONIAS,ΚΡΗΤΗ-ΔΑΡΑΤΣΟΥ,ΑΡΙΣΤΕΡΟ ΑΚΡΟ ΑΚΤΗΣ ΣΤΑ ΒΡΑΧΑΚΙΑ,ΑΓ.ΑΠΟΣΤΟΛΟΙ-ΕΟΤ,"AGIOI APOSTOLOI,EOT - ARISTERO AKRO AKTIS",KRITI,ΧΑΝΙΩΝ,Chania,1,23.93666649,35.50666809,POINT (494107.03166073037 3928945.68059959)
2c8a3e04-2024-4b22-96d5-5168a05d1245.158,03610101,GR2410190103610101,ΑΝΤΙΚΥΡΑΣ,ANTIKYRAS,ΑΝΤΙΚΥΡΑΣ,BAR 'MARBELLA',ΑΓ.ΙΣΙΔΩΡΟΣ,AGIOS ISODOROS - BAR MARBELLA,STEREA ELLADA,ΒΟΙΩΤΙΑΣ,Voiotia,1,22.61249924,38.35749817,POINT (378622.00681306876 4246104.844434519)
2c8a3e04-2024-4b22-96d5-5168a05d1245.159,04110301,GR2420110104110301,ΕΡΕΤΡΙΑΣ,ERETRIAS,ΕΡΕΤΡΙΑΣ,ΕΝΑΝΤΙ ΞΕΝΟΔΟΧΕΙΟΥ HOLIDAY IN EVOIA,ΕΡΕΤΡΙΑ 3,ERETRIA - HOTEL HOLIDAY IN EVOIA,STEREA ELLADA,ΕΥΒΟΙΑΣ,Evvoia,1,23.79999924,38.38333511,POINT (482382.67094886384 4248079.24205546)
2c8a3e04-2024-4b22-96d5-5168a05d1245.160,04110601,GR2420110104110601,ΕΡΕΤΡΙΑΣ,ERETRIAS,ΕΡΕΤΡΙΑΣ,"PALMARIVA HOTEL,ELDORADO HOTEL",ΜΑΛΑΚΩΝΤΑ 1,MALAKONTA - HOTEL 'PALMARIVA',STEREA ELLADA,ΕΥΒΟΙΑΣ,Evvoia,1,23.73555565,38.39944458,POINT (476759.32190507726 4249881.088343751)
2c8a3e04-2024-4b22-96d5-5168a05d1245.161,07080201,GR2450080207080201,ΙΤΕΑΣ,ITEAS,ΚΙΡΡΑΣ,"CAMPING ΑΝΑΓΝΩΣΤΑΚΗ, ΚΕΝΤΡΟ ΑΚΤΗΣ","ΑΚΤΗ ΒΡΑΧΑΚΙΑ,CAMPING","AKTI VRACHAKIA, CAMPING ANAGNOSTAKI",STEREA ELLADA,ΦΩΚΙΔΑΣ,Fokida,1,22.45833397,38.42083359,POINT (365268.8898660227 4253346.580735995)
2c8a3e04-2024-4b22-96d5-5168a05d1245.162,64090101,GR1270090264090101,ΠΑΛΛΗΝΗΣ,PALLINIS,ΑΓ.ΠΑΡΑΣΚΕΥΗΣ,ΞΕΝΟΔΟΧΕΙΟ LOUTRA BEACH - ΣΚΑΛΑ,ΑΓ.ΠΑΡΑΣΚΕΥΗ,AGIA PARASKEVI - HOTEL LOUTRA BEACH,KENTRIKI MAKEDONIA,ΧΑΛΚΙΔΙΚΗΣ,Chalkidiki,1,23.57916641,39.92916489,POINT (463890.8804838202 4419693.580466463)
2c8a3e04-2024-4b22-96d5-5168a05d1245.163,11010201,GR2510010111010201,ΝΑΥΠΛΙΟΥ,NAFPLIOU,ΝΑΥΠΛΙΟΥ,ΤΑΒΕΡΝΑ ΠΑΛΑΤΣΑΚΗ,ΚΑΡΑΘΩΝΑΣ,KARATHONAS,PELOPONNISOS,ΑΡΓΟΛΙΔΑΣ,Argolida,1,22.82333374,37.53833389,POINT (395895.5654876914 4154956.3611705783)
2c8a3e04-2024-4b22-96d5-5168a05d1245.164,11010202,GR2510010111010202,ΝΑΥΠΛΙΟΥ,NAFPLIOU,ΝΑΥΠΛΙΟΥ,ΛΕΥΚΕΣ,ΚΑΡΑΘΩΝΑΣ,KARATHONAS - LEFKES,PELOPONNISOS,ΑΡΓΟΛΙΔΑΣ,Argolida,1,22.82055473,37.54666519,POINT (395661.81663861894 4155884.092952884)
2c8a3e04-2024-4b22-96d5-5168a05d1245.165,73020201,GR1130020673020201,ΑΙΓΕΙΡΟΥ,AIGEIROU,ΜΕΣΗΣ,ΕΝΑΝΤΙ ΣΤΡΟΦΗΣ ΠΑΡΑΛΙΑΚΟΥ ΔΡΟΜΟΥ,ΑΡΩΓΗ,AROGI,"ANATOLIKI MAKEDONIA, THRAKI",ΡΟΔΟΠΗΣ,Rodopi,1,25.15333366,40.95000076,POINT (596922.4221468566 4533561.065387658)
2c8a3e04-2024-4b22-96d5-5168a05d1245.166,91100701,GR4310100291100701,ΚΡΗΤΗ-ΓΟΥΒΩΝ,GOUVON,ΚΡΗΤΗ-ΑΝΩΠΟΛΗΣ,ΕΝΑΝΤΙ ΞΕΝΟΔΟΧΕΙΟΥ 'THEMIS',ΚΟΚΚΙΝΗ ΧΑΝΙ 1,KOKKINI CHANI  - HOTEL 'THEMIS',KRITI,ΗΡΑΚΛΕΙΟΥ,Irakleio,1,25.26611137,35.33388901,POINT (614917.3528426934 3910517.327645794)
2c8a3e04-2024-4b22-96d5-5168a05d1245.167,43080201,GR1430080243080201,ΑΦΕΤΩΝ,AFETON,ΑΦΕΤΩΝ,150μ. ΑΠΟ ΤΟ ΒΟΡ. ΑΚΡΟ ΑΚΤΗΣ,ΑΜΠΟΒΟΣ,AMPOVOS - 150M APO B AKRO AKTIS,THESSALIA,ΜΑΓΝΗΣΙΑΣ,Magnisia,1,23.16666603,39.27000046,POINT (427964.78400470153 4346783.229306837)
2c8a3e04-2024-4b22-96d5-5168a05d1245.168,43120201,GR1430120143120201,ΜΗΛΕΩΝ,MILEON,ΜΗΛΕΩΝ,"ΜΠΟΥΦΑ,ΚΕΝΤΡΟ ΑΚΤΗΣ",ΚΟΡΩΠΗ,KOROPI - BOUFA,THESSALIA,ΜΑΓΝΗΣΙΑΣ,Magnisia,1,23.14333344,39.29000092,POINT (425972.90874715743 4349021.611844571)
2c8a3e04-2024-4b22-96d5-5168a05d1245.169,55010302,GR1150010155010302,ΚΑΒΑΛΑΣ,KAVALAS,ΚΑΒΑΛΑΣ,LUCY,ΚΑΛΑΜΙΤΣΑ,KALAMITSA - LUCY HOTEL,"ANATOLIKI MAKEDONIA, THRAKI",ΚΑΒΑΛΑΣ,Kavala,1,24.38472176,40.91999817,POINT (532245.510593285 4529661.688412786)
2c8a3e04-2024-4b22-96d5-5168a05d1245.170,61030101,GR1250030461030101,ΑΝΑΤ.ΟΛΥΜΠΟΥ,ANATOLIKOU OLYMPOU,ΠΟΡΩΝ,ΔΗΜΟΤΙΚΗ ΑΚΤΗ,ΝΕΟΙ ΠΟΡΟΙ,NEOI POROI - DIMOTIKI AKTI,KENTRIKI MAKEDONIA,ΠΙΕΡΙΑΣ,Pieria,1,22.60000038,39.9972229,POINT (380339.1401130123 4428100.799208291)
2c8a3e04-2024-4b22-96d5-5168a05d1245.171,43130201,GR1430130143130201,ΜΟΥΡΕΣΙΟΥ,MOURESIOU,ΤΣΑΓΚΑΡΑΔΑΣ,ΚΕΝΤΡΟ ΑΚΤΗΣ,ΜΥΛΟΠΟΤΑΜΟΣ,MYLOPOTAMOS,THESSALIA,ΜΑΓΝΗΣΙΑΣ,Magnisia,1,23.18333244,39.3805542,POINT (429513.2893156957 4359039.653497175)
2c8a3e04-2024-4b22-96d5-5168a05d1245.172,43130301,GR1430130543130301,ΜΟΥΡΕΣΙΟΥ,MOURESIOU,ΜΟΥΡΕΣΙΟΥ,ΚΕΝΤΡΟ ΑΚΤΗΣ,ΝΤΑΜΟΥΧΑΡΗ,NTAMOUCHARI,THESSALIA,ΜΑΓΝΗΣΙΑΣ,Magnisia,1,23.17000008,39.40833282,POINT (428393.2835100701 4362132.858778896)
2c8a3e04-2024-4b22-96d5-5168a05d1245.173,43190101,GR1430190143190101,ΣΚΙΑΘΟΣ-ΣΚΙΑΘΟΥ,SKIATHOU,ΣΚΙΑΘΟΣ-ΣΚΙΑΘΟΥ,ΚΕΝΤΡΟ ΑΚΤΗΣ,ΑΓ.ΠΑΡΑΣΚΕΥΗ-ΠΛΑΤΑΝΙΑΣ,"PLATANIAS,AGIA PARASKEVI",THESSALIA,ΜΑΓΝΗΣΙΑΣ,Magnisia,1,23.43666649,39.14333344,POINT (451168.5702101215 4332546.447461232)
2c8a3e04-2024-4b22-96d5-5168a05d1245.174,43190602,GR1430190143190602,ΣΚΙΑΘΟΣ-ΣΚΙΑΘΟΥ,SKIATHOU,ΣΚΙΑΘΟΣ-ΣΚΙΑΘΟΥ,200 Μ.ΑΠΟ ΔΕΞΙΟ ΑΚΡΟ ΑΚΤΗΣ,ΚΟΥΚΟΥΝΑΡΙΕΣ,KOUKOUNARIES - 200M APO DEXIO AKRO,THESSALIA,ΜΑΓΝΗΣΙΑΣ,Magnisia,1,23.4066658,39.15333176,POINT (448583.2797245343 4333672.724265272)
2c8a3e04-2024-4b22-96d5-5168a05d1245.175,43190801,GR1430190143190801,ΣΚΙΑΘΟΣ-ΣΚΙΑΘΟΥ,SKIATHOU,ΣΚΙΑΘΟΣ-ΣΚΙΑΘΟΥ,400 ΜΕΤΡΑ ΑΠΟ ΝΟΤΙΟ ΑΚΡΟ ΑΚΤΗΣ,ΜΕΓΑΛΗ ΑΜΜΟΣ,MEGALI AMMOS - 400M APO N AKRO,THESSALIA,ΜΑΓΝΗΣΙΑΣ,Magnisia,1,23.47999954,39.15999985,POINT (454923.92329585867 4334373.729561946)
2c8a3e04-2024-4b22-96d5-5168a05d1245.176,43191001,GR1430190143191001,ΣΚΙΑΘΟΣ-ΣΚΙΑΘΟΥ,SKIATHOU,ΣΚΙΑΘΟΣ-ΣΚΙΑΘΟΥ,ΚΕΝΤΡΟ ΑΚΤΗΣ,ΤΡΟΥΛΛΟΣ,TROULLOS,THESSALIA,ΜΑΓΝΗΣΙΑΣ,Magnisia,1,23.42333412,39.13999939,POINT (450013.92049257463 4332183.802142704)
2c8a3e04-2024-4b22-96d5-5168a05d1245.177,43200401,GR1430200143200401,ΣΚΟΠΕΛΟΣ-ΣΚΟΠΕΛΟΥ,SKOPELOU,ΣΚΟΠΕΛΟΣ-ΣΚΟΠΕΛΟΥ,ΚΕΝΤΡΟ ΑΚΤΗΣ,ΑΝΔΡΙΝΕΣ,ANDRINES,THESSALIA,ΜΑΓΝΗΣΙΑΣ,Magnisia,1,23.73333359,39.11666489,POINT (476797.09346206434 4329469.985413469)
2c8a3e04-2024-4b22-96d5-5168a05d1245.178,54030101,GR1220030154030101,ΑΓΙΟΥ ΓΕΩΡΓΙΟΥ,AGIOU GEORGIOU,ΑΣΠΡΟΒΑΛΤΑΣ,ΕΝΑΝΤΙ ΚΟΙΝΟΤΙΚΟΥ ΑΝΑΨΥΚΤΗΡΙΟΥ,ΑΣΠΡΟΒΑΛΤΑ 2,ASPROVALTA - KOINOTIKO ANAPSYKTIRIO,KENTRIKI MAKEDONIA,ΘΕΣΣΑΛΟΝΙΚΗΣ,Thessaloniki,1,23.70000076,40.70000076,POINT (474505.7318857107 4505212.262408812)
2c8a3e04-2024-4b22-96d5-5168a05d1245.179,64121201,GR1270120564121201,ΣΤΑΓΙΡΩΝ ΑΚΑΝΘΟΥ,STAGIRON AKANTHOU,ΟΥΡΑΝΟΥΠΟΛΗΣ,ΞΕΝΟΔΟΧΕΙΟ 'EAGLES PALLAS',ΟΥΡΑΝΟΥΠΟΛΗ 2,OURANOUPOLI - HOTEL EAGLES PALLAS,KENTRIKI MAKEDONIA,ΧΑΛΚΙΔΙΚΗΣ,Chalkidiki,1,23.95000076,40.34999847,POINT (495604.2965640241 4466319.811302106)
2c8a3e04-2024-4b22-96d5-5168a05d1245.180,54030301,GR1220030254030301,ΑΓΙΟΥ ΓΕΩΡΓΙΟΥ,AGIOU GEORGIOU,ΒΡΑΣΝΩΝ,ΚΑΦΕΤΕΡΙΑ 'ΚΑΛΑΓΑΣΙΔΗ',ΒΡΑΣΝΑ 1,VRASNA - KAFETERIA KALAGASIDI,KENTRIKI MAKEDONIA,ΘΕΣΣΑΛΟΝΙΚΗΣ,Thessaloniki,1,23.66666603,40.68333435,POINT (471682.65935975296 4503372.297368514)
2c8a3e04-2024-4b22-96d5-5168a05d1245.181,54030401,GR1220030254030401,ΑΓΙΟΥ ΓΕΩΡΓΙΟΥ,AGIOU GEORGIOU,ΒΡΑΣΝΩΝ,ΚΟΙΝΟΤΙΚΟ ΑΝΑΨΥΚΤΗΡΙΟ 'ΚΥΚΛΑΔΕΣ',ΒΡΑΣΝΑ 3,VRASNA 3 - ANAPSIKTIRIO KYKLADES,KENTRIKI MAKEDONIA,ΘΕΣΣΑΛΟΝΙΚΗΣ,Thessaloniki,1,23.70000076,40.70000076,POINT (474505.7318857107 4505212.262408812)
2c8a3e04-2024-4b22-96d5-5168a05d1245.182,54170501,GR1220170354170501,ΘΕΡΜΑΙΚΟΥ,THERMAIKOU,Ν.ΕΠΙΒΑΤΩΝ,"ΔΗΜΟΤΙΚΗ ΠΛΑΖ,ΕΝΑΝΤΙ ΞΕΝΟΔΟΧΕΙΟΥ ΠΑΛΙΡΡΟΙΑ",ΝΕΟΙ ΕΠΙΒΑΤΕΣ,NEOI EPIVATES - HOTEL PALIRROIA,KENTRIKI MAKEDONIA,ΘΕΣΣΑΛΟΝΙΚΗΣ,Thessaloniki,1,22.88055611,40.50694275,POINT (405003.79737946717 4484341.120225364)
2c8a3e04-2024-4b22-96d5-5168a05d1245.183,54170601,GR1220170154170601,ΘΕΡΜΑΙΚΟΥ,THERMAIKOU,ΠΕΡΑΙΑΣ,"ΔΗΜΟΤΙΚΗ ΠΛΑΖ,ΕΝΑΝΤΙ ΚΕΝΤΡΟΥ 'ΚΥΜΑΤΑ'",ΠΕΡΑΙΑ,PERAIA - KENTRO KYMMATA,KENTRIKI MAKEDONIA,ΘΕΣΣΑΛΟΝΙΚΗΣ,Thessaloniki,1,22.59166718,40.51111221,POINT (380533.91109800054 4485154.437990052)
2c8a3e04-2024-4b22-96d5-5168a05d1245.184,54350201,GR1220350154350201,ΡΕΝΤΙΝΑΣ,RENTINAS,ΣΤΑΥΡΟΥ,"ΤΟΠΟΘΕΣΙΑ ΠΛΑΤΑΝΙΑ, ΚΕΝΤΡΟ ΑΚΤΗΣ","ΣΤΑΥΡΟΣ, ΠΛΑΤΑΝΙΑ",STAVROS PLATANIA,KENTRIKI MAKEDONIA,ΘΕΣΣΑΛΟΝΙΚΗΣ,Thessaloniki,1,23.71666718,40.66666794,POINT (475901.8740658858 4501507.479776138)
2c8a3e04-2024-4b22-96d5-5168a05d1245.185,55010401,GR1150010155010401,ΚΑΒΑΛΑΣ,KAVALAS,ΚΑΒΑΛΑΣ,"CAMPING EOT, ΔΕΞΙΑ ΚΟΛΠΟΥ",ΜΠΑΤΗΣ,BATIS - DEXIA,"ANATOLIKI MAKEDONIA, THRAKI",ΚΑΒΑΛΑΣ,Kavala,1,24.37472153,40.91666794,POINT (531405.055294074 4529288.040064421)
2c8a3e04-2024-4b22-96d5-5168a05d1245.186,55010402,GR1150010155010402,ΚΑΒΑΛΑΣ,KAVALAS,ΚΑΒΑΛΑΣ,"CAMPING EOT, ΑΡΙΣΤΕΡΑ ΚΟΛΠΟΥ",ΜΠΑΤΗΣ,BATIS - ARISTERA,"ANATOLIKI MAKEDONIA, THRAKI",ΚΑΒΑΛΑΣ,Kavala,1,24.37999916,40.91333389,POINT (531851.113970466 4528919.85318633)
2c8a3e04-2024-4b22-96d5-5168a05d1245.187,55010801,GR1150010155010801,ΚΑΒΑΛΑΣ,KAVALAS,ΚΑΒΑΛΑΣ,ΕΝΑΝΤΙ ΞΕΝΟΔΟΧΕΙΟΥ ΑΚΤΗ TOSKA,ΤΟΣΚΑ,TOSCA - HOTEL TOSCA,"ANATOLIKI MAKEDONIA, THRAKI",ΚΑΒΑΛΑΣ,Kavala,1,24.36833382,40.90833282,POINT (530870.9437388874 4528360.606735352)
2c8a3e04-2024-4b22-96d5-5168a05d1245.188,55030101,GR1150030155030101,ΕΛΕΥΘΕΡΩΝ,ELEFTHERON,Ν.ΠΕΡΑΜΟΥ,ΚΕΝΤΡΟ ΑΜΜΟΛΟΦΩΝ,ΑΜΜΟΛΟΦΟΙ,NEA PERAMOS - AMMOLOFOI,"ANATOLIKI MAKEDONIA, THRAKI",ΚΑΒΑΛΑΣ,Kavala,1,24.30999947,40.81833267,POINT (525993.5746999418 4518350.85339442)
2c8a3e04-2024-4b22-96d5-5168a05d1245.189,55030303,GR1150030655030303,ΕΛΕΥΘΕΡΩΝ,ELEFTHERON,Ν.ΗΡΑΚΛΙΤΣΑΣ,ΞΕΝΟΔΟΧΕΙΟ 'BLUE-BAY',Ν.ΗΡΑΚΛΙΤΣΑ,NEA IRAKLITSA - HOTEL BLUE BAY,"ANATOLIKI MAKEDONIA, THRAKI",ΚΑΒΑΛΑΣ,Kavala,1,24.31833267,40.875,POINT (526673.4627077305 4524643.838702376)
2c8a3e04-2024-4b22-96d5-5168a05d1245.190,55040201,GR1150040155040201,ΘΑΣΟΣ-ΘΑΣΟΥ,THASOU,ΘΑΣΟΣ-ΘΑΣΟΥ,ΕΝΑΝΤΙ ΞΕΝΟΔΟΧΕΙΟΥ SARANDI,ΘΑΣΟΣ-ΜΑΚΡΥΑΜΜΟΣ,MAKRYAMMOS - HOTEL SARANDI,"ANATOLIKI MAKEDONIA, THRAKI",ΚΑΒΑΛΑΣ,Kavala,1,24.72500038,40.78333282,POINT (561023.9632994409 4514672.205184055)
2c8a3e04-2024-4b22-96d5-5168a05d1245.191,55040301,GR1150040655040301,ΘΑΣΟΣ-ΘΑΣΟΥ,THASOU,ΘΑΣΟΣ-ΠΑΝΑΓΙΑΣ,ΚΕΝΤΡΟ ΑΚΤΗΣ  ΧΡΥΣΗ ΑΜΜΟΥΔΙΑ,ΘΑΣΟΣ-ΧΡΥΣΗ ΑΜΜΟΥΔΙΑ,PANAGIA - CHRYSI AMMOYDIA,"ANATOLIKI MAKEDONIA, THRAKI",ΚΑΒΑΛΑΣ,Kavala,1,25.76333427,40.73333359,POINT (648750.1321602017 4510364.438103998)
2c8a3e04-2024-4b22-96d5-5168a05d1245.192,55040302,GR1150040655040302,ΘΑΣΟΣ-ΘΑΣΟΥ,THASOU,ΘΑΣΟΣ-ΠΑΝΑΓΙΑΣ,CAMPING ΧΡΥΣΗ ΑΜΜΟΥΔΙΑ,ΘΑΣΟΣ-ΧΡΥΣΗ ΑΜΜΟΥΔΙΑ,PANAGIA - CAMPING CHRYSI AMOUDIA,"ANATOLIKI MAKEDONIA, THRAKI",ΚΑΒΑΛΑΣ,Kavala,1,25.76166725,40.72833252,POINT (648620.5837719309 4509806.548408041)
2c8a3e04-2024-4b22-96d5-5168a05d1245.193,55040501,GR1150040255040501,ΘΑΣΟΣ-ΘΑΣΟΥ,THASOU,ΘΑΣΟΣ-ΘΕΟΛΟΓΟΥ,ΚΕΝΤΡΟ ΚΟΛΠΟΥ ΠΕΥΚΑΡΙ,ΘΑΣΟΣ-ΠΕΥΚΑΡΙ,PEFKARI,"ANATOLIKI MAKEDONIA, THRAKI",ΚΑΒΑΛΑΣ,Kavala,1,24.59666634,40.61833191,POINT (550319.8902759316 4496274.732210327)
2c8a3e04-2024-4b22-96d5-5168a05d1245.194,55040502,GR1150040255040502,ΘΑΣΟΣ-ΘΑΣΟΥ,THASOU,ΘΑΣΟΣ-ΘΕΟΛΟΓΟΥ,ΚΕΝΤΡΟ ΚΟΛΠΟΥ ΞΕΝΟΔΟΧΕΙΟ ALEXANDRA VILLAGE,ΘΑΣΟΣ-ΠΕΥΚΑΡΙ,PEFKARI - HOTEL ALEXANDRA VILLAGE,"ANATOLIKI MAKEDONIA, THRAKI",ΚΑΒΑΛΑΣ,Kavala,1,24.6016674,40.61500168,POINT (550745.3499542814 4495907.635732752)
2c8a3e04-2024-4b22-96d5-5168a05d1245.195,55040601,GR1150040155040601,ΘΑΣΟΣ-ΘΑΣΟΥ,THASOU,ΘΑΣΟΣ-ΘΑΣΟΥ,ΑΡΙΣΤΕΡΑ ΚΟΛΠΟΥ ΔΙΠΛΑ ΣΤΟ ΠΑΛΙΟ ΛΙΜΑΝΙ,ΘΑΣΟΣ-ΠΟΛΗ ΛΙΜΕΝΑΣ,THASOS - DIPLA STO PALIO LIMANI,"ANATOLIKI MAKEDONIA, THRAKI",ΚΑΒΑΛΑΣ,Kavala,1,24.71500015,40.78333282,POINT (560180.1840006503 4514665.279135598)
2c8a3e04-2024-4b22-96d5-5168a05d1245.196,55040602,GR1150040155040602,ΘΑΣΟΣ-ΘΑΣΟΥ,THASOU,ΘΑΣΟΣ-ΘΑΣΟΥ,ΔΕΞΙΑ ΚΟΛΠΟΥ,ΘΑΣΟΣ-ΠΟΛΗ ΛΙΜΕΝΑΣ,THASOS - DEXIA KOLPOU,"ANATOLIKI MAKEDONIA, THRAKI",ΚΑΒΑΛΑΣ,Kavala,1,24.71500015,40.78499985,POINT (560178.675571844 4514850.3284804)
2c8a3e04-2024-4b22-96d5-5168a05d1245.197,55040702,GR1150040855040702,ΘΑΣΟΣ-ΘΑΣΟΥ,THASOU,ΘΑΣΟΣ-ΠΡΙΝΟΥ,"CAMPING ΕΟΤ, ΔΕΞΙΑ ΚΟΛΠΟΥ",ΘΑΣΟΣ-ΠΡΙΝΟΣ ΔΑΣΥΛΙΟ,"PRINOS DASYLIO - CAMPING EOT, DEXIA","ANATOLIKI MAKEDONIA, THRAKI",ΚΑΒΑΛΑΣ,Kavala,1,24.56833267,40.76166534,POINT (547820.3350063775 4512169.678475506)
2c8a3e04-2024-4b22-96d5-5168a05d1245.198,55050101,GR1150050155050101,ΚΕΡΑΜΩΤΗΣ,KERAMOTIS,ΚΕΡΑΜΩΤΗΣ,ΕΝΑΝΤΙ ΞΕΝΟΔΟΧΕΙΟΥ 'ΑΦΡΟΔΙΤΗ',ΚΕΡΑΜΩΤΗ,KERAMOTI - HOTEL AFRODITI,"ANATOLIKI MAKEDONIA, THRAKI",ΚΑΒΑΛΑΣ,Kavala,1,24.68833351,40.85499954,POINT (557867.6036907544 4522602.88870946)
2c8a3e04-2024-4b22-96d5-5168a05d1245.199,55050102,GR1150050155050102,ΚΕΡΑΜΩΤΗΣ,KERAMOTIS,ΚΕΡΑMΩΤΗΣ,ΔΕΞΙΑ ΕΝΑΝΤΙ ΞΕΝΟΔΟΧΕΙΟΥ 'ΚΑΤΕΡΙΝΑ',ΚΕΡΑΜΩΤΗ,KERAMOTI - HOTEL KATERINA,"ANATOLIKI MAKEDONIA, THRAKI",ΚΑΒΑΛΑΣ,Kavala,1,24.69666672,40.85333252,POINT (558571.5240720032 4522423.390985716)
2c8a3e04-2024-4b22-96d5-5168a05d1245.200,93110301,GR4330110193110301,ΚΡΗΤΗ-ΦΟΙΝΙΚΑ,FOINIKA,ΚΡΗΤΗ-ΣΕΛΛΙΩΝ,ΚΕΝΤΡΟ ΑΚΤΗΣ,ΣΟΥΔΑ,SOUDA,KRITI,ΡΕΘΥΜΝΗΣ,Rethymni,1,24.375,35.19166565,POINT (533990.0042848865 3894073.797647086)
2c8a3e04-2024-4b22-96d5-5168a05d1245.201,61030201,GR1250030161030201,ΑΝΑΤ.ΟΛΥΜΠΟΥ,ANATOLIKOU OLYMPOU,ΛΕΠΤΟΚΑΡΥΑΣ,ΕΝΑΝΤΙ ΚΑΦΕΤΕΡΙΑΣ ΚΟΙΝΟΤΙΚΟΥ ΚΑΤΑΣΤΗΜΑΤΟΣ,ΛΕΠΤΟΚΑΡΥΑ 1,LEPTOKARYA -KAFETERIA KOINOTIKOU KATASTIMATOS,KENTRIKI MAKEDONIA,ΠΙΕΡΙΑΣ,Pieria,1,22.57222176,40.06388855,POINT (378086.4037568961 4435538.292147789)
2c8a3e04-2024-4b22-96d5-5168a05d1245.202,61030401,GR1250030261030401,ΑΝΑΤ.ΟΛΥΜΠΟΥ,ANATOLIKOU OLYMPOU,ΠΑΝΤΕΛΕΗΜΟΝΑ,ENANTI CAMPING 'ΗΡΑΚΛΕΙΑ',Ν.ΠΑΝΤΕΛΕΗΜΟΝΑΣ 1,N.PANTELEIMONAS  - CAMPING IRAKLEIA,KENTRIKI MAKEDONIA,ΠΙΕΡΙΑΣ,Pieria,1,22.58888817,40.02500153,POINT (379439.4432894793 4431199.034195543)
2c8a3e04-2024-4b22-96d5-5168a05d1245.203,61030501,GR1250030261030501,ΑΝΑΤ.ΟΛΥΜΠΟΥ,ANATOLIKOU OLYMPOU,ΠΑΝΤΕΛΕΗΜΟΝΑ,ΕΝΑΝΤΙ CAMPING 'ΕΛΛΑΣ',Ν.ΠΑΝΤΕΛΕΗΜΟΝΑΣ 2,N.PANTELEIMONAS  - CAMPING ELLAS,KENTRIKI MAKEDONIA,ΠΙΕΡΙΑΣ,Pieria,1,22.58888817,40.02639008,POINT (379441.88569600024 4431353.209498034)
2c8a3e04-2024-4b22-96d5-5168a05d1245.204,61030601,GR1250030361030601,ΑΝΑΤ.ΟΛΥΜΠΟΥ,ANATOLIKOU OLYMPOU,ΠΛΑΤΑΜΩΝΟΣ,ΚΕΝΤΡΟ ΑΚΤΗΣ,ΠΛΑΤΑΜΩΝΑΣ 1,PALTAMONAS,KENTRIKI MAKEDONIA,ΠΙΕΡΙΑΣ,Pieria,1,22.60277748,40.00833511,POINT (380595.6287688283 4429330.363306106)
2c8a3e04-2024-4b22-96d5-5168a05d1245.205,61030701,GR1250030361030701,ΑΝΑΤ.ΟΛΥΜΠΟΥ,ANATOLIKOU OLYMPOU,ΠΛΑΤΑΜΩΝΟΣ,ΕΝΑΝΤΙ ΞΕΝΟΔΟΧΕΙΟΥ PLATAMON BEACH,ΠΛΑΤΑΜΩΝΑΣ 2,PLATAMONAS - HOTEL PLATAMON BEACH,KENTRIKI MAKEDONIA,ΠΙΕΡΙΑΣ,Pieria,1,22.60277748,40.00138855,POINT (380583.54401303513 4428559.601219055)
2c8a3e04-2024-4b22-96d5-5168a05d1245.206,61090101,GR1250090161090101,ΜΕΘΩΝΗΣ,METHONIS,ΜΑΚΡΥΓΙΑΛΟΥ,ΚΕΝΤΡΟ ΑΚΤΗΣ,ΑΡΧΑΙΑ ΠΥΔΝΑ,ARCHAIA PYDNA,KENTRIKI MAKEDONIA,ΠΙΕΡΙΑΣ,Pieria,1,22.61666679,40.3805542,POINT (382425.0020756628 4470628.686952742)
2c8a3e04-2024-4b22-96d5-5168a05d1245.207,61090201,GR1250090161090201,ΜΕΘΩΝΗΣ,METHONIS,ΜΑΚΡΥΓΙΑΛΟΥ,ΚΕΝΤΡΟ ΑΚΤΗΣ,ΜΑΚΡΥΓΙΑΛΟΣ,MAKRYGIALOS,KENTRIKI MAKEDONIA,ΠΙΕΡΙΑΣ,Pieria,1,22.61111069,40.41249847,POINT (382009.0745081153 4474181.988772755)
2c8a3e04-2024-4b22-96d5-5168a05d1245.208,61100201,GR1250100361100201,ΠΑΡΑΛΙΑΣ,PARALIAS,ΠΕΡΙΣΤΑΣΗΣ,ΚΕΝΤΡΟ ΑΚΤΗΣ,ΠΕΡΙΣΤΑΣΗ,PERISTASI,KENTRIKI MAKEDONIA,ΠΙΕΡΙΑΣ,Pieria,1,22.58472252,40.24166489,POINT (379466.82969619695 4455254.566373441)
2c8a3e04-2024-4b22-96d5-5168a05d1245.209,62030201,GR1260030462030201,ΑΜΦΙΠΟΛΗΣ,AMFIPOLIS,Ν.ΚΕΡΔΥΛΙΩΝ,ΚΕΝΤΡΟ  ΚΟΙΝΟΤΙΚΗΣ  ΠΛΑΖ,Ν.ΚΕΡΔΥΛΙΑ,NEA KERDYLIA - KOINOTIKI PLAZ,KENTRIKI MAKEDONIA,ΣΕΡΡΩΝ,SERESS,1,23.85000038,40.77166748,POINT (487191.68325269653 4513135.2251936495)
2c8a3e04-2024-4b22-96d5-5168a05d1245.210,64050101,GR1270050564050101,ΚΑΛΛΙΚΡΑΤΕΙΑΣ,KALLIKRATEIAS,Ν.ΣΙΛΑΤΩΝ,ΑΡΙΣΤΕΡΟ ΑΚΡΟ ΑΚΤΗΣ,ΠΑΡΑΛΙΑ ΒΕΡΓΙΑ,PARALIA VERGIA - ARISTERΑ,KENTRIKI MAKEDONIA,ΧΑΛΚΙΔΙΚΗΣ,Chalkidiki,1,23.11666679,40.26666641,POINT (424742.5224472763 4457443.119103333)
2c8a3e04-2024-4b22-96d5-5168a05d1245.211,64050102,GR1270050564050102,ΚΑΛΛΙΚΡΑΤΕΙΑΣ,KALLIKRATEIAS,Ν.ΣΙΛΑΤΩΝ,ΔΕΞΙΟ ΑΚΡΟ ΑΚΤΗΣ,ΠΑΡΑΛΙΑ ΒΕΡΓΙΑ,PARALIA VERGIA - DEXIΑ,KENTRIKI MAKEDONIA,ΧΑΛΚΙΔΙΚΗΣ,Chalkidiki,1,23.11666679,40.26666641,POINT (424742.5224472763 4457443.119103333)
2c8a3e04-2024-4b22-96d5-5168a05d1245.212,64050201,GR1270050164050201,ΚΑΛΛΙΚΡΑΤΕΙΑΣ,KALLIKRATEIAS,ΝΕΑΣ ΚΑΛΙΚΡΑΤΕΙΑΣ,ΚΕΝΤΡΟ ΑΚΤΗΣ,ΚΥΑΝΗ ΑΚΤΗ,KYANI AKTI,KENTRIKI MAKEDONIA,ΧΑΛΚΙΔΙΚΗΣ,Chalkidiki,1,23.06444359,40.30944443,POINT (420352.184215807 4462236.879763205)
2c8a3e04-2024-4b22-96d5-5168a05d1245.213,64050301,GR1270050164050301,ΚΑΛΛΙΚΡΑΤΕΙΑΣ,KALLIKRATEIAS,,ΑΡΙΣΤΕΡΟ ΑΚΡΟ,ΜΥΚΟΝΙΑΤΙΚΑ-ΓΕΩΠΟΝΙΚΑ,MYKONIATIKA-GEOPONIKA - ARISTERA,KENTRIKI MAKEDONIA,ΧΑΛΚΙΔΙΚΗΣ,Chalkidiki,1,23.10250092,40.29888916,POINT (423574.1410290634 4461031.818634286)
2c8a3e04-2024-4b22-96d5-5168a05d1245.214,64050401,GR1270050264050401,ΚΑΛΛΙΚΡΑΤΕΙΑΣ,KALLIKRATEIAS,,ΜΕΣΟΝ ΑΚΤΗΣ,ΝΕΑ ΗΡΑΚΛΕΙΑ,NEA IRAKLEIA,KENTRIKI MAKEDONIA,ΧΑΛΚΙΔΙΚΗΣ,Chalkidiki,1,23.01694489,40.33944321,POINT (416352.81343500956 4465610.597860844)
2c8a3e04-2024-4b22-96d5-5168a05d1245.215,64060801,GR1270060664060801,ΚΑΣΣΑΝΔΡΑΣ,KASSANDRAS,ΚΡΥΟΠΗΓΗΣ,ΞΕΝΟΔΟΧΕΙΟ 'ALEXANDER THE GREAT',ΚΡΥΟΠΗΓΗ 2,KRYOPIGI - HOTEL 'ALEXANDER THE GEATE',KENTRIKI MAKEDONIA,ΧΑΛΚΙΔΙΚΗΣ,Chalkidiki,1,23.49166679,40.04166794,POINT (456485.2878668344 4432219.028127497)
2c8a3e04-2024-4b22-96d5-5168a05d1245.216,64061001,GR1270060664061001,ΚΑΣΣΑΝΔΡΑΣ,KASSANDRAS,ΚΡΥΟΠΗΓΗΣ,ΞΕΝΟΔΟΧΕΙΟ 'KASSANDRA PALACE',ΚΡΥΟΠΗΓΗ 4,KRYPPIGI - HOTEL KASSANDRA PALACE,KENTRIKI MAKEDONIA,ΧΑΛΚΙΔΙΚΗΣ,Chalkidiki,1,23.5027771,40.03055573,POINT (457426.27117002197 4430980.440848702)
2c8a3e04-2024-4b22-96d5-5168a05d1245.217,64061401,GR1270060764061401,ΚΑΣΣΑΝΔΡΑΣ,KASSANDRAS,ΝΕΑΣ ΦΩΚΑΙΑΣ,ΕΜΠΡΟΣΘΕΝ ΞΕΝΟΔΟΧΕΙΟY 'SANI BEACH',ΣΑΝΗ 2,SANI - HOTEL SANI BEACH,KENTRIKI MAKEDONIA,ΧΑΛΚΙΔΙΚΗΣ,Chalkidiki,1,23.31666756,40.09999847,POINT (441605.891409272 4438793.501448072)
2c8a3e04-2024-4b22-96d5-5168a05d1245.218,64061402,GR1270060164061402,ΚΑΣΣΑΝΔΡΑΣ,KASSANDRAS,ΚΑΣΣΑΝΔΡΕΙΑΣ,ΕΜΠΡΟΣΘΕΝ 'SANI BEACH PHOCEA CLUB',ΣΑΝΗ 3,SANI - SUNI BEACH PHOCEA CLUB,KENTRIKI MAKEDONIA,ΧΑΛΚΙΔΙΚΗΣ,Chalkidiki,1,23.31666756,40.09999847,POINT (441605.891409272 4438793.501448072)
2c8a3e04-2024-4b22-96d5-5168a05d1245.219,64080301,GR1270080264080301,ΟΡΜΥΛΙΑΣ,ORMYLIAS,ΜΕΤΑΜΟΡΦΩΣΗΣ,ΚΟΙΝΟΤΙΚΗ ΠΛΑΖ - ΣΚΑΛΑ,ΜΕΤΑΜΟΡΦΩΣΗ,METAMORFOSI - KOINOTIKI PLAZ,KENTRIKI MAKEDONIA,ΧΑΛΚΙΔΙΚΗΣ,Chalkidiki,1,23.60833359,40.23333359,POINT (466531.66743642633 4453442.526366142)
2c8a3e04-2024-4b22-96d5-5168a05d1245.220,64111701,GR1270110464111701,ΣΙΘΩΝΙΑΣ,SITHONIAS,Ν.ΜΑΡΜΑΡΑ,ΑΚΤΗ ΚΟΧΗ - ΚΕΝΤΡΟ ΑΚΤΗΣ,"ΠΟΡΤΟ ΚΑΡΡΑΣ,ΚΟΧΗ",PORTO KARRAS - AKTI KOCHI,KENTRIKI MAKEDONIA,ΧΑΛΚΙΔΙΚΗΣ,Chalkidiki,1,23.79166603,40.09027863,POINT (482090.51464206266 4437511.508488364)
2c8a3e04-2024-4b22-96d5-5168a05d1245.221,64120201,GR1270120364120201,ΣΤΑΓΙΡΩΝ ΑΚΑΝΘΟΥ,STAGIRON AKANTHOU,ΝΕΩΝ ΡΟΔΩΝ,ΞΕΝΟΔΟΧΕΙΟ ΑΛΕΞΑΝΔΡΟΣ,ΑΓΙΟΣ ΠΑΥΛΟΣ,AGIOS PAULOS - HOTEL ALEXANDROS,KENTRIKI MAKEDONIA,ΧΑΛΚΙΔΙΚΗΣ,Chalkidiki,1,23.93333244,40.38333511,POINT (494191.67504644324 4470020.642144997)
2c8a3e04-2024-4b22-96d5-5168a05d1245.222,64120301,GR1270120564120301,ΣΤΑΓΙΡΩΝ ΑΚΑΝΘΟΥ,STAGIRON AKANTHOU,ΟΥΡΑΝΟΥΠΟΛΗΣ,ΞΕΝΟΔΟΧΕΙΟ 'AKRATHOS',ΑΚΤΗ ΚΑΜΠΟΥΔΗ,AKTI KAMPOUDI - HOTEL 'AKRATHOS',KENTRIKI MAKEDONIA,ΧΑΛΚΙΔΙΚΗΣ,Chalkidiki,1,23.95000076,40.34999847,POINT (495604.2965640241 4466319.811302106)
2c8a3e04-2024-4b22-96d5-5168a05d1245.223,64120701,GR1270120164120701,ΣΤΑΓΙΡΩΝ ΑΚΑΝΘΟΥ,STAGIRON AKANTHOU,ΙΕΡΙΣΣΟΥ,ΕΝΑΝΤΙ ΤΟΥΡΙΣΤΙΚΟΥ ΠΕΡΙΠΤΕΡΟΥ,ΙΕΡΙΣΣΟΣ-ΔΗΜΟΤΙΚΗ ΠΛΑΖ,IERISSOS - DIMOTIKI PLAZ,KENTRIKI MAKEDONIA,ΧΑΛΚΙΔΙΚΗΣ,Chalkidiki,1,23.88333321,40.38333511,POINT (489947.62157399196 4470025.041160782)
2c8a3e04-2024-4b22-96d5-5168a05d1245.224,64120702,GR1270120164120702,ΣΤΑΓΙΡΩΝ ΑΚΑΝΘΟΥ,STAGIRON AKANTHOU,ΙΕΡΙΣΣΟΥ,ΕΝΑΝΤΙ CAMPING ΙΕΡΙΣΣΟΥ,ΙΕΡΙΣΣΟΣ-ΔΗΜΟΤΙΚΗ ΠΛΑΖ,IERISSOS - CAMPING,KENTRIKI MAKEDONIA,ΧΑΛΚΙΔΙΚΗΣ,Chalkidiki,1,23.88333321,40.38333511,POINT (489947.62157399196 4470025.041160782)
2c8a3e04-2024-4b22-96d5-5168a05d1245.225,64120901,GR1270120364120901,ΣΤΑΓΙΡΩΝ ΑΚΑΝΘΟΥ,STAGIRON AKANTHOU,ΝΕΩΝ ΡΟΔΩΝ,BEACH BAR COSTA COSTA,ΝΕΑ ΡΟΔΑ,NEA RODA,KENTRIKI MAKEDONIA,ΧΑΛΚΙΔΙΚΗΣ,Chalkidiki,1,23.93333244,40.38333511,POINT (494191.67504644324 4470020.642144997)
2c8a3e04-2024-4b22-96d5-5168a05d1245.226,64121101,GR1270120564121101,ΣΤΑΓΙΡΩΝ ΑΚΑΝΘΟΥ,STAGIRON AKANTHOU,ΟΥΡΑΝΟΥΠΟΛΗΣ,ΕΜΠΡΟΣΘΕΝ ΞΕΝΟΔΟΧΕΙΟΥ XENIA OURANOUPOLIS,ΟΥΡΑΝΟΥΠΟΛΗ 1,OURANOUPOLI - HOTEL 'XENIA',KENTRIKI MAKEDONIA,ΧΑΛΚΙΔΙΚΗΣ,Chalkidiki,1,23.95000076,40.34999847,POINT (495604.2965640241 4466319.811302106)
2c8a3e04-2024-4b22-96d5-5168a05d1245.227,64130301,GR1270130164130301,ΤΟΡΩΝΗΣ,TORONIS,ΣΥΚΕΑΣ,ΚΕΝΤΡΟ ΑΚΤΗΣ,ΠΑΡΑΛΙΑ ΣΥΚΙΑΣ,SYKIA,KENTRIKI MAKEDONIA,ΧΑΛΚΙΔΙΚΗΣ,Chalkidiki,1,23.98333359,40.09999847,POINT (498429.81828546774 4438569.920977565)
2c8a3e04-2024-4b22-96d5-5168a05d1245.228,64130401,GR1270130164130401,ΤΟΡΩΝΗΣ,TORONIS,ΣΥΚΕΑΣ,ΚΕΝΤΡΟ ΑΚΤΗΣ,ΠΑΡΑΛΙΑ ΤΟΡΩΝΗΣ,PARALIA TORONIS,KENTRIKI MAKEDONIA,ΧΑΛΚΙΔΙΚΗΣ,Chalkidiki,1,23.98333359,40.09999847,POINT (498429.81828546774 4438569.920977565)
2c8a3e04-2024-4b22-96d5-5168a05d1245.229,64130602,GR1270130264130602,ΤΟΡΩΝΗΣ,TORONIS,ΣΑΡΤΗΣ,KAFE ΕΜΜΑΝΟΥΕΛΑ,ΣΑΡΤΗ,SARTI - KAFE EMMANOUELA,KENTRIKI MAKEDONIA,ΧΑΛΚΙΔΙΚΗΣ,Chalkidiki,1,23.98333359,40.09999847,POINT (498429.81828546774 4438569.920977565)
2c8a3e04-2024-4b22-96d5-5168a05d1245.230,71010601,GR1110010171010601,ΑΛΕΞΑΝΔΡΟΥΠΟΛΗΣ,ALEXANDROUPOLI,ΑΛΕΞΑΝΔΡΟΥΠΟΛΗΣ,ΚΕΝΤΡΟ ΑΚΤΗΣ,ΚΑΛΑΜΑΚΙ,KALAMAKI,"ANATOLIKI MAKEDONIA, THRAKI",ΕΒΡΟΥ,Evros,1,25.8172226,40.85027695,POINT (653031.776806075 4523439.847369387)
2c8a3e04-2024-4b22-96d5-5168a05d1245.231,71010801,GR1110010171010801,ΑΛΕΞΑΝΔΡΟΥΠΟΛΗΣ,ALEXANDROUPOLI,ΑΛΕΞΑΝΔΡΟΥΠΟΛΗΣ,"ΠΛΑΖ ΔΗΜΟΥ,ΚΕΝΤΡΟ ΑΚΤΗΣ",ΑΛΕΞΑΝΔΡΟΥΠΟΛΗ,ALEXANDROUPOLI - PLAZ DIMOU,"ANATOLIKI MAKEDONIA, THRAKI",ΕΒΡΟΥ,Evros,1,25.85111046,40.83416748,POINT (655926.3697968231 4521711.1077664215)
2c8a3e04-2024-4b22-96d5-5168a05d1245.232,71010901,GR1110010571010901,ΑΛΕΞΑΝΔΡΟΥΠΟΛΗΣ,ALEXANDROUPOLI,ΜΑΚΡΗΣ,ΚΕΝΤΡΟ ΑΚΤΗΣ-ΤΣΑΟΥΣΗ,ΤΣΑΟΥΣΗ-ΚΥΑΝΗ ΑΚΤΗ,TSAOUSI - KYANI AKTI,"ANATOLIKI MAKEDONIA, THRAKI",ΕΒΡΟΥ,Evros,1,25.71500015,40.83444595,POINT (644449.0816446863 4521508.260170441)
2c8a3e04-2024-4b22-96d5-5168a05d1245.233,72020102,GR1120020172020102,ΑΒΔΗΡΩΝ,AVDIRON,ΑΒΔΗΡΩΝ,ΜΑΡΙΝΑ-ΠΟΡΤΟ ΜΟΛΟ,ΑΒΔΗΡΑ,AVDIRA - PORTO MOLO,"ANATOLIKI MAKEDONIA, THRAKI",ΞΑΝΘΗΣ,Xanthi,1,24.98722267,40.93388748,POINT (582961.4237671844 4531601.378355295)
2c8a3e04-2024-4b22-96d5-5168a05d1245.234,72020301,GR1120020372020301,ΑΒΔΗΡΩΝ,AVDIRON,ΜΥΡΩΔΑΤΟΥ,"ΠΑΡΑΛΙΑ ΜΥΡΩΔΑΤΟΥ, ΚΕΝΤΡΟ ΑΚΤΗΣ",ΜΥΡΩΔΑΤΟ,PARALIA MYRODATOU,"ANATOLIKI MAKEDONIA, THRAKI",ΞΑΝΘΗΣ,Xanthi,1,24.98833275,40.9347229,POINT (583053.911384589 4531694.9073961675)
2c8a3e04-2024-4b22-96d5-5168a05d1245.235,72020302,GR1120020372020302,ΑΒΔΗΡΩΝ,AVDIRON,ΜΥΡΩΔΑΤΟΥ,ΕΝΑΝΤΙ CAMPING ΛΕΥΚΙΠΟΣ,ΜΥΡΩΔΑΤΟ,MYRODATO - CAMPING LEFKIPOS,"ANATOLIKI MAKEDONIA, THRAKI",ΞΑΝΘΗΣ,Xanthi,1,24.98833275,40.9347229,POINT (583053.911384589 4531694.9073961675)
2c8a3e04-2024-4b22-96d5-5168a05d1245.236,72060101,GR1120060672060101,ΤΟΠΕΙΡΟΥ,TOPEIROU,ΜΑΓΓΑΝΩΝ,ΚΕΝΤΡΟ ΑΚΤΗΣ,ΜΑΓΓΑΝΑ,MANGANA,"ANATOLIKI MAKEDONIA, THRAKI",ΞΑΝΘΗΣ,Xanthi,1,24.90555573,40.91388702,POINT (576109.1319270672 4529306.7537095975)
2c8a3e04-2024-4b22-96d5-5168a05d1245.237,72060102,GR1120060672060102,ΤΟΠΕΙΡΟΥ,TOPEIROU,ΜΑΓΓΑΝΩΝ,ΕΝΑΝΤI CAMPING ΠΡΩΤΑΓΟΡΑ,ΜΑΓΓΑΝΑ,MANGANA - CAMPING PROTAGORAS,"ANATOLIKI MAKEDONIA, THRAKI",ΞΑΝΘΗΣ,Xanthi,1,24.90555573,40.91388702,POINT (576109.1319270672 4529306.7537095975)
2c8a3e04-2024-4b22-96d5-5168a05d1245.238,73020202,GR1130020673020202,ΑΙΓΕΙΡΟΥ,AIGEIROU,ΜΕΣΗΣ,"ΚΕΝΤΡΟ ΑΚΤΗΣ ,ΕΝΑΝΤΙ ΒΡΥΣΗΣ ΔΑΣΑΡΧΕΙΟΥ",ΑΡΩΓΗ,"AROGI,VRYSI DASARCHEIOU","ANATOLIKI MAKEDONIA, THRAKI",ΡΟΔΟΠΗΣ,Rodopi,1,25.16250038,40.94583511,POINT (597700.1430319197 4533108.696550193)
2c8a3e04-2024-4b22-96d5-5168a05d1245.239,73020401,GR1130021073020401,ΑΙΓΕΙΡΟΥ,AIGEIROU,ΦΑΝΑΡΙΟΥ,ΚΕΝΤΡΟ ΚΟΙΝΟΤΙΚΗΣ ΠΛΑΖ,ΦΑΝΑΡΙ,FANARI - KOINOTIKI PLAZ,"ANATOLIKI MAKEDONIA, THRAKI",ΡΟΔΟΠΗΣ,Rodopi,1,25.13666725,40.95500183,POINT (595512.4590469322 4534097.753916291)
2c8a3e04-2024-4b22-96d5-5168a05d1245.240,73020501,GR1130021073020501,ΑΙΓΕΙΡΟΥ,AIGEIROU,ΦΑΝΑΡΙΟΥ,"CAMPING ΦΑΝΑΡΙΟΥ,ΕΝΑΝΤΙ ΤΟΥΡΙΣΤΙΚΟΥ ΠΕΡΙΠΤΕΡΟΥ",ΦΑΝΑΡΙ - ΕΟΤ,FANARI - CAMPING FANARIOU,"ANATOLIKI MAKEDONIA, THRAKI",ΡΟΔΟΠΗΣ,Rodopi,1,25.14027786,40.95416641,POINT (595817.5733130976 4534009.238916943)
2c8a3e04-2024-4b22-96d5-5168a05d1245.241,83050102,GR4110050383050102,ΛΕΣΒΟΣ-ΓΕΡΑΣ,GERAS,ΛΕΣΒΟΣ-ΠΑΛΑΙΟΚΗΠΟΥ,50Μ ΒΟΡΕΙΑ ΤΟΥ ΜΟΛΟΥ,ΕΥΡΕΙΑΚΗ,EVREIAKI,VOREIO AIGAIO,ΛΕΣΒΟΥ,Lesvos,1,26.46888924,39.07361221,POINT (713429.1494292637 4327559.35987974)
2c8a3e04-2024-4b22-96d5-5168a05d1245.242,82151301,GR4220150182151301,ΠΑΡΟΣ-ΠΑΡΟΥ,PAROU,ΠΑΡΟΣ-ΠΑΡΟΥ,ΚΕΝΤΡΟ ΑΚΤΗΣ,ΠΑΡΟΣ-ΠΟΥΝΤΑ,POYNTA,NOTIO AIGAIO,ΚΥΚΛΑΔΩΝ,Kyklades,1,25.25416756,37.02916718,POINT (611401.5930383587 4098554.8282526955)
2c8a3e04-2024-4b22-96d5-5168a05d1245.243,81010702,GR4210010181010702,ΡΟΔΟΣ-ΡΟΔΟΥ,RODOU,ΡΟΔΟΣ-ΡΟΔΟΥ,ΚΑΝΤΙΝΑ ΕΛΛΗ,ΑΝΑΤΟΛΙΚΑ ΕΝΥΔΡΕΙΟΥ,ANATOLIKA ENYDRIOU - KANTINA ELLI,NOTIO AIGAIO,ΔΩΔΕΚΑΝΗΣΟΥ,Dodekanisos,1,28.21388817,36.45833206,POINT (877530.7019241175 4042758.7399051404)
2c8a3e04-2024-4b22-96d5-5168a05d1245.244,81070401,GR4210070181070401,ΚΩΣ-ΗΡΑΚΛΕΙΔΩΝ,IRAKLEIDON,ΚΩΣ-ΑΝΤΙΜΑΧΕΙΑΣ,ΕΝΑΝΤΙ ΞΕΝΟΔΟΧΕΙΟΥ 'NEPTUNE',ΚΩΣ-ΤΡΟΥΛΛΟΣ,TROULLOS  - HOTEL NEPTON,NOTIO AIGAIO,ΔΩΔΕΚΑΝΗΣΟΥ,Dodekanisos,1,27.08555603,36.85222244,POINT (774960.238973487 4082635.6178294593)
2c8a3e04-2024-4b22-96d5-5168a05d1245.245,81090101,GR4210090181090101,ΡΟΔΟΣ-ΚΑΛΛΙΘΕΑΣ,KALLITHEAS,ΡΟΔΟΣ-ΚΑΛΥΘΙΩΝ,ΜΕΣΟΝ ΑΚΤΗΣ,ΛΑΔΙΚΟ 1,LADIKO,NOTIO AIGAIO,ΔΩΔΕΚΑΝΗΣΟΥ,Dodekanisos,1,28.21666718,36.33055496,POINT (878400.3142130558 4028584.888841551)
2c8a3e04-2024-4b22-96d5-5168a05d1245.246,81090201,GR4210090281090201,ΡΟΔΟΣ-ΚΑΛΛΙΘΕΑΣ,KALLITHEAS,ΡΟΔΟΣ-ΚΟΣΚΙΝΟΥΣ,ΞΕΝΟΔΟΧΕΙΟ PARADISE,ΚΑΒΟΥΡΑΚΙΑ,KAVOURAKIA - HOTEL 'PARADISE',NOTIO AIGAIO,ΔΩΔΕΚΑΝΗΣΟΥ,Dodekanisos,1,28.23055649,36.41388702,POINT (879242.0760863652 4037890.4529720643)
2c8a3e04-2024-4b22-96d5-5168a05d1245.247,81090501,GR4210090281090501,ΡΟΔΟΣ-ΚΑΛΛΙΘΕΑΣ,KALLITHEAS,ΡΟΔΟΣ-ΚΟΣΚΙΝΟΥΣ,ΞΕΝΟΔΟΧΕΙΟ BLUE SEA,ΦΑΛΗΡΑΚΙ 5,FALIRAKI- HOTEL 'BLUE SEA',NOTIO AIGAIO,ΔΩΔΕΚΑΝΗΣΟΥ,Dodekanisos,1,28.21666718,36.36666489,POINT (878225.1475505673 4032593.62350817)
2c8a3e04-2024-4b22-96d5-5168a05d1245.248,82080501,GR4220080182080501,ΙΟΣ-ΙΗΤΩΝ,IOU,ΙΟΣ-ΙΟΥ,ΕΣΤΙΑΤΟΡΕΙΟ ΜΠΟΥΖΑΛΑΚΟΥ Χ.,ΙΟΣ-ΜΑΓΓΑΝΑΡΙ,MANGANARI - ESTIATOREIO,NOTIO AIGAIO,ΚΥΚΛΑΔΩΝ,Kyklades,1,25.3722229,36.66388702,POINT (622484.5415433779 4058175.8967586737)
2c8a3e04-2024-4b22-96d5-5168a05d1245.249,82080502,GR4220080182080502,ΙΟΣ-ΙΗΤΩΝ,IOU,ΙΟΣ-ΙΟΥ,ΞΕΝΟΔΟΧΕΙΟ ΓΕΡΟΓΙΑΝΝΗ Η.,ΙΟΣ-ΜΑΓΓΑΝΑΡΙ,MANGANARI - HOTEL GEROGIANNH,NOTIO AIGAIO,ΚΥΚΛΑΔΩΝ,Kyklades,1,25.3722229,36.66388702,POINT (622484.5415433779 4058175.8967586737)
2c8a3e04-2024-4b22-96d5-5168a05d1245.250,82080503,GR4220080182080503,ΙΟΣ-ΙΗΤΩΝ,IOU,ΙΟΣ-ΙΟΥ,ΕΣΤΙΑΤΟΡΕΙΟ ΜΠΟΥΖΑΛΑΚΟΥ Π.,ΙΟΣ-ΜΑΓΓΑΝΑΡΙ,MANGANARI - ESTIATOREIO,NOTIO AIGAIO,ΚΥΚΛΑΔΩΝ,Kyklades,1,25.3722229,36.66388702,POINT (622484.5415433779 4058175.8967586737)
2c8a3e04-2024-4b22-96d5-5168a05d1245.251,82080701,GR4220080182080701,ΙΟΣ-ΙΗΤΩΝ,IOU,ΙΟΣ-ΙΟΥ,"ΑΡΙΣΤΕΡΟ ΑΚΤΟ ΑΚΤΗΣ,ΠΛΗΣΙΟΝ ΑΓΩΓΟΥ ΛΥΜΑΤΩΝ",ΙΟΣ-ΟΡΜΟΣ ΙΟΥ,ORMOS IOU,NOTIO AIGAIO,ΚΥΚΛΑΔΩΝ,Kyklades,1,25.26666641,36.72777939,POINT (612957.0919613255 4065133.7375892075)
2c8a3e04-2024-4b22-96d5-5168a05d1245.252,82130401,GR4220130282130401,ΜΥΚΟΝΟΣ-ΜΥΚΟΝΟΥ,MYKONOU,ΜΥΚΟΝΟΣ-ΑΝΩ ΜΕΡΑΣ,ΚΕΝΤΡΟ ΑΚΤΗΣ,ΜΥΚΟΝΟΣ-ΚΑΛΑΦΑΤΗ,KALAFATI,NOTIO AIGAIO,ΚΥΚΛΑΔΩΝ,Kyklades,1,25.42277718,37.43999863,POINT (625714.4324262715 4144346.698649909)
2c8a3e04-2024-4b22-96d5-5168a05d1245.253,82130402,GR4220130282130402,ΜΥΚΟΝΟΣ-ΜΥΚΟΝΟΥ,MYKONOU,ΜΥΚΟΝΟΣ-ΑΝΩ ΜΕΡΑΣ,ΑΡΙΣΤΕΡΟ ΑΚΡΟ ΑΚΤΗΣ,ΜΥΚΟΝΟΣ-ΚΑΛΑΦΑΤΗ,KALAFATI,NOTIO AIGAIO,ΚΥΚΛΑΔΩΝ,Kyklades,1,25.42083359,37.4383316,POINT (625545.1501926132 4144159.147115593)
2c8a3e04-2024-4b22-96d5-5168a05d1245.254,64111001,GR1270110264111001,ΣΙΘΩΝΙΑΣ,SITHONIAS,ΑΓ.ΝΙΚΟΛΑΟΥ,ΚΕΝΤΡΟ ΑΚΤΗΣ,ΛΙΒΡΟΧΙΟ,LIVROCHIO - MESON,KENTRIKI MAKEDONIA,ΧΑΛΚΙΔΙΚΗΣ,Chalkidiki,1,23.70000076,40.26666641,POINT (474342.2303393898 4457112.067749511)
2c8a3e04-2024-4b22-96d5-5168a05d1245.255,82130403,GR4220130282130403,ΜΥΚΟΝΟΣ-ΜΥΚΟΝΟΥ,MYKONOU,ΜΥΚΟΝΟΣ-ΑΝΩ ΜΕΡΑΣ,ΔΕΞΙΟ ΑΚΡΟ ΑΚΤΗΣ,ΜΥΚΟΝΟΣ-ΚΑΛΑΦΑΤΗ,KALAFATI,NOTIO AIGAIO,ΚΥΚΛΑΔΩΝ,Kyklades,1,25.42277718,37.44166565,POINT (625711.6398318725 4144531.6540459623)
2c8a3e04-2024-4b22-96d5-5168a05d1245.256,81141001,GR4210140181141001,ΚΩΣ-ΚΩ,KO,ΚΩΣ-ΚΩ,ΜΠΑΡΜΠΑΓΙΑΝΝΗΣ,ΚΩΣ-ΚΡΗΤΙΚΑ 3,KRITIKA  - BARMPAGIANNIS,NOTIO AIGAIO,ΔΩΔΕΚΑΝΗΣΟΥ,Dodekanisos,1,27.29166603,36.90833282,POINT (793127.8057763106 4089477.1513273264)
2c8a3e04-2024-4b22-96d5-5168a05d1245.257,82130701,GR4220130182130701,ΜΥΚΟΝΟΣ-ΜΥΚΟΝΟΥ,MYKONOU,ΜΥΚΟΝΟΣ-ΜΥΚΟΝΙΩΝ,ΚΕΝΤΡΟ ΑΚΤΗΣ,ΜΥΚΟΝΟΣ-ΠΑΡΑΛΙΑ ΟΡΝΟΥ,PARALIA ORNOU,NOTIO AIGAIO,ΚΥΚΛΑΔΩΝ,Kyklades,1,25.38944435,37.40000153,POINT (622830.8411073588 4139864.6847495204)
2c8a3e04-2024-4b22-96d5-5168a05d1245.258,85020102,GR4130020285020102,ΧΙΟΣ-ΑΓΙΟΥ ΜΗΝΑ,AGIOU MINA,ΧΙΟΣ-ΝΕΟΧΩΡΙΟΥ,ΔΕΞΙΟ ΑΚΡΟ,ΑΓ.ΦΩΤΕΙΝΗ,AGIA FOTEINI,VOREIO AIGAIO,ΧΙΟΥ,Chios,1,26.12083244,38.28472137,POINT (685342.6012908745 4239245.970976185)
2c8a3e04-2024-4b22-96d5-5168a05d1245.259,82150201,GR4220150782150201,ΠΑΡΟΣ-ΠΑΡΟΥ,PAROU,ΠΑΡΟΣ-ΝΑΟΥΣΗΣ,ΚΕΝΤΡΟ ΑΚΤΗΣ,ΠΑΡΟΣ-ΚΟΛΥΜΠΗΘΡΕΣ,KOLYMPITHRES,NOTIO AIGAIO,ΚΥΚΛΑΔΩΝ,Kyklades,1,25.21388817,37.13000107,POINT (607676.0304822818 4109694.9777922775)
2c8a3e04-2024-4b22-96d5-5168a05d1245.260,82150501,GR4220150682150501,ΠΑΡΟΣ-ΠΑΡΟΥ,PAROU,ΠΑΡΟΣ-ΜΑΡΠΗΣΣΗΣ,ΚΕΝΤΡΟ ΑΚΤΗΣ,ΠΑΡΟΣ-ΛΟΓΑΡΑΣ,LOGARAS,NOTIO AIGAIO,ΚΥΚΛΑΔΩΝ,Kyklades,1,25.25555611,37.03472137,POINT (611517.00800853 4099172.7391583645)
2c8a3e04-2024-4b22-96d5-5168a05d1245.261,82150701,GR4220150682150701,ΠΑΡΟΣ-ΠΑΡΟΥ,PAROU,ΠΑΡΟΣ-ΜΑΡΠΗΣΣΗΣ,"ΧΡΥΣΗ ΑΚΤΗ ,ΚΕΝΤΡΟ ΑΚΤΗΣ",ΠΑΡΟΣ-ΜΑΡΠΗΣΣΑ,MARPISSA - CHRYSI AKTI,NOTIO AIGAIO,ΚΥΚΛΑΔΩΝ,Kyklades,1,25.26000023,37.03749847,POINT (611908.183166843 4099486.1621606057)
2c8a3e04-2024-4b22-96d5-5168a05d1245.262,82151601,GR4220150682151601,ΠΑΡΟΣ-ΠΑΡΟΥ,PAROU,ΠΑΡΟΣ-ΜΑΡΠΗΣΣΗΣ,ΚΕΝΤΡΟ ΑΚΤΗΣ,ΠΑΡΟΣ-ΤΣΕΡΔΑΚΙΑ,TSERDAKIA,NOTIO AIGAIO,ΚΥΚΛΑΔΩΝ,Kyklades,1,25.25499916,37.04861069,POINT (611447.2227634245 4100712.958249869)
2c8a3e04-2024-4b22-96d5-5168a05d1245.263,82160101,GR4220160182160101,ΣΥΡΟΣ-ΠΟΣΕΙΔΩΝΙΑΣ,POSEIDONIAS,ΣΥΡΟΣ-ΠΟΣΕΙΔΩΝΙΑΣ,ΚΕΝΤΡΟ ΑΚΤΗΣ,ΣΥΡΟΣ-ΑΓΚΑΘΩΠΕΣ,AGKATHOPES,NOTIO AIGAIO,ΚΥΚΛΑΔΩΝ,Kyklades,1,24.87722206,37.38666534,POINT (577506.3510301507 4137840.7169938637)
2c8a3e04-2024-4b22-96d5-5168a05d1245.264,82160601,GR4220160382160601,ΣΥΡΟΣ-ΠΟΣΕΙΔΩΝΙΑΣ,POSEIDONIAS,ΣΥΡΟΣ-ΦΟΙΝΙΚΑ,ΚΕΝΤΡΟ ΑΚΤΗΣ,ΣΥΡΟΣ-ΨΑΧΝΟ,PSACHNO,NOTIO AIGAIO,ΚΥΚΛΑΔΩΝ,Kyklades,1,24.89999962,37.44666672,POINT (579459.2776454956 4144516.418321458)
2c8a3e04-2024-4b22-96d5-5168a05d1245.265,82180101,GR4220180182180101,ΣΙΦΝΟΣ-ΣΙΦΝΟΥ,SIFNOU,ΣΙΦΝΟΣ-ΑΠΟΛΛΩΝΙΑΣ,ΚΕΝΤΡΟ ΑΚΤΗΣ,ΣΙΦΝΟΣ-ΚΑΜΑΡΕΣ,KAMARES,NOTIO AIGAIO,ΚΥΚΛΑΔΩΝ,Kyklades,1,24.68666649,36.99000168,POINT (560956.0343778344 4093694.9145621946)
2c8a3e04-2024-4b22-96d5-5168a05d1245.266,82180202,GR4220180182180202,ΣΙΦΝΟΣ-ΣΙΦΝΟΥ,SIFNOU,ΣΙΦΝΟΣ-ΑΠΟΛΛΩΝΙΑΣ,ΑΡΙΣΤΕΡΟ ΑΚΡΟ ΑΚΤΗΣ,ΣΙΦΝΟΣ-ΠΛΑΤΥΣ ΓΙΑΛΟΣ,PLATYS GIALOS,NOTIO AIGAIO,ΚΥΚΛΑΔΩΝ,Kyklades,1,24.73333359,36.94666672,POINT (565145.8423289744 4088918.7019592864)
2c8a3e04-2024-4b22-96d5-5168a05d1245.267,82200101,GR4220200182200101,ΑΝΔΡΟΣ-ΥΔΡΟΥΣΑΣ,YDROUSA,ΑΝΔΡΟΣ-ΓΑΥΡΙΟΥ,ΚΕΝΤΡΟ ΑΚΤΗΣ,ΑΝΔΡΟΣ-ΑΓ.ΠΕΤΡΟΣ,AGIOS PETROS,NOTIO AIGAIO,ΚΥΚΛΑΔΩΝ,Kyklades,1,24.74027824,37.88333511,POINT (564948.4720909746 4192840.9569185707)
2c8a3e04-2024-4b22-96d5-5168a05d1245.268,82200201,GR4220200982200201,ΑΝΔΡΟΣ-ΥΔΡΟΥΣΑΣ,YDROUSA,ΑΝΔΡΟΣ-ΜΠΑΤΣΙΟΥ,ΕΝΑΝΤΙ ΞΕΝΟΔΟΧΕΙΟΥ 'ΧΡΥΣΗ 'ΑΚΤΗ',ΑΝΔΡΟΣ-ΜΠΑΤΣΙ,BATSI - HOTEL 'CHRYSI AKTI',NOTIO AIGAIO,ΚΥΚΛΑΔΩΝ,Kyklades,1,24.95277786,37.7705574,POINT (583763.1388727108 4180497.5298393965)
2c8a3e04-2024-4b22-96d5-5168a05d1245.269,82200401,GR4220200182200401,ΑΝΔΡΟΣ-ΥΔΡΟΥΣΑΣ,YDROUSA,ΑΝΔΡΟΣ-ΓΑΥΡΙΟΥ,ΚΕΝΤΡΟ ΑΚΤΗΣ,ΑΝΔΡΟΣ-ΧΡΥΣΗ ΑΜΜΟΣ,CHRYSI AMMOS,NOTIO AIGAIO,ΚΥΚΛΑΔΩΝ,Kyklades,1,24.73333359,37.88972092,POINT (564332.1676849545 4193545.0112808193)
2c8a3e04-2024-4b22-96d5-5168a05d1245.270,83011001,GR4110010183011001,ΛΕΣΒΟΣ-ΜΥΤΙΛΗΝΗΣ,MYTILINIS,ΛΕΣΒΟΣ-ΜΥΤΙΛΗΝΗΣ,40 μ.ΑΠΟ ΑΡΙΣΤΕΡΗ ΠΡΟΒΛΗΤΑ,ΤΣΑΜΑΚΙΑ,TSAMAKIA,VOREIO AIGAIO,ΛΕΣΒΟΥ,Lesvos,1,26.55944443,39.10916519,POINT (721152.7113436538 4331722.775443674)
2c8a3e04-2024-4b22-96d5-5168a05d1245.271,83011002,GR4110010183011002,ΛΕΣΒΟΣ-ΜΥΤΙΛΗΝΗΣ,MYTILINIS,ΛΕΣΒΟΣ-ΜΥΤΙΛΗΝΗΣ,40 μ.ΑΠΟ ΔΕΞΙΑ ΠΡΟΒΛΗΤΑ,ΤΣΑΜΑΚΙΑ,TSAMAKIA,VOREIO AIGAIO,ΛΕΣΒΟΥ,Lesvos,1,26.55944443,39.10916519,POINT (721152.7113436538 4331722.775443674)
2c8a3e04-2024-4b22-96d5-5168a05d1245.272,83050101,GR4110050383050101,ΛΕΣΒΟΣ-ΓΕΡΑΣ,GERAS,ΛΕΣΒΟΣ-ΠΑΛΑΙΟΚΗΠΟΥ,150Μ ΝΟΤΙΑ ΧΕΙΜΑΡΡΟΥ ΜΟΝΕΡΙΟΥ,ΕΥΡΕΙΑΚΗ,EVREIAKI,VOREIO AIGAIO,ΛΕΣΒΟΥ,Lesvos,1,26.46888924,39.07361221,POINT (713429.1494292637 4327559.35987974)
2c8a3e04-2024-4b22-96d5-5168a05d1245.273,83050201,GR4110050683050201,ΛΕΣΒΟΣ-ΓΕΡΑΣ,GERAS,ΛΕΣΒΟΣ-ΣΚΟΠΕΛΟΥ,ΚΑΦΕΝΕΙΟ ΧΑΤΖΗΜΑΝΩΛΗ,ΤΑΡΤΙ,TARTI - KAFENEIOU CHANTZIMANOLI,VOREIO AIGAIO,ΛΕΣΒΟΥ,Lesvos,1,26.48333359,38.97777939,POINT (714969.2949637305 4316956.531200843)
2c8a3e04-2024-4b22-96d5-5168a05d1245.274,83050202,GR4110050683050202,ΛΕΣΒΟΣ-ΓΕΡΑΣ,GERAS,ΛΕΣΒΟΣ-ΣΚΟΠΕΛΟΥ,ΑΓ.ΣΑΡΑΝΤΑ,ΤΑΡΤΙ,TARTI - AGIOI SARANTA,VOREIO AIGAIO,ΛΕΣΒΟΥ,Lesvos,1,26.48333359,38.97777939,POINT (714969.2949637305 4316956.531200843)
2c8a3e04-2024-4b22-96d5-5168a05d1245.275,83060102,GR4110060183060102,ΛΕΣΒΟΣ-ΕΡΕΣΟΥ-ΑΝΤΙΣΣ,ERESOU,ΛΕΣΒΟΣ-ΕΡΕΣΟΥ,ΣΠΙΤΙ ΟΜΗΡΟΥ,ΣΚΑΛΑ ΕΡΕΣΟΥ,SCALA ERESOU - OIKIAS OMIROU,VOREIO AIGAIO,ΛΕΣΒΟΥ,Lesvos,1,25.92333412,39.13666534,POINT (666081.7512316415 4333416.906463732)
2c8a3e04-2024-4b22-96d5-5168a05d1245.276,83060103,GR4110060183060103,ΛΕΣΒΟΣ-ΕΡΕΣΟΥ-ΑΝΤΙΣΣ,ERESOU,ΛΕΣΒΟΣ-ΕΡΕΣΟΥ,ΜΑΡΙΑΝΝΑ BAR,ΣΚΑΛΑ ΕΡΕΣΟΥ,SCALA ERESOU - BAR 'MARIANNA',VOREIO AIGAIO,ΛΕΣΒΟΥ,Lesvos,1,25.92333412,39.13666534,POINT (666081.7512316415 4333416.906463732)
2c8a3e04-2024-4b22-96d5-5168a05d1245.277,83080101,GR4110080183080101,ΛΕΣΒΟΣ-ΚAΛΛΟΝΗΣ,KALLONIS,ΛΕΣΒΟΣ-ΚΑΛΛΟΝΗΣ,ΞΕΝΟΔΟΧΕΙΟ ΒΟΓΙΑΤΖΗ(ΠΑΓΚΑΚΙ),ΣΚΑΛΑ ΚΑΛΛΟΝΗΣ,SCALA KALLONIS - HOTEL VOGIATZI,VOREIO AIGAIO,ΛΕΣΒΟΥ,Lesvos,1,26.21333313,39.20166779,POINT (690972.3833047085 4341202.739963699)
2c8a3e04-2024-4b22-96d5-5168a05d1245.278,83110101,GR4110110183110101,ΛΕΣΒΟΣ-ΜΗΘΥΜΝΑΣ,MITHYMNAS,ΛΕΣΒΟΣ-ΜΗΘΥΜΝΑΣ,ΜΠΟΣΤΑ ΣΤΑ ΝΤΟΥΣ,ΕΦΤΑΛΟΥ/ΑΓ.ΑΝΑΡΓΥΡΟΙ,EFTALOU - AGIOI ANARGYROI,VOREIO AIGAIO,ΛΕΣΒΟΥ,Lesvos,1,26.2033329,39.37666702,POINT (689635.5879509742 4360605.589536825)
2c8a3e04-2024-4b22-96d5-5168a05d1245.279,83110102,GR4110110183110102,ΛΕΣΒΟΣ-ΜΗΘΥΜΝΑΣ,MITHYMNAS,ΛΕΣΒΟΣ-ΜΗΘΥΜΝΑΣ,ΑΓΙΟΙ ΑΝΑΡΓΥΡΟΙ,ΕΦΤΑΛΟΥ/ΑΓ.ΑΝΑΡΓΥΡΟΙ,EFTALOU - AGIOI ANARGYROI,VOREIO AIGAIO,ΛΕΣΒΟΥ,Lesvos,1,26.21666718,39.38333511,POINT (690766.0614006775 4361373.605167456)
2c8a3e04-2024-4b22-96d5-5168a05d1245.280,83110201,GR4110110183110201,ΛΕΣΒΟΣ-ΜΗΘΥΜΝΑΣ,MITHYMNAS,ΛΕΣΒΟΣ-ΜΗΘΥΜΝΑΣ,ΜΠΡΟΣΤΑ ΣΤΟ ΝΤΟΥΣ,ΜΟΛΥΒΟΣ,MOLYVOS,VOREIO AIGAIO,ΛΕΣΒΟΥ,Lesvos,1,26.17333412,39.36333466,POINT (687086.9032789492 4359062.941047548)
2c8a3e04-2024-4b22-96d5-5168a05d1245.281,83110202,GR4110110183110202,ΛΕΣΒΟΣ-ΜΗΘΥΜΝΑΣ,MITHYMNAS,ΛΕΣΒΟΣ-ΜΗΘΥΜΝΑΣ,ΞΕΝΟΔΟΧΕΙΟ ΑΡΙΩΝ,ΜΟΛΥΒΟΣ,MOLYVOS - HOTEL 'ARION',VOREIO AIGAIO,ΛΕΣΒΟΥ,Lesvos,1,26.17333412,39.36333466,POINT (687086.9032789492 4359062.941047548)
2c8a3e04-2024-4b22-96d5-5168a05d1245.282,83110203,GR4110110183110203,ΛΕΣΒΟΣ-ΜΗΘΥΜΝΑΣ,MITHYMNAS,ΛΕΣΒΟΣ-ΜΗΘΥΜΝΑΣ,ΘΕΣΗ ΨΗΡΙΑΡΑ,ΜΟΛΥΒΟΣ,MOLYVOS - PSIRIARA,VOREIO AIGAIO,ΛΕΣΒΟΥ,Lesvos,1,26.17333412,39.36333466,POINT (687086.9032789492 4359062.941047548)
2c8a3e04-2024-4b22-96d5-5168a05d1245.283,83150101,GR4110150383150101,ΛΕΣΒΟΣ-ΠΕΤΡΑΣ,PETRAS,ΛΕΣΒΟΣ-ΣΚΟΥΤΑΡΟΥ,ΜΠΡΟΣΤΑ ΣΤΟ ΚΑΤΑΣΤΗΜΑ ΑΓΓΕΛΗ,ΑΝΑΞΟΣ,ANAXOS,VOREIO AIGAIO,ΛΕΣΒΟΥ,Lesvos,1,26.12000084,39.31000137,POINT (682630.6466644831 4353034.099235251)
2c8a3e04-2024-4b22-96d5-5168a05d1245.284,83150102,GR4110150383150102,ΛΕΣΒΟΣ-ΠΕΤΡΑΣ,PETRAS,ΛΕΣΒΟΣ-ΣΚΟΥΤΑΡΟΥ,ΜΠΡΟΣΤΑ ΣΤΙΣ ΚΑΜΠΙΝΕΣ,ΑΝΑΞΟΣ,ANAXOS,VOREIO AIGAIO,ΛΕΣΒΟΥ,Lesvos,1,26.12000084,39.31000137,POINT (682630.6466644831 4353034.099235251)
2c8a3e04-2024-4b22-96d5-5168a05d1245.285,83150201,GR4110150183150201,ΛΕΣΒΟΣ-ΠΕΤΡΑΣ,PETRAS,ΛΕΣΒΟΣ-ΠΕΤΡΑΣ,ΣΠΙΤΙ ΣΑΠΟΥΝΤΖΗ ΙΠΠΟΚΡΑΤΗ,ΠΕΤΡΑ,PETRA - OIKIA SAPOUNTZI,VOREIO AIGAIO,ΛΕΣΒΟΥ,Lesvos,1,26.17000008,39.33000183,POINT (686888.6101873132 4355356.2667006375)
2c8a3e04-2024-4b22-96d5-5168a05d1245.286,83150202,GR4110150183150202,ΛΕΣΒΟΣ-ΠΕΤΡΑΣ,PETRAS,ΛΕΣΒΟΣ-ΠΕΤΡΑΣ,ΕΣΤΙΑΤΟΡΙΟ ΛΑΣΚΑΡΗ,ΠΕΤΡΑ,PETRA - ESTIATORIO LASKARI,VOREIO AIGAIO,ΛΕΣΒΟΥ,Lesvos,1,26.17000008,39.33000183,POINT (686888.6101873132 4355356.2667006375)
2c8a3e04-2024-4b22-96d5-5168a05d1245.287,83160101,GR4110160183160101,ΛΕΣΒΟΣ-ΠΛΩΜΑΡΙΟΥ,PLOMARIOU,ΛΕΣΒΟΣ-ΠΛΩΜΑΡΙΟΥ,ΕΚΚΛΗΣΙΑ,ΑΓ.ΙΣΙΔΩΡΟΣ,AGIOS ISIDOROS,VOREIO AIGAIO,ΛΕΣΒΟΥ,Lesvos,1,26.38333321,38.97166824,POINT (706323.4697610987 4316046.6939331265)
2c8a3e04-2024-4b22-96d5-5168a05d1245.288,83160102,GR4110160183160102,ΛΕΣΒΟΣ-ΠΛΩΜΑΡΙΟΥ,PLOMARIOU,ΛΕΣΒΟΣ-ΠΛΩΜΑΡΙΟΥ,ΚΑΦΕΤΕΡΙΑ ΔΗΜΟΥ,ΑΓ.ΙΣΙΔΩΡΟΣ,AGIOS ISIDOROS,VOREIO AIGAIO,ΛΕΣΒΟΥ,Lesvos,1,26.38333321,38.97166824,POINT (706323.4697610987 4316046.6939331265)
2c8a3e04-2024-4b22-96d5-5168a05d1245.289,83160103,GR4110160183160103,ΛΕΣΒΟΣ-ΠΛΩΜΑΡΙΟΥ,PLOMARIOU,ΛΕΣΒΟΣ-ΠΛΩΜΑΡΙΟΥ,ΟΙΚΙΑ ΒΑΡΒΑΓΙΑΝΝΗ,ΑΓ.ΙΣΙΔΩΡΟΣ,AGIOS ISIDOROS,VOREIO AIGAIO,ΛΕΣΒΟΥ,Lesvos,1,26.38333321,38.97166824,POINT (706323.4697610987 4316046.6939331265)
2c8a3e04-2024-4b22-96d5-5168a05d1245.290,83170101,GR4110170383170101,ΛΕΣΒΟΣ-ΠΟΛΙΧΝΙΤΟΥ,POLICHNITOU,ΛΕΣΒΟΣ-ΒΡΙΣΑ,ΞΕΝΟΔΟΧΕΙΟ ΟΜΗΡΟΣ,ΒΑΤΕΡΑ,VATERA - HOTEL 'OMIROS',VOREIO AIGAIO,ΛΕΣΒΟΥ,Lesvos,1,26.20666695,39.02000046,POINT (690886.8052094391 4321025.328719533)
2c8a3e04-2024-4b22-96d5-5168a05d1245.291,83170102,GR4110170383170102,ΛΕΣΒΟΣ-ΠΟΛΙΧΝΙΤΟΥ,POLICHNITOU,ΛΕΣΒΟΣ-ΒΡΙΣΑ,ΚΑΜΠΙΝΕΣ ΖΟΥΡΟ,ΒΑΤΕΡΑ,VATERA - KAMPINES ZOURO,VOREIO AIGAIO,ΛΕΣΒΟΥ,Lesvos,1,26.20666695,39.02000046,POINT (690886.8052094391 4321025.328719533)
2c8a3e04-2024-4b22-96d5-5168a05d1245.292,83170103,GR4110170383170103,ΛΕΣΒΟΣ-ΠΟΛΙΧΝΙΤΟΥ,POLICHNITOU,ΛΕΣΒΟΣ-ΒΡΙΣΑ,ΧΟΥΡΜΟΥΖΗ,ΒΑΤΕΡΑ,VATERA - XOURMOUZI,VOREIO AIGAIO,ΛΕΣΒΟΥ,Lesvos,1,26.20666695,39.02000046,POINT (690886.8052094391 4321025.328719533)
2c8a3e04-2024-4b22-96d5-5168a05d1245.293,83170104,GR4110170383170104,ΛΕΣΒΟΣ-ΠΟΛΙΧΝΙΤΟΥ,POLICHNITOU,ΛΕΣΒΟΣ-ΒΡΙΣΑ,ΞΕΝΟΔΟΧΕΙΟ ΕΙΡΗΝΗ,ΒΑΤΕΡΑ,VATERA - HOTEL 'EIRINI',VOREIO AIGAIO,ΛΕΣΒΟΥ,Lesvos,1,26.20666695,39.02000046,POINT (690886.8052094391 4321025.328719533)
2c8a3e04-2024-4b22-96d5-5168a05d1245.294,83170201,GR4110170183170201,ΛΕΣΒΟΣ-ΠΟΛΙΧΝΙΤΟΥ,POLICHNITOU,ΛΕΣΒΟΣ-ΠΟΛΙΧΝΙΤΟΥ,ΠΡΩΤΗ ΚΑΜΠΙΝΑ,ΝΥΦΙΔΑ,NYFIDA,VOREIO AIGAIO,ΛΕΣΒΟΥ,Lesvos,1,26.13333321,39.09000015,POINT (684355.1449553767 4328643.080685921)
2c8a3e04-2024-4b22-96d5-5168a05d1245.295,83170202,GR4110170183170202,ΛΕΣΒΟΣ-ΠΟΛΙΧΝΙΤΟΥ,POLICHNITOU,ΛΕΣΒΟΣ-ΠΟΛΙΧΝΙΤΟΥ,ΚΑΦΕΝΕΙΟ ΚΟΥΚΟΥΛΑ - ΚΑΜΠΙΝΑ,ΝΥΦΙΔΑ,NYFIDA,VOREIO AIGAIO,ΛΕΣΒΟΥ,Lesvos,1,26.13333321,39.09000015,POINT (684355.1449553767 4328643.080685921)
2c8a3e04-2024-4b22-96d5-5168a05d1245.296,14130401,GR2330130114130401,ΚΑΣΤΡΟΥ  ΚΥΛΛΗΝΗΣ,KASTROU KYLLINIS,ΚΥΛΛΗΝΗΣ,OLYMPIA RIVIERA OASIS-GRECOTEL,ΛΟΥΤΡΑ ΚΥΛΛΗΝΗΣ 1,LOYTRA KYLLINIS-OLYMPIA RIVIERA OASIS,DYTIKI ELLADA,ΗΛΕΙΑΣ,Ileia,1,21.10000038,37.84999847,POINT (244692.03708830074 4192848.3284779345)
2c8a3e04-2024-4b22-96d5-5168a05d1245.297,14130402,GR2330130114130402,ΚΑΣΤΡΟΥ  ΚΥΛΛΗΝΗΣ,KASTROU KYLLINIS,ΚΥΛΛΗΝΗΣ,OLYMPIA RIVIERA OASIS-GRECOTEL,ΛΟΥΤΡΑ ΚΥΛΛΗΝΗΣ 1,LOYTRA KYLLINIS-OLYMPIA RIVIERA OASIS,DYTIKI ELLADA,ΗΛΕΙΑΣ,Ileia,1,21.10000038,37.84999847,POINT (244692.03708830074 4192848.3284779345)
2c8a3e04-2024-4b22-96d5-5168a05d1245.298,14130501,GR2330130114130501,ΚΑΣΤΡΟΥ  ΚΥΛΛΗΝΗΣ,KASTROU KYLLINIS,ΚΥΛΛΗΝΗΣ,OLYMPIA RIVIERA THALASSO-GRECOTEL,ΛΟΥΤΡΑ ΚΥΛΛΗΝΗΣ 2,LOYTRA KYLLINIS-OLYMPIA RIVIERA THALASSO,DYTIKI ELLADA,ΗΛΕΙΑΣ,Ileia,1,21.14999962,37.93333435,POINT (249374.99739469064 4201961.422417998)
2c8a3e04-2024-4b22-96d5-5168a05d1245.299,15010302,GR2530010115010302,ΚΟΡΙΝΘΙΩΝ,KORINTHION,ΚΟΡΙΝΘΟΥ,ΚΑΦΕΤΕΡΙΑ ΚΟΥΡΣΑΡΟΣ,ΠΑΡΑΛΙΑ ΚΑΛΑΜΙΑ,PARALIA KALAMIA,PELOPONNISOS,ΚΟΡΙΝΘΙΑΣ,Korinthia,1,22.92083359,37.94166565,POINT (405025.6077438671 4199604.023478114)
2c8a3e04-2024-4b22-96d5-5168a05d1245.300,15040101,GR2530040515040101,ΒΕΛΟΥ,VELOU,ΝΕΡΑΝΤΖHΣ,ΕΝΑΝΤΙ ΞΕΝΟΔΟΧΕΙΟΥ 'ΝΕΡΑΝTΖΑ',ΝΕΡΑΝΤΖΑ,NERANTZA - HOTEL 'NERANTZA',PELOPONNISOS,ΚΟΡΙΝΘΙΑΣ,Korinthia,1,22.77777863,37.99166489,POINT (392527.94500159065 4205307.171768411)
2c8a3e04-2024-4b22-96d5-5168a05d1245.301,15040201,GR2530040315040201,ΒΕΛΟΥ,VELOU,ΚΟΚΚΩΝΙΟΥ,ΕΝΑΝΤΙ ΞΕΝΟΔΟΧΕΙΟΥ 'ΑΝΤΖΕΛΑ',ΠΑΡΑΛΙΑ ΚΟΚΚΩΝΙΟΥ,PARALIA KOKKONIOU - HOTEL 'ANTZELA',PELOPONNISOS,ΚΟΡΙΝΘΙΑΣ,Korinthia,1,22.77777863,37.99166489,POINT (392527.94500159065 4205307.171768411)
2c8a3e04-2024-4b22-96d5-5168a05d1245.302,15050102,GR2530050315050102,ΒΟΧΑΣ,VOCHAS,ΒΡΑΧΑΤΙΟΥ,ΕΝΑΝΤΙ DISCO 'VALENTINO',ΒΡΑΧΑΤΙ,VRACHATI,PELOPONNISOS,ΚΟΡΙΝΘΙΑΣ,Korinthia,1,22.80638885,38.96250153,POINT (396436.8576421276 4313005.20595926)
2c8a3e04-2024-4b22-96d5-5168a05d1245.303,15070201,GR2530070115070201,ΛΟΥΤΡΑΚΙΟΥ ΠΕΡΑΧΩΡΑΣ,LOUTRAKIOU PERACHORAS,ΛΟΥΤΡΑΚΙΟΥ ΠΕΡΑΧΩΡΑΣ,ΕΝΑΝΤΙ ΚΑΦΕ SAX,ΛΟΥΤΡΑΚΙ,LOUTRAKI - KAFE 'SAX',PELOPONNISOS,ΚΟΡΙΝΘΙΑΣ,Korinthia,1,22.97333336,37.9766655,POINT (409681.63604843407 4203435.36331926)
2c8a3e04-2024-4b22-96d5-5168a05d1245.304,15070202,GR2530070115070202,ΛΟΥΤΡΑΚΙΟΥ ΠΕΡΑΧΩΡΑΣ,LOUTRAKIOU PERACHORAS,ΛΟΥΤΡΑΚΙΟΥ ΠΕΡΑΧΩΡΑΣ,ΕΝΑΝΤΙ ΞΕΝΟΔΟΧΕΙΟΥ ΑΧΙΛΕΙΟΝ,ΛΟΥΤΡΑΚΙ,LOUTRAKI - HOTEL 'ACHILEION',PELOPONNISOS,ΚΟΡΙΝΘΙΑΣ,Korinthia,1,22.97416687,37.96861267,POINT (409745.0380044824 4202540.690547892)
2c8a3e04-2024-4b22-96d5-5168a05d1245.305,15070203,GR2530070115070203,ΛΟΥΤΡΑΚΙΟΥ ΠΕΡΑΧΩΡΑΣ,LOUTRAKIOU PERACHORAS,ΛΟΥΤΡΑΚΙΟΥ ΠΕΡΑΧΩΡΑΣ,ΕΝΑΝΤΙ ΧΕΙΜΑΡΟΥ,ΛΟΥΤΡΑΚΙ,LOUTRAKI - CHEIMAROS,PELOPONNISOS,ΚΟΡΙΝΘΙΑΣ,Korinthia,1,22.95972252,37.98805618,POINT (408500.3152444174 4204712.319244692)
2c8a3e04-2024-4b22-96d5-5168a05d1245.306,15070401,GR2530070115070401,ΛΟΥΤΡΑΚΙΟΥ ΠΕΡΑΧΩΡΑΣ,LOUTRAKIOU PERACHORAS,ΛΟΥΤΡΑΚΙΟΥ ΠΕΡΑΧΩΡΑΣ,ΣΥΓΚΡΟΤΗΜΑ POSEIDON CLUB,ΛΟΥΤΡΑΚΙ/ΜΠΟΥΤΣΙ,LOUTRAKI - HOTEL 'POSEIDON CLUB',PELOPONNISOS,ΚΟΡΙΝΘΙΑΣ,Korinthia,1,22.94833374,37.99166489,POINT (407504.71045816183 4205124.223436502)
2c8a3e04-2024-4b22-96d5-5168a05d1245.307,15090201,GR2530090115090201,ΞΥΛΟΚΑΣΤΡΟΥ,XYLOKASTROU,ΞΥΛΟΚΑΣΤΡΟΥ,"ΠΑΡΑΛΙΑ ΑΡΙΣΤΟΝΑΥΤΩΝ,ΔΥΤΙΚΑ ΜΑΡΙΝΑΣ ΞΥΛΟΚΑΣΤΡΟΥ",ΞΥΛΟΚΑΣΤΡΟ,XYLOKASTRO - ARISTONAFTON,PELOPONNISOS,ΚΟΡΙΝΘΙΑΣ,Korinthia,1,23.30277824,38.08194351,POINT (438703.71533799026 4214848.539449511)
2c8a3e04-2024-4b22-96d5-5168a05d1245.308,15090202,GR2530090115090202,ΞΥΛΟΚΑΣΤΡΟΥ,XYLOKASTROU,ΞΥΛΟΚΑΣΤΡΟΥ,ΑΝΑΨΥΚΤΗΡΙΟ 'ΠΕΥΚΙΑΣ',ΞΥΛΟΚΑΣΤΡΟ,XYLOKASTRO - PEFKIAS,PELOPONNISOS,ΚΟΡΙΝΘΙΑΣ,Korinthia,1,22.63500023,38.08000183,POINT (380134.05072716944 4215282.953634362)
2c8a3e04-2024-4b22-96d5-5168a05d1245.309,15110101,GR2530110115110101,ΣΙΚΥΩΝΙΩΝ,SIKYONION,ΣΙΚΥΩΝΟΣ,ΚΑΦΕ 'VIVOLI',ΚΙΑΤΟ,KIATO,PELOPONNISOS,ΚΟΡΙΝΘΙΑΣ,Korinthia,1,22.74833298,38.01333237,POINT (389974.6381852524 4207745.576527111)
2c8a3e04-2024-4b22-96d5-5168a05d1245.310,16030101,GR2540030316030101,ΑΣΩΠΟΥ,ASOPOU,ΔΑΙΜΟΝΙΑΣ,ΚΕΝΤΡΟ ΑΚΤΗΣ,ΑΡΧΑΓΓΕΛΟΣ,ARCHANGELOS,PELOPONNISOS,ΛΑΚΩΝΙΑΣ,Lakonia,1,22.87638855,36.63611221,POINT (399399.2962223146 4054805.393803062)
2c8a3e04-2024-4b22-96d5-5168a05d1245.311,81090601,GR4210090281090601,ΡΟΔΟΣ-ΚΑΛΛΙΘΕΑΣ,KALLITHEAS,ΡΟΔΟΣ-ΚΟΣΚΙΝΟΥΣ,ΞΕΝΟΔΟΧΕΙΟ RODOS ROYAL BEACH (RHODES BEACH),ΦΑΛΗΡΑΚΙ - ΚΑΣΤΡΑΚΙ,FALIRAKI KASTRAKI - HOTEL 'RODOS ROYAL BEACH',NOTIO AIGAIO,ΔΩΔΕΚΑΝΗΣΟΥ,Dodekanisos,1,28.21666718,36.36666489,POINT (878225.1475505673 4032593.62350817)
2c8a3e04-2024-4b22-96d5-5168a05d1245.312,81090701,GR4210090181090701,ΡΟΔΟΣ-ΚΑΛΛΙΘΕΑΣ,KALLITHEAS,ΡΟΔΟΣ-ΚΑΛΥΘΙΩΝ,ΤΡΑΟΥΝΟΥ,ΦΑΛΗΡΑΚΙ -ΤΡΑΟΥΝΟΥ,FALIRAKI - TRAOUNOU,NOTIO AIGAIO,ΔΩΔΕΚΑΝΗΣΟΥ,Dodekanisos,1,28.20222282,36.31111145,POINT (877196.7573557184 4026369.7138304394)
2c8a3e04-2024-4b22-96d5-5168a05d1245.313,81090801,GR4210090281090801,ΡΟΔΟΣ-ΚΑΛΛΙΘΕΑΣ,KALLITHEAS,ΡΟΔΟΣ-ΚΟΣΚΙΝΟΥΣ,ΞΕΝΟΔΟΧΕΙΟ ESPERIDES,ΦΑΛΗΡΑΚΙ 1,FALIRAKI  - HOTEL 'ESPERIDES',NOTIO AIGAIO,ΔΩΔΕΚΑΝΗΣΟΥ,Dodekanisos,1,28.21666718,36.36666489,POINT (878225.1475505673 4032593.62350817)
2c8a3e04-2024-4b22-96d5-5168a05d1245.314,81090901,GR4210090281090901,ΡΟΔΟΣ-ΚΑΛΛΙΘΕΑΣ,KALLITHEAS,ΡΟΔΟΣ-ΚΟΣΚΙΝΟΥΣ,ΞΕΝΟΔΟΧΕΙΟ COLOSSOS CLUB,ΦΑΛΗΡΑΚΙ 2,FALIRAKI  - HOTEL 'COLOSSOS CLUB',NOTIO AIGAIO,ΔΩΔΕΚΑΝΗΣΟΥ,Dodekanisos,1,28.21666718,36.36666489,POINT (878225.1475505673 4032593.62350817)
2c8a3e04-2024-4b22-96d5-5168a05d1245.315,81091001,GR4210090281091001,ΡΟΔΟΣ-ΚΑΛΛΙΘΕΑΣ,KALLITHEAS,ΡΟΔΟΣ-ΚΟΣΚΙΝΟΥΣ,ΞΕΝΟΔΟΧΕΙΟ ESPEROS,ΦΑΛΗΡΑΚΙ 3,FALIRAKI  - HOTEL 'ESPEROS',NOTIO AIGAIO,ΔΩΔΕΚΑΝΗΣΟΥ,Dodekanisos,1,28.17777824,36.36111069,POINT (874760.3715240699 4031824.928436395)
2c8a3e04-2024-4b22-96d5-5168a05d1245.316,81091101,GR4210090281091101,ΡΟΔΟΣ-ΚΑΛΛΙΘΕΑΣ,KALLITHEAS,ΡΟΔΟΣ-ΚΟΣΚΙΝΟΥΣ,ΞΕΝΟΔΟΧΕΙΟ CALYPSO,ΦΑΛΗΡΑΚΙ 4,FALIRAKI  - HOTEL 'CALYPSO',NOTIO AIGAIO,ΔΩΔΕΚΑΝΗΣΟΥ,Dodekanisos,1,28.17777824,36.36111069,POINT (874760.3715240699 4031824.928436395)
2c8a3e04-2024-4b22-96d5-5168a05d1245.317,81091201,GR4210090181091201,ΡΟΔΟΣ-ΚΑΛΛΙΘΕΑΣ,KALLITHEAS,ΡΟΔΟΣ-ΚΑΛΥΘΙΩΝ,ΣΤΑΘΜΟΣ ΛΕΩΦΟΡΕΙΩΝ,"ΦΑΛΗΡΑΚΙ A,ΚΑΛΥΘΙΩΝ",FALIRAKI KALYTHION- STATHMOS LEOFOREION,NOTIO AIGAIO,ΔΩΔΕΚΑΝΗΣΟΥ,Dodekanisos,1,28.20833397,36.34583282,POINT (877577.788505689 4030248.140102525)
2c8a3e04-2024-4b22-96d5-5168a05d1245.318,81091301,GR4210090181091301,ΡΟΔΟΣ-ΚΑΛΛΙΘΕΑΣ,KALLITHEAS,ΡΟΔΟΣ-ΚΑΛΥΘΙΩΝ,ΞΕΝΟΔΟΧΕΙΟ APOLLO BEACH,"ΦΑΛΗΡΑΚΙ B,ΚΑΛΥΘΙΩΝ",FALIRAKI KALYTHION -ENANTI HOTEL APPOLO BEACH,NOTIO AIGAIO,ΔΩΔΕΚΑΝΗΣΟΥ,Dodekanisos,1,28.20277786,36.34583282,POINT (877078.9205369463 4030226.400528631)
2c8a3e04-2024-4b22-96d5-5168a05d1245.319,81091401,GR4210090181091401,ΡΟΔΟΣ-ΚΑΛΛΙΘΕΑΣ,KALLITHEAS,ΡΟΔΟΣ-ΚΑΛΥΘΙΩΝ,ΣΩΤΗΡΑΚΗ,"ΦΑΛΗΡΑΚΙ C,ΚΑΛΥΘΙΩΝ",FALIRAKI KALYTHION - ENANTI HOTEL SOTIRAKI,NOTIO AIGAIO,ΔΩΔΕΚΑΝΗΣΟΥ,Dodekanisos,1,28.20277786,36.34583282,POINT (877078.9205369463 4030226.400528631)
2c8a3e04-2024-4b22-96d5-5168a05d1245.320,81141201,GR4210140181141201,ΚΩΣ-ΚΩ,KO,ΚΩΣ-ΚΩ,ΕΝΑΝΤΙ ΞΕΝΟΔΟΧΕΙΟΥ 'ΩΚΕΑΝΙΣ,ΚΩΣ-ΠΕΥΚΟΚΕΦΑΛΗ,PEFKOKEFALI - HOTEL OKEANIS,NOTIO AIGAIO,ΔΩΔΕΚΑΝΗΣΟΥ,Dodekanisos,1,27.25083351,36.88888931,POINT (789562.1052930166 4087194.306604368)
2c8a3e04-2024-4b22-96d5-5168a05d1245.321,81170301,GR4210170281170301,ΡΟΔΟΣ-ΛΙΝΔΙΩΝ,LINDION,ΡΟΔΟΣ-ΚΑΛΑΘΟΥ,ΜΕΣΟΝ ΑΚΤΗΣ,ΘΟΛΑΡΙ,THOLARI,NOTIO AIGAIO,ΔΩΔΕΚΑΝΗΣΟΥ,Dodekanisos,1,28.0363884,36.07749939,POINT (863378.4414722349 3999802.9384347354)
2c8a3e04-2024-4b22-96d5-5168a05d1245.322,81170402,GR4210170181170402,ΡΟΔΟΣ-ΛΙΝΔΙΩΝ,LINDION,ΡΟΔΟΣ-ΛΙΝΔΟΥ,ΞΕΝΟΔΟΧΕΙΟ 'LINDOS BAY',ΒΛΗΧΑ,VLICHA  - HOTEL 'LINDOS BAY',NOTIO AIGAIO,ΔΩΔΕΚΑΝΗΣΟΥ,Dodekanisos,1,28.07500076,36.12083435,POINT (866655.7572005285 4004758.303577027)
2c8a3e04-2024-4b22-96d5-5168a05d1245.323,81170501,GR4210170181170501,ΡΟΔΟΣ-ΛΙΝΔΙΩΝ,LINDION,ΡΟΔΟΣ-ΛΙΝΔΟΥ,ΜΕΓΑΛΟΣ ΓΙΑΛΟΣ,"ΛΙΝΔΟΣ,ΜΕΓΑΛΟΣ ΓΙΑΛΟΣ",LINDOS  - MEGAS GIALOS,NOTIO AIGAIO,ΔΩΔΕΚΑΝΗΣΟΥ,Dodekanisos,1,28.09722137,36.09999847,POINT (868754.704318855 4002530.026737259)
2c8a3e04-2024-4b22-96d5-5168a05d1245.324,81170901,GR4210170481170901,ΡΟΔΟΣ-ΛΙΝΔΙΩΝ,LINDION,ΡΟΔΟΣ-ΛΑΡΔΟΥ,ΚΕΝΤΡΟ ΑΚΤΗΣ,ΚΑΤΣΟΥΝΗ,KATSOUNI,NOTIO AIGAIO,ΔΩΔΕΚΑΝΗΣΟΥ,Dodekanisos,1,28.02000046,36.07666779,POINT (861905.4821866236 3999649.2360374713)
2c8a3e04-2024-4b22-96d5-5168a05d1245.325,81171001,GR4210170481171001,ΡΟΔΟΣ-ΛΙΝΔΙΩΝ,LINDION,ΡΟΔΟΣ-ΛΑΡΔΟΥ,ΚΕΝΤΡΟ ΑΚΤΗΣ,ΓΛΥΣΤΡΑ,GLYSTRA,NOTIO AIGAIO,ΔΩΔΕΚΑΝΗΣΟΥ,Dodekanisos,1,28,36.06944275,POINT (860136.3182718307 3998773.0925889863)
2c8a3e04-2024-4b22-96d5-5168a05d1245.326,81171102,GR4210170481171102,ΡΟΔΟΣ-ΛΙΝΔΙΩΝ,LINDION,ΡΟΔΟΣ-ΛΑΡΔΟΥ,ΕΝΑΝΤΙ ΞΕΝΟΔΟΧΕΙΟΥ 'LINDOS PRINCESS',ΛΑΡΔΟΣ,LARDOS - HOTEL LINDOS PRINCESS,NOTIO AIGAIO,ΔΩΔΕΚΑΝΗΣΟΥ,Dodekanisos,1,28.01944351,36.07555389,POINT (861860.4841211766 3999523.841174383)
2c8a3e04-2024-4b22-96d5-5168a05d1245.327,81171201,GR4210170481171201,ΡΟΔΟΣ-ΛΙΝΔΙΩΝ,LINDION,ΡΟΔΟΣ-ΛΑΡΔΟΥ,LINDIAN VILLAGE,ΛΑΡΔΟΣ 3,LARDOS - HOTEL LINDIAN VILLAGE,NOTIO AIGAIO,ΔΩΔΕΚΑΝΗΣΟΥ,Dodekanisos,1,28.02249908,36.07611084,POINT (862133.3103876654 3999596.8447793173)
2c8a3e04-2024-4b22-96d5-5168a05d1245.328,82040301,GR4220040182040301,ΣΥΡΟΣ-ΑΝΩ ΣΥΡΟΥ,ANO SYROU,ΣΥΡΟΣ-ΑΝΩ ΣΥΡΟΥ,ΚΕΝΤΡΟ ΑΚΤΗΣ,ΣΥΡΟΣ-ΚΙΝΙ,KINI,NOTIO AIGAIO,ΚΥΚΛΑΔΩΝ,Kyklades,1,24.89999962,37.44666672,POINT (579459.2776454956 4144516.418321458)
2c8a3e04-2024-4b22-96d5-5168a05d1245.329,82070101,GR4220070782070101,ΘΗΡΑ-ΘΗΡΑΣ,THIRAS,ΘΗΡΑ-ΕΠΙΣΚΟΠΗΣ ΓΩΝΙΑ,ΚΑΜΑΡI,ΘΗΡΑ-ΚΑΜΑΡΙ,KAMARI,NOTIO AIGAIO,ΚΥΚΛΑΔΩΝ,Kyklades,1,25.48333359,36.375,POINT (632908.8663166739 4026275.595483589)
2c8a3e04-2024-4b22-96d5-5168a05d1245.330,82070102,GR4220070782070102,ΘΗΡΑ-ΘΗΡΑΣ,THIRAS,ΘΗΡΑ-ΕΠΙΣΚΟΠΗΣ ΓΩΝΙΑ,ΑΡΑΠΗΣ,ΘΗΡΑ-ΚΑΜΑΡΙ,KAMARI,NOTIO AIGAIO,ΚΥΚΛΑΔΩΝ,Kyklades,1,25.48333359,36.375,POINT (632908.8663166739 4026275.595483589)
2c8a3e04-2024-4b22-96d5-5168a05d1245.331,82070201,GR4220070582070201,ΘΗΡΑ-ΘΗΡΑΣ,THIRAS,ΘΗΡΑ-ΕΜΠΟΡΕΙΟΥ,ΕΣΤΙΑΤΟΡΙΟ 'ΠΟΠΑΥ',ΘΗΡΑ-ΠΕΡΙΣΣΑ,PERISSA,NOTIO AIGAIO,ΚΥΚΛΑΔΩΝ,Kyklades,1,25.47638893,36.35805511,POINT (632314.6557598544 4024386.4052656116)
2c8a3e04-2024-4b22-96d5-5168a05d1245.332,82070202,GR4220070582070202,ΘΗΡΑ-ΘΗΡΑΣ,THIRAS,ΘΗΡΑ-ΕΜΠΟΡΕΙΟΥ,CAMPING,ΘΗΡΑ-ΠΕΡΙΣΣΑ,PERISSA - CAMPING,NOTIO AIGAIO,ΚΥΚΛΑΔΩΝ,Kyklades,1,25.47638893,36.35805511,POINT (632314.6557598544 4024386.4052656116)
2c8a3e04-2024-4b22-96d5-5168a05d1245.333,84060401,GR4120060184060401,ΣΑΜΟΣ-ΠΥΘΑΓΟΡΕΙΟΥ,PYTHAGOREIOU,ΣΑΜΟΣ-ΠΥΘΑΓΟΡΕΙΟΥ,ΜΕΤΑΞΥ ΤΑΡΣΑΝΑ ΚΑΙ ΟΙΚΙΣΜΟΥ ΠΟΤΟΚΑΚΙ,ΠΥΘΑΓΟΡΕΙΟ,PYTHAGOREIO - TARSANAS,VOREIO AIGAIO,ΣΑΜΟΥ,Samos,1,26.93333244,37.68333435,POINT (758522.7710889463 4174442.518190143)
2c8a3e04-2024-4b22-96d5-5168a05d1245.334,85020101,GR4130020285020101,ΧΙΟΣ-ΑΓΙΟΥ ΜΗΝΑ,AGIOU MINA,ΧΙΟΣ-ΝΕΟΧΩΡΙΟΥ,ΚΕΝΤΡΙΚΗ ΣΚΑΛΑ ΚΑΘΟΔΟΥ,ΑΓ.ΦΩΤΕΙΝΗ,AGIA FOTEINI,VOREIO AIGAIO,ΧΙΟΥ,Chios,1,26.12083244,38.2863884,POINT (685338.3568412905 4239430.967804557)
2c8a3e04-2024-4b22-96d5-5168a05d1245.335,85020201,GR4130020185020201,ΧΙΟΣ-ΑΓΙΟΥ ΜΗΝΑ,AGIOU MINA,ΧΙΟΣ-ΘΥΜΙΑΝΩΝ,ΞΕΝΟΔΟΧΕΙΟ 'GOLDEN SAND',ΚΑΡΦΑΣ,KARFAS - HOTEL 'GOLDEN SAND',VOREIO AIGAIO,ΧΙΟΥ,Chios,1,26.15416718,38.32305527,POINT (688159.1961985691 4243567.577028414)
2c8a3e04-2024-4b22-96d5-5168a05d1245.336,85020202,GR4130020185020202,ΧΙΟΣ-ΑΓΙΟΥ ΜΗΝΑ,AGIOU MINA,ΧΙΟΣ-ΘΥΜΙΑΝΩΝ,ΚΕΝΤΡΟ 'ΓΙΑΜΟΣ',ΚΑΡΦΑΣ,KARFAS - KENTRO 'GIAMOS',VOREIO AIGAIO,ΧΙΟΥ,Chios,1,26.15416718,38.32083511,POINT (688164.9500448327 4243320.875018881)
2c8a3e04-2024-4b22-96d5-5168a05d1245.337,85090501,GR4130090185090501,ΧΙΟΣ-ΟΜΗΡΟΥΠΟΛΗΣ,OMIROUPOLIS,ΧΙΟΣ-ΒΡΟΝΤΑΔΟΥ,"ΠΡΟΒΛΗΤΑ ,ΚΕΝΤΡΟ ΑΚΤΗΣ",ΟΡΜΟΣ ΛΩ,ORMOS LO,VOREIO AIGAIO,ΧΙΟΥ,Chios,1,26.13611031,38.41860962,POINT (686335.1226732515 4254135.374626696)
2c8a3e04-2024-4b22-96d5-5168a05d1245.338,91070301,GR4310070191070301,ΚΡΗΤΗ-ΓΑΖΙΟΥ,GAZIOU,ΚΡΗΤΗ-ΓΑΖΙΟΥ,ΕΝΑΝΤΙ ΞΕΝΟΔΟΧΕΙΟΥ 'CANDIA MARIS',ΑΜΜΟΥΔΑΡΑ 4,AMMOUDARA  -  HOTEL CANDIA MARIS,KRITI,ΗΡΑΚΛΕΙΟΥ,Irakleio,1,25.08888817,35.34027863,POINT (598802.5435683443 3911034.4707825277)
2c8a3e04-2024-4b22-96d5-5168a05d1245.339,91070401,GR4310070191070401,ΚΡΗΤΗ-ΓΑΖΙΟΥ,GAZIOU,ΚΡΗΤΗ-ΓΑΖΙΟΥ,ΕΝΑΝΤΙ ΞΕΝΟΔΟΧΕΙΟΥ 'CRETA BEACH',ΑΜΜΟΥΔΑΡΑ 1,AMMOUDARA  -  HOTEL 'CRETA BEACH',KRITI,ΗΡΑΚΛΕΙΟΥ,Irakleio,1,25.08166695,35.34000015,POINT (598146.5594611623 3910996.4466245486)
2c8a3e04-2024-4b22-96d5-5168a05d1245.340,91250301,GR4310250991250301,ΚΡΗΤΗ-ΤΥΜΠΑΚΙΟΥ,TYMPAKIOU,ΚΡΗΤΗ-ΠΙΤΣΙΔΙΩΝ,ΑΡΙΣΤΕΡΟ ΑΚΡΟ ΑΚΤΗΣ ΕΝΑΝΤΙ ΟΙΚΙΣΜΟΥ,ΜΑΤΑΛΑ,"MATALA  - ARISTERO AKRO,ENANTI OIKISMOU",KRITI,ΗΡΑΚΛΕΙΟΥ,Irakleio,1,24.74833298,34.99499893,POINT (568142.0685023388 3872455.1569421156)
2c8a3e04-2024-4b22-96d5-5168a05d1245.341,91250302,GR4310250991250302,ΚΡΗΤΗ-ΤΥΜΠΑΚΙΟΥ,TYMPAKIOU,ΚΡΗΤΗ-ΠΙΤΣΙΔΙΩΝ,ΔΕΞΙΟ ΑΚΡΟ ΑΚΤΗΣ ΕΝΑΝΤΙ ΣΠΗΛΑΙΩΝ,ΜΑΤΑΛΑ,"MATALA  - DEXIO AKRO ,ENANTI SPILAION",KRITI,ΗΡΑΚΛΕΙΟΥ,Irakleio,1,24.74888802,34.99638748,POINT (568191.6544375997 3872609.576810819)
2c8a3e04-2024-4b22-96d5-5168a05d1245.342,91260101,GR4310260191260101,ΚΡΗΤΗ-ΧΕΡΣΟΝΗΣΟΥ,CHERSONISOU,ΚΡΗΤΗ-ΛΙΜ.ΧΕΡΣΟΝΗΣΟΥ,ΞΕΝΟΔΟΧΕΙΟ 'KNOSSOS ROYAL VILLAGE',ΑΓ.ΓΕΩΡΓΙΟΣ 1,AGIOS GEORGIOS - HOTEL 'KNOSSOS ROYAL',KRITI,ΗΡΑΚΛΕΙΟΥ,Irakleio,1,25.38277817,35.33889008,POINT (625513.2192421833 3911213.669688007)
2c8a3e04-2024-4b22-96d5-5168a05d1245.343,91260201,GR4310260191260201,ΚΡΗΤΗ-ΧΕΡΣΟΝΗΣΟΥ,CHERSONISOU,ΚΡΗΤΗ-ΛΙΜ.ΧΕΡΣΟΝΗΣΟΥ,"ΠΑΝΑΓΙΑ ΡΥΖΙ,HOTEL ANNABELLE VILLAGE",ΑΓ.ΓΕΩΡΓΙΟΣ 2,AGIOS GEORGIOS - HOTEL 'ANNA BELLE',KRITI,ΗΡΑΚΛΕΙΟΥ,Irakleio,1,25.38333321,35.33694458,POINT (625566.6722231292 3910998.6472542435)
2c8a3e04-2024-4b22-96d5-5168a05d1245.344,91260401,GR4310260191260401,ΚΡΗΤΗ-ΧΕΡΣΟΝΗΣΟΥ,CHERSONISOU,ΚΡΗΤΗ-ΛΙΜ.ΧΕΡΣΟΝΗΣΟΥ,ΕΝΑΝΤΙ ΞΕΝΟΔΟΧΕΙΟΥ 'ROBINSON CLUB LYTTOS BEACH',ΑΝΙΣΑΡΑ,ANISARA - HOTEL LYTTOS,KRITI,ΗΡΑΚΛΕΙΟΥ,Irakleio,1,25.37361145,35.3405571,POINT (624677.5316525466 3911386.969449705)
2c8a3e04-2024-4b22-96d5-5168a05d1245.345,91261001,GR4310260191261001,ΚΡΗΤΗ-ΧΕΡΣΟΝΗΣΟΥ,CHERSONISOU,ΚΡΗΤΗ-ΛΙΜ.ΧΕΡΣΟΝΗΣΟΥ,ΔΥΤΙΚΑ ΞΕΝΟΔΟΧΕΙΟΥ 'SILVA MARIS',ΛΙΜΗΝ ΧΕΡΣΟΝΗΣΟΥ 5,LIMIN CHERSONISOU - HOTEL SILVA MARIS,KRITI,ΗΡΑΚΛΕΙΟΥ,Irakleio,1,25.39861107,35.31388855,POINT (626991.3140053138 3908461.035508617)
2c8a3e04-2024-4b22-96d5-5168a05d1245.346,92010101,GR4320010192010101,ΚΡΗΤΗ-ΑΓ.ΝΙΚΟΛΑΟΥ,AGIOU NIKOLAOU,ΚΡΗΤΗ-ΑΓ.ΝΙΚΟΛΑΟΥ,ΞΕΝΟΔΟΧΕΙΟ 'SAN NICOLAS BAY',ΑΓ.ΝΙΚΟΛΑΟΣ 1,AGIOS NIKOLAOS  - ENANTI HOTEL 'SAN NICOLA',KRITI,ΛΑΣΙΘΙΟΥ,Lasithi,1,25.71666718,35.20833206,POINT (656109.4143912594 3897207.4626002107)
2c8a3e04-2024-4b22-96d5-5168a05d1245.347,92010201,GR4320010192010201,ΚΡΗΤΗ-ΑΓ.ΝΙΚΟΛΑΟΥ,AGIOU NIKOLAOU,ΚΡΗΤΗ-ΑΓ.ΝΙΚΟΛΑΟΥ,ΞΕΝΟΔΟΧΕΙΟ 'MINOS PALACE',ΑΓ.ΝΙΚΟΛΑΟΣ 2,AGIOS NIKOLAOS  -  'MINOS PALAS',KRITI,ΛΑΣΙΘΙΟΥ,Lasithi,1,25.72222137,35.20555496,POINT (656620.4466992461 3896908.197145484)
2c8a3e04-2024-4b22-96d5-5168a05d1245.348,92010301,GR4320010192010301,ΚΡΗΤΗ-ΑΓ.ΝΙΚΟΛΑΟΥ,AGIOU NIKOLAOU,ΚΡΗΤΗ-ΑΓ.ΝΙΚΟΛΑΟΥ,ΞΕΝΟΔΟΧΕΙΟ 'MINOS BEACH',ΑΓ.ΝΙΚΟΛΑΟΣ 3,AGIOS NIKOLAOS  -  'MINOS BEACH',KRITI,ΛΑΣΙΘΙΟΥ,Lasithi,1,25.71666718,35.20138931,POINT (656122.721244336 3896437.254255335)
2c8a3e04-2024-4b22-96d5-5168a05d1245.349,92010401,GR4320010792010401,ΚΡΗΤΗ-ΑΓ.ΝΙΚΟΛΑΟΥ,AGIOU NIKOLAOU,ΚΡΗΤΗ-ΚΑΛΟΥ ΧΩΡΙΟΥ,"ΞΕΝ/ΧΕΙΟ MIRABELLOU, ΚΕΝΤΡΟ ΑΚΤΗΣ",ΑΓ.ΠΑΝΤΕΛΕΗΜΩΝ,AGIOS PANTELEIMON  - MIRABELLOU,KRITI,ΛΑΣΙΘΙΟΥ,Lasithi,1,25.73361206,35.12805557,POINT (657807.1075621503 3888330.176309069)
2c8a3e04-2024-4b22-96d5-5168a05d1245.350,93030101,GR4330030193030101,ΚΡΗΤΗ-ΑΡΚΑΔΙΟΥ,ARKADIOU,ΚΡΗΤΗ-ΑΔΕΛΕ,ΕΝΑΝΤΙ ΞΕΝΟΔΟΧΕΙΟΥ 'RITHYMNA BEACH',ΑΔΕΛΙΑΝΟΣ ΚΑΜΠΟΣ Α,ADELIANOS KAMPOS  - HOTEL 'RITHYMNA BEACH',KRITI,ΡΕΘΥΜΝΗΣ,Rethymni,1,24.54500008,35.37666702,POINT (549354.0130591819 3914662.5357745523)
2c8a3e04-2024-4b22-96d5-5168a05d1245.351,93030301,GR4330030193030301,ΚΡΗΤΗ-ΑΡΚΑΔΙΟΥ,ARKADIOU,ΚΡΗΤΗ-ΑΔΕΛΕ,ΕΝΑΝΤΙ ΞΕΝΟΔΟΧΕΙΟΥ 'GOLDEN BEACH',ΑΡΚΑΔΙ,ARKADI  - HOTEL 'GOLDEN BEACH',KRITI,ΡΕΘΥΜΝΗΣ,Rethymni,1,24.53861046,35.37333298,POINT (548775.6923698654 3914289.60134045)
2c8a3e04-2024-4b22-96d5-5168a05d1245.352,94200101,GR4340200794200101,ΚΡΗΤΗ-ΠΛΑΤΑΝΙΑ,PLATANIA,ΚΡΗΤΗ-ΜΑΛΕΜΕ,ΕΝΑΝΤΙ ΞΕΝΟΔΟΧΕΙΟΥ LOUIS CRETA PRINCESS,ΜΑΛΕΜΕ,MALEME  - ENANTI HOTEL LOUIS CRETA,KRITI,ΧΑΝΙΩΝ,Chania,1,23.77499962,35.54666519,POINT (479456.2231921108 3933403.364268596)
2c8a3e04-2024-4b22-96d5-5168a05d1245.353,94200201,GR4340200194200201,ΚΡΗΤΗ-ΠΛΑΤΑΝΙΑ,PLATANIA,ΚΡΗΤΗ-ΓΕΡΑΝΙΟΥ,ΜΕΣΟΝ ΑΚΤΗΣ,ΠΑΡΑΛΙΑ ΓΕΡΑΝΙΟΥ,PARALIA GERANIOU  - MESON AKTIS,KRITI,ΧΑΝΙΩΝ,Chania,1,23.87999916,35.52361298,POINT (488970.4188920472 3930829.6479633814)
2c8a3e04-2024-4b22-96d5-5168a05d1245.354,17010201,GR2550010117010201,ΚΑΛΑΜΑΤΑΣ,KALAMATAS,ΚΑΛΑΜΑΤΑΣ,ΑΝ.ΚΑΛΑΜΑΤΑ-ΕΝΑΝΤΙ ΕΚΚΛΗΣΙΑΣ ΑΝΑΣΤΑΣΗ,ΑΝ.ΚΑΛΑΜΑΤΑΣ,ANATOLIKI KALAMATA - EKKLISIA ANASTASI,PELOPONNISOS,ΜΕΣΣΗΝΙΑΣ,Messinia,1,22.14305496,37.02222061,POINT (334666.23597608303 4098661.1100867186)
2c8a3e04-2024-4b22-96d5-5168a05d1245.355,22050402,GR2220051022050402,ΚΕΡΚΥΡΑ-ΘΙΝΑΛΙΟΥ,THINALIOU,ΚΕΡΚΥΡΑ-ΣΦΑΚΕΡΩΝ,ΔΥΤΙΚΑ,ΡΟΔΑ,RODA - DYTIKA,IONIA NISIA,ΚΕΡΚΥΡΑΣ,KERKYRA,1,19.82500076,39.79999924,POINT (142376.2129691046 4413617.322586723)
2c8a3e04-2024-4b22-96d5-5168a05d1245.356,64080502,GR1270080164080502,ΟΡΜΥΛΙΑΣ,ORMYLIAS,ΟΡΜΥΛΙΑΣ,ΞΕΝΟΔΟΧΕΙΟ 'PHILOXENIA',ΨΑΚΟΥΔΙΑ,PSAKOUDIA - HOTEL 'PHILOXENIA',KENTRIKI MAKEDONIA,ΧΑΛΚΙΔΙΚΗΣ,Chalkidiki,1,23.48333359,40.25833511,POINT (455914.14907501853 4456271.879147488)
2c8a3e04-2024-4b22-96d5-5168a05d1245.357,64090401,GR1270090364090401,ΠΑΛΛΗΝΗΣ,PALLINIS,ΝΕΑΣ ΣΚΙΩΝΗΣ,ΞΕΝΟΔΟΧΕΙΟ 'SKIONI BEACH',ΝΕΑ ΣΚΙΩΝΗ-ΚΟΙΝ.ΠΛΑΖ,NEA SKIONI - HOTEL 'SKIONI BEACH',KENTRIKI MAKEDONIA,ΧΑΛΚΙΔΙΚΗΣ,Chalkidiki,1,23.53333282,39.95000076,POINT (459986.508089536 4422025.312340441)
2c8a3e04-2024-4b22-96d5-5168a05d1245.358,64090601,GR1270090464090601,ΠΑΛΛΗΝΗΣ,PALLINIS,ΠΑΛΙΟΥΡΙΟΥ,ΚΕΝΤΡΟ ΚΟΙΝΟΤΙΚΗΣ ΠΛΑΖ,ΧΡΟΥΣΩ,XROUSO - KOINOTIKI PLAZ,KENTRIKI MAKEDONIA,ΧΑΛΚΙΔΙΚΗΣ,Chalkidiki,1,23.68333244,39.93333435,POINT (472793.370810239 4420119.198151331)
2c8a3e04-2024-4b22-96d5-5168a05d1245.359,64090803,GR1270090664090803,ΠΑΛΛΗΝΗΣ,PALLINIS,ΠΟΛΥΧΡΟΝΟ,ΕΝΑΝΤΙ ΞΕΝΟΔΟΧΕΙΟΥ 'ΠΟΛΥΧΡΟΝΟ',ΠΟΛΥΧΡΟΝΟ,"POLYCHRONO - KOINOTIKI PLAZ,HOTEL POLYCHRONO",KENTRIKI MAKEDONIA,ΧΑΛΚΙΔΙΚΗΣ,Chalkidiki,1,23.56055641,40.00694275,POINT (462343.1213284009 4428333.783204115)
2c8a3e04-2024-4b22-96d5-5168a05d1245.360,64091001,GR1270090164091001,ΠΑΛΛΗΝΗΣ,PALLINIS,ΧΑΝΙΩΤΗ,ΚΟΙΝΟΤΙΚΟ ΑΝΑΨΥΚΤΗΡΙΟ,ΧΑΝΙΩΤΗ,CHANIOTI - KOINOTIKO ANAPSYKTIRIO,KENTRIKI MAKEDONIA,ΧΑΛΚΙΔΙΚΗΣ,Chalkidiki,1,23.54166603,40.01111221,POINT (460733.2845289501 4428804.4057966815)
2c8a3e04-2024-4b22-96d5-5168a05d1245.361,64091003,GR1270090164091003,ΠΑΛΛΗΝΗΣ,PALLINIS,ΧΑΝΙΩΤΗ,ΞΕΝΟΔΟΧΕΙΟ 'PELLA BEACH',ΧΑΝΙΩΤΗ,CHANIOTI - HOTEL PELLA BEACH,KENTRIKI MAKEDONIA,ΧΑΛΚΙΔΙΚΗΣ,Chalkidiki,1,23.54166603,40.01111221,POINT (460733.2845289501 4428804.4057966815)
2c8a3e04-2024-4b22-96d5-5168a05d1245.362,64110501,GR1270110164110501,ΣΙΘΩΝΙΑΣ,SITHONIAS,ΝΙΚΗΤΗΣ,ΕΝΑΝΤΙ ΞΕΝΟΔΟΧΕΙΟΥ 'ΑΝΘΕΜΟΥΣ',ΕΛΙΑ 2,ELIA - HOTEL ANTHEMOUS,KENTRIKI MAKEDONIA,ΧΑΛΚΙΔΙΚΗΣ,Chalkidiki,1,23.66805649,40.22777939,POINT (471609.95474812656 4452805.223894757)
2c8a3e04-2024-4b22-96d5-5168a05d1245.363,64110701,GR1270110164110701,ΣΙΘΩΝΙΑΣ,SITHONIAS,ΝΙΚΗΤΗΣ,ΞΕΝΟΔΟΧΕΙΟ 'PORFI',ΜΑΚΡΥΑ ΛΑΓΚΑΔΑ,MAKRYA LAGADA - HOTEL PORFI,KENTRIKI MAKEDONIA,ΧΑΛΚΙΔΙΚΗΣ,Chalkidiki,1,23.66666603,40.22499847,POINT (471490.62542886304 4452497.321068213)
2c8a3e04-2024-4b22-96d5-5168a05d1245.364,64110901,GR1270110164110901,ΣΙΘΩΝΙΑΣ,SITHONIAS,ΝΙΚΗΤΗΣ,ΚΕΝΤΡΟ ΑΚΤΗΣ ΞΕΝΟΔΟΧΕΙΟ 'LAGOMANDRA',ΛΑΓΟΜΑΝΔΡΑ,LAGOMANDRA - HOTEL 'LAGOMANDRA',KENTRIKI MAKEDONIA,ΧΑΛΚΙΔΙΚΗΣ,Chalkidiki,1,23.77083397,40.11666489,POINT (480322.00702614104 4440444.872016179)
2c8a3e04-2024-4b22-96d5-5168a05d1245.365,64111301,GR1270110464111301,ΣΙΘΩΝΙΑΣ,SITHONIAS,Ν.ΜΑΡΜΑΡΑ,"ΑΚΤΗ ΠΑΡΑΔΕΙΣΟΣ, ΡΕΓΚΟΣ VILLAGE",ΜΑΡΜΑΡΑΣ C,MARMARAS C - AKTI PARADEISOS,KENTRIKI MAKEDONIA,ΧΑΛΚΙΔΙΚΗΣ,Chalkidiki,1,23.79166603,40.09027863,POINT (482090.51464206266 4437511.508488364)
2c8a3e04-2024-4b22-96d5-5168a05d1245.366,64111502,GR1270110164111502,ΣΙΘΩΝΙΑΣ,SITHONIAS,,ΔΩΔΩΝΗ,ΝΙΚΗΤΗ-ΚΟΙΝΟΤΙΚΗ ΠΛΑΖ,NIKITI - KOINOTIKI PLAZ - DODONI,KENTRIKI MAKEDONIA,ΧΑΛΚΙΔΙΚΗΣ,Chalkidiki,1,23.66722298,40.21527863,POINT (471533.7977519966 4451418.045404336)
2c8a3e04-2024-4b22-96d5-5168a05d1245.367,94190301,GR4340190194190301,ΚΡΗΤΗ-ΠΕΛΕΚΑΝΟΥ,PELEKANOU,ΚΡΗΤΗ-ΠΑΛΑΙΟΧΩΡΑ,ΜΕΣΟΝ ΑΚΤΗΣ,ΛΙΜΝΑΚΙ,LIMNAKI,KRITI,ΧΑΝΙΩΝ,Chania,1,23.67944527,35.23583221,POINT (470683.21563995775 3898954.5140584907)
2c8a3e04-2024-4b22-96d5-5168a05d1245.368,82080401,GR4220080182080401,ΙΟΣ-ΙΗΤΩΝ,IOU,ΙΟΣ-ΙΟΥ,ΚΕΝΤΡΟ ΑΚΤΗΣ,ΙΟΣ-ΚΟΥΜΠΑΡΑ,KOUMPARA,NOTIO AIGAIO,ΚΥΚΛΑΔΩΝ,Kyklades,1,25.25833321,36.72638702,POINT (612214.899346253 4064969.839469599)
2c8a3e04-2024-4b22-96d5-5168a05d1245.369,22130102,GR2220130122130102,ΚΕΡΚΥΡΑ-ΦΑΙΑΚΩΝ,FAIAKON,ΚΕΡΚΥΡΑ-Κ.ΚΟΡΑΚΙΑΝΑ,EDEM BAR,ΔΑΣΙΑ,DASIA - EDEM BAR,IONIA NISIA,ΚΕΡΚΥΡΑΣ,KERKYRA,1,19.84666634,39.68388748,POINT (143633.44714988358 4400637.9217269225)
2c8a3e04-2024-4b22-96d5-5168a05d1245.370,06070501,GR2440070106070501,ΔΑΦΝΟΥΣΙΩΝ,DAFNOUSION,ΛΙΒΑΝΑΤΩΝ,ΚΕΝΤΡΟ ΑΚΤΗΣ,ΛΙΒΡΙΧΙΟ,LIVRICHIO,STEREA ELLADA,ΦΘΙΩΤΙΔΑΣ,Fthiotida,1,23.03750038,38.7480545,POINT (416209.7865463297 4288970.932116535)
2c8a3e04-2024-4b22-96d5-5168a05d1245.371,54030201,GR1220030154030201,ΑΓΙΟΥ ΓΕΩΡΓΙΟΥ,AGIOU GEORGIOU,ΑΣΠΡΟΒΑΛΤΑΣ,ΕΝΑΝΤΙ  CAMPING EOT,ΑΣΠΡΟΒΑΛΤΑ 1(ΣΕΡΑΙΚΗ),ASPROVALTA - CAMPING EOT,KENTRIKI MAKEDONIA,ΘΕΣΣΑΛΟΝΙΚΗΣ,Thessaloniki,1,23.70000076,40.70000076,POINT (474505.7318857107 4505212.262408812)
2c8a3e04-2024-4b22-96d5-5168a05d1245.372,82180201,GR4220180182180201,ΣΙΦΝΟΣ-ΣΙΦΝΟΥ,SIFNOU,ΣΙΦΝΟΣ-ΑΠΟΛΛΩΝΙΑΣ,ΔΕΞΙΟ ΑΚΡΟ ΑΚΤΗΣ,ΣΙΦΝΟΣ-ΠΛΑΤΥΣ ΓΙΑΛΟΣ,PLATYS GIALOS,NOTIO AIGAIO,ΚΥΚΛΑΔΩΝ,Kyklades,1,24.73333359,36.94666672,POINT (565145.8423289744 4088918.7019592864)
2c8a3e04-2024-4b22-96d5-5168a05d1245.373,91070701,GR4310070491070701,ΚΡΗΤΗ-ΓΑΖΙΟΥ,GAZIOU,ΚΡΗΤΗ-ΡΟΔΙΑΣ,ΕΝΑΝΤΙ ΞΕΝΟΔΟΧΕΙΟΥ ΑΚΤH ΖΕΥΣ/APOLLONIA BEACH,ΛΙΝΟΠΕΡΑΜΑΤΑ,LINOPERAMATA  - HOTEL AKTI ZEYS/APOLLONIA,KRITI,ΗΡΑΚΛΕΙΟΥ,Irakleio,1,25.05500031,35.3433342,POINT (595719.1748790748 3911339.9675078364)
2c8a3e04-2024-4b22-96d5-5168a05d1245.374,91071101,GR4310070591071101,ΚΡΗΤΗ-ΓΑΖΙΟΥ,GAZIOU,ΚΡΗΤΗ-ΦΟΔΕΛΕ,"ΑΡΙΣΤΕΡΟ ΑΚΡΟ,ΠΛΗΣΙΟΝ ΞΕΝ.'FODELE BEACH'",ΦΟΔΕΛΕ,FODELE  - HOTEL FODELE BEACH,KRITI,ΗΡΑΚΛΕΙΟΥ,Irakleio,1,24.95472145,35.40416718,POINT (586541.4467695409 3917994.5207197065)
2c8a3e04-2024-4b22-96d5-5168a05d1245.375,91100301,GR4310100191100301,ΚΡΗΤΗ-ΓΟΥΒΩΝ,GOUVON,ΚΡΗΤΗ-ΓΟΥΒΕΣ,ΕΝΑΝΤΙ ΞΕΝΟΔΟΧΕΙΟΥ 'ΜΑΡΙΝΑ',ΓΟΥΒΕΣ 2,GOUVES  - HOTEL MARINA,KRITI,ΗΡΑΚΛΕΙΟΥ,Irakleio,1,25.30944443,35.33833313,POINT (618849.2591292931 3911061.4221511013)
2c8a3e04-2024-4b22-96d5-5168a05d1245.376,91170401,GR4310170191170401,ΚΡΗΤΗ-ΜΑΛΙΩΝ,MALION,ΚΡΗΤΗ-ΜΑΛΙΩΝ,ΕΝΑΝΤΙ ΞΕΝΟΔΟΧΕΙΟΥ 'GRETAN MALIA PARK',ΠΟΤΑΜΟΣ,POTAMOS  -  HOTEL 'GRETAN MALIA PARK',KRITI,ΗΡΑΚΛΕΙΟΥ,Irakleio,1,25.49666595,35.30166626,POINT (635926.2303803597 3907235.6512235976)
2c8a3e04-2024-4b22-96d5-5168a05d1245.377,43120101,GR1430120443120101,ΜΗΛΕΩΝ,MILEON,ΚΑΛΩΝ ΝΕΡΩΝ,ΕΜΠΡΟΣΘΕΝ ΠΡΟΒΛΗΤΑΣ,ΚΑΛΑ ΝΕΡΑ,KALA NERA - PROVLITA,THESSALIA,ΜΑΓΝΗΣΙΑΣ,Magnisia,1,23.12333298,39.28333282,POINT (424240.9468096367 4348298.230820323)
2c8a3e04-2024-4b22-96d5-5168a05d1245.378,43120103,GR1430120443120103,ΜΗΛΕΩΝ,MILEON,ΚΑΛΩΝ ΝΕΡΩΝ,ΝΟΤΙΑ 50 ΜΕΤΡΑ ΑΠΟ ΓΕΦΥΡΑΚΙ,ΚΑΛΑ ΝΕΡΑ,KALA NERA - 50M NOTIA APO GEFYRAKI,THESSALIA,ΜΑΓΝΗΣΙΑΣ,Magnisia,1,23.12333298,39.28333282,POINT (424240.9468096367 4348298.230820323)
2c8a3e04-2024-4b22-96d5-5168a05d1245.379,43120104,GR1430120443120104,ΜΗΛΕΩΝ,MILEON,ΚΑΛΩΝ ΝΕΡΩΝ,ΕΓΚΑΤΑΣΤΑΣΕΙΣ ΚΑΑΥ (ΘΕΡΕΤΡΟ ΑΞΙΩΜΑΤΙΚΩΝ ),ΚΑΛΑ ΝΕΡΑ,KALA NERA - THERETRO AXIOMATIKON KAAY,THESSALIA,ΜΑΓΝΗΣΙΑΣ,Magnisia,1,23.12333298,39.28333282,POINT (424240.9468096367 4348298.230820323)
2c8a3e04-2024-4b22-96d5-5168a05d1245.380,43120401,GR1430120243120401,ΜΗΛΕΩΝ,MILEON,ΑΓ.ΓΕΩΡΓΙΟΥ ΝΗΛΕΙΑΣ,ΕΝΑΝΤΙ CAMPING,ΣΥΚΙΑ,SYKIA - CAMPING,THESSALIA,ΜΑΓΝΗΣΙΑΣ,Magnisia,1,23.09666634,39.31000137,POINT (421970.6112441531 4351280.359225321)
2c8a3e04-2024-4b22-96d5-5168a05d1245.381,43130101,GR1430130243130101,ΜΟΥΡΕΣΙΟΥ,MOURESIOU,ΑΓ.ΔΗΜΗΤΡΙΟΥ ΠΗΛΙΟΥ,ΞΕΝΟΔΟΧΕΙΟ 'KΕΛΛΥ',ΑΓ.ΙΩΑΝΝΗΣ,AGIOS IOANNIS - HOTEL KELLY,THESSALIA,ΜΑΓΝΗΣΙΑΣ,Magnisia,1,23.16666603,39.41166687,POINT (428109.7483722855 4362505.516694447)
2c8a3e04-2024-4b22-96d5-5168a05d1245.382,43130102,GR1430130243130102,ΜΟΥΡΕΣΙΟΥ,MOURESIOU,ΑΓ.ΔΗΜΗΤΡΙΟΥ ΠΗΛΙΟΥ,ΕΣΤΙΑΤΟΡΙΟ ΑΚΤΗ,ΑΓ.ΙΩΑΝΝΗΣ,AGIOS IOANNIS - ESTIATORIO AKTI,THESSALIA,ΜΑΓΝΗΣΙΑΣ,Magnisia,1,23.16666603,39.41166687,POINT (428109.7483722855 4362505.516694447)
2c8a3e04-2024-4b22-96d5-5168a05d1245.383,85020301,GR4130020185020301,ΧΙΟΣ-ΑΓΙΟΥ ΜΗΝΑ,AGIOU MINA,ΧΙΟΣ-ΘΥΜΙΑΝΩΝ,ΣΚΑΛΑ ΚΑΘΟΔΟΥ,ΜΕΓΑΣ ΛΙΜΝΙΩΝΑΣ,MEGAS LIMNIONAS,VOREIO AIGAIO,ΧΙΟΥ,Chios,1,26.14416695,38.30138779,POINT (687340.7488586175 4241142.700695022)
2c8a3e04-2024-4b22-96d5-5168a05d1245.384,91071102,GR4310070591071102,ΚΡΗΤΗ-ΓΑΖΙΟΥ,GAZIOU,ΚΡΗΤΗ-ΦΟΔΕΛΕ,ΔΕΞΙΟ ΑΚΡΟ ΑΚΤΗΣ,ΦΟΔΕΛΕ,FODELE,KRITI,ΗΡΑΚΛΕΙΟΥ,Irakleio,1,24.95638847,35.40444565,POINT (586692.5218513946 3918026.705134155)
2c8a3e04-2024-4b22-96d5-5168a05d1245.385,81140901,GR4210140181140901,ΚΩΣ-ΚΩ,KO,ΚΩΣ-ΚΩ,Α.Β.Ι.Κ.Ω.(ΜΥΛΟΣ),ΚΩΣ-ΚΡΗΤΙΚΑ 2,KRITIKA  - A.V.I.K.O.,NOTIO AIGAIO,ΔΩΔΕΚΑΝΗΣΟΥ,Dodekanisos,1,27.29166603,36.90833282,POINT (793127.8057763106 4089477.1513273264)
2c8a3e04-2024-4b22-96d5-5168a05d1245.386,83060101,GR4110060183060101,ΛΕΣΒΟΣ-ΕΡΕΣΟΥ-ΑΝΤΙΣΣ,ERESOU,ΛΕΣΒΟΣ-ΕΡΕΣΟΥ,YELLOW BAR,ΣΚΑΛΑ ΕΡΕΣΟΥ,SCALA ERESOU - BAR 'YELLOW',VOREIO AIGAIO,ΛΕΣΒΟΥ,Lesvos,1,25.92333412,39.13666534,POINT (666081.7512316415 4333416.906463732)
2c8a3e04-2024-4b22-96d5-5168a05d1245.387,11060501,GR2510060311060501,ΕΡΜΙΟΝΗΣ,ERMIONIS,ΘΕΡΜΗΣΙΑ,"ΘΕΡΜΗΣΙΑ,ΚΕΝΤΡΟ ΑΚΤΗΣ",ΠΛΕΠΗ-PORTO HYDRA,PLEPI - PORTO YDRA,PELOPONNISOS,ΑΡΓΟΛΙΔΑΣ,Argolida,1,23.35000038,37.41666794,POINT (442332.51745817787 4141006.234142966)
2c8a3e04-2024-4b22-96d5-5168a05d1245.388,11080201,GR2510080411080201,ΚΡΑΝΙΔΙΟΥ,KRANIDIOU,ΠΟΡΤΟ ΧΕΛΙΟΥ,HOTEL  CAP'D'OR,ΚΟΣΤΑ,KOSTA - HOTEL CAP'D'OR,PELOPONNISOS,ΑΡΓΟΛΙΔΑΣ,Argolida,1,23.16111183,37.29861069,POINT (425501.25428737415 4128040.6308046677)
2c8a3e04-2024-4b22-96d5-5168a05d1245.389,54170401,GR1220170254170401,ΘΕΡΜΑΙΚΟΥ,THERMAIKOU,ΑΓ.ΤΡΙΑΔΑΣ,"ΠΙΚΠΑ, ΚΕΝΤΡΟ ΑΚΤΗΣ","ΑΓΙΑ ΤΡΙΑΔΑ,ΠΙΚΠΑ",AGIA TRIADA/PIKPA,KENTRIKI MAKEDONIA,ΘΕΣΣΑΛΟΝΙΚΗΣ,Thessaloniki,1,22.8777771,40.5027771,POINT (404762.5387356847 4483881.668225972)
2c8a3e04-2024-4b22-96d5-5168a05d1245.390,15090301,GR2530092615090301,ΞΥΛΟΚΑΣΤΡΟΥ,XYLOKASTROU,ΣΥΚΕΑ,ΚΕΝΤΡΟ ΑΚΤΗΣ,ΣΥΚΙΑ,SYKIA,PELOPONNISOS,ΚΟΡΙΝΘΙΑΣ,Korinthia,1,22.6586113,38.06305695,POINT (382177.78333280474 4213372.655115887)
2c8a3e04-2024-4b22-96d5-5168a05d1245.391,64111601,GR1270110464111601,ΣΙΘΩΝΙΑΣ,SITHONIAS,Ν.ΜΑΡΜΑΡΑ,'ΣΙΘΩΝΙΑ'- 'ΜΕΛΙΤΩΝ',ΠΟΡΤΟ ΚΑΡΡΑΣ,"PORTO KARRAS - HOTEL SITHONIA,MELITON",KENTRIKI MAKEDONIA,ΧΑΛΚΙΔΙΚΗΣ,Chalkidiki,1,23.79166603,40.09027863,POINT (482090.51464206266 4437511.508488364)
2c8a3e04-2024-4b22-96d5-5168a05d1245.392,16040101,GR2540040116040101,ΒΟΙΩΝ,VOION,ΝΕΑΠΟΛΗΣ,ΠΛΑΚΑ,ΝΕΑΠΟΛΗ 1,NEAPOLI - PLAKA,PELOPONNISOS,ΛΑΚΩΝΙΑΣ,Lakonia,1,23.0672226,36.50416565,POINT (416318.3290140222 4039986.144504898)
2c8a3e04-2024-4b22-96d5-5168a05d1245.393,81011001,GR4210010181011001,ΡΟΔΟΣ-ΡΟΔΟΥ,RODOU,ΡΟΔΟΣ-ΡΟΔΟΥ,"ΞΕΝΟΔΟΧΕΙΟ SUNWING, ΑΡΙΣΤΕΡΟ ΑΚΡΟ",ΡΕΝΗ 1,RENI - HOTEL 'SUNWING',NOTIO AIGAIO,ΔΩΔΕΚΑΝΗΣΟΥ,Dodekanisos,1,28.23055649,36.40000153,POINT (879309.7655107188 4036348.599709868)
2c8a3e04-2024-4b22-96d5-5168a05d1245.394,81011002,GR4210010181011002,ΡΟΔΟΣ-ΡΟΔΟΥ,RODOU,ΡΟΔΟΣ-ΡΟΔΟΥ,ΔΕΞΙΟ ΑΚΡΟ,ΡΕΝΗ 1,RENI,NOTIO AIGAIO,ΔΩΔΕΚΑΝΗΣΟΥ,Dodekanisos,1,28.22777748,36.40000153,POINT (879060.4584899595 4036337.6602029926)
2c8a3e04-2024-4b22-96d5-5168a05d1245.395,92011001,GR4320010192011001,ΚΡΗΤΗ-ΑΓ.ΝΙΚΟΛΑΟΥ,AGIOU NIKOLAOU,ΚΡΗΤΗ-ΑΓ.ΝΙΚΟΛΑΟΥ,ΞΕΝΟΔΟΧΕΙΟ 'ΧΑΒΑΝΙΑ APTS CANDIA',"ΔΗΜ.ΑΚΤΗ,ΧΑΒΑΝΙΑ 1","CHAVANIA,DIMOTIKI AKTI 1 -  CHAVANIA APTS",KRITI,ΛΑΣΙΘΙΟΥ,Lasithi,1,25.71444511,35.21805573,POINT (655888.434228002 3898282.4161647772)
2c8a3e04-2024-4b22-96d5-5168a05d1245.396,92011101,GR4320010192011101,ΚΡΗΤΗ-ΑΓ.ΝΙΚΟΛΑΟΥ,AGIOU NIKOLAOU,ΚΡΗΤΗ-ΑΓ.ΝΙΚΟΛΑΟΥ,"ΞΕΝΟΔΟΧΕΙΟ 'XABANIA BEACH,ΚΑΝΤΙΑ'","ΔΗΜ.ΑΚΤΗ,ΧΑΒΑΝΙΑ 2","CHAVANIA,DIMOTIKI AKTI -CHAVANIA BEACH CANTIA",KRITI,ΛΑΣΙΘΙΟΥ,Lasithi,1,25.71527863,35.21250153,POINT (655974.9885115264 3897667.470528567)
2c8a3e04-2024-4b22-96d5-5168a05d1245.397,92011201,GR4320010192011201,ΚΡΗΤΗ-ΑΓ.ΝΙΚΟΛΑΟΥ,AGIOU NIKOLAOU,ΚΡΗΤΗ-ΑΓ.ΝΙΚΟΛΑΟΥ,ΚΕΝΤΡΟ ΔΗΜΟΤΙΚΗΣ ΑΚΤΗΣ,ΑΜΜΟΣ,DIMOTIKI AKTI AMMOU  - MESON AKTIS,KRITI,ΛΑΣΙΘΙΟΥ,Lasithi,1,25.71444511,35.1866684,POINT (655948.5035650787 3894800.841986947)
2c8a3e04-2024-4b22-96d5-5168a05d1245.398,92011301,GR4320010392011301,ΚΡΗΤΗ-ΑΓ.ΝΙΚΟΛΑΟΥ,AGIOU NIKOLAOU,ΚΡΗΤΗ-ΕΛΟΥΝΤΑΣ,ΟΡΜΟΣ ΣΠΙΝΑΛΟΓΚΑΣ ΕΝΑΝΤΙ ΤΑΒΕΡΝΑΣ ΔΡΗΡΟΣ,ΔΡΗΡΟΣ,DRIROS  - ENANTI TAVERNAS DRIROS,KRITI,ΛΑΣΙΘΙΟΥ,Lasithi,1,25.73138809,35.28972244,POINT (657292.1380914069 3906258.234324966)
2c8a3e04-2024-4b22-96d5-5168a05d1245.399,92012501,GR4320010392012501,ΚΡΗΤΗ-ΑΓ.ΝΙΚΟΛΑΟΥ,AGIOU NIKOLAOU,ΚΡΗΤΗ-ΕΛΟΥΝΤΑΣ,ΞΕΝΟΔΟΧΕΙΟ BLUE PALACE,ΠΛΑΚΑ,PLAKA - HOTEL BLUE PALACE,KRITI,ΛΑΣΙΘΙΟΥ,Lasithi,1,25.72444534,35.29360962,POINT (656653.0366163417 3906678.5904872394)
2c8a3e04-2024-4b22-96d5-5168a05d1245.400,92012601,GR4320010392012601,ΚΡΗΤΗ-ΑΓ.ΝΙΚΟΛΑΟΥ,AGIOU NIKOLAOU,ΚΡΗΤΗ-ΕΛΟΥΝΤΑΣ,ΞΕΝΟΔΟΧΕΙΟ GRECOTEL ELOUNDA VILLAGE,"ΕΛΟΥΝΤΑ,ΠΗΓΑΔΑΚΙΑ","ELOUNTA,PIGADAKIA - HOTEL ELOUNTA VILLAGE",KRITI,ΛΑΣΙΘΙΟΥ,Lasithi,1,25.72500038,35.26250076,POINT (656763.6155258762 3903228.6848317864)
2c8a3e04-2024-4b22-96d5-5168a05d1245.401,34070301,GR2140071634070301,ΦΑΝΑΡΙΟΥ,FANARIOU,ΛΟΥΤΣΑΣ,ΜΥΛΟΣ,ΛΟΥΤΣΑ ΜΥΛΟΣ-ΦΛΕΒΑ,"LOUTSA - MYLOS,FLEVA",IPEIROS,ΠΡΕΒΕΖΑΣ,PREVEZA,1,20.5177784,39.18583298,POINT (199069.58699939642 4342890.538254658)
2c8a3e04-2024-4b22-96d5-5168a05d1245.402,07081001,GR2450080107081001,ΙΤΕΑΣ,ITEAS,ΙΤΕΑΣ,ΚΕΝΤΡΟ ΑΚΤΗΣ,ΜΑΙΑΜΙ,MAIAMI,STEREA ELLADA,ΦΩΚΙΔΑΣ,Fokida,1,22.42611122,38.42916489,POINT (362471.66488417255 4254318.944735727)
2c8a3e04-2024-4b22-96d5-5168a05d1245.403,22130101,GR2220130122130101,ΚΕΡΚΥΡΑ-ΦΑΙΑΚΩΝ,FAIAKON,ΚΕΡΚΥΡΑ-Κ.ΚΟΡΑΚΙΑΝΑ,DASIA HOTEL CHANDRIS,ΔΑΣΙΑ,DASIA - DASIA HOTEL CHANDRIS,IONIA NISIA,ΚΕΡΚΥΡΑΣ,KERKYRA,1,19.84666634,39.68388748,POINT (143633.44714988358 4400637.9217269225)
2c8a3e04-2024-4b22-96d5-5168a05d1245.404,24010801,GR2240010124010801,ΛΕΥΚΑΔΑ-ΛΕΥΚΑΔΟΣ,LEFKADOS,ΛΕΥΚΑΔΑ-ΛΕΥΚΑΔΑΣ,ΠΡΩΤΟΣ ΜΥΛΟΣ,ΜΥΛΟΙ,"MYLOI,GYRA",IONIA NISIA,ΛΕΥΚΑΔΑΣ,LEFKADA,1,20.70000076,38.84999847,POINT (213459.6029754954 4305020.131444717)
2c8a3e04-2024-4b22-96d5-5168a05d1245.405,24010802,GR2240010124010802,ΛΕΥΚΑΔΑ-ΛΕΥΚΑΔΟΣ,LEFKADOS,ΛΕΥΚΑΔΑ-ΛΕΥΚΑΔΑΣ,ΔΕΥΤΕΡΟΣ ΜΥΛΟΣ,ΜΥΛΟΙ,"MYLOI,GYRA",IONIA NISIA,ΛΕΥΚΑΔΑΣ,LEFKADA,1,20.70000076,38.84999847,POINT (213459.6029754954 4305020.131444717)
2c8a3e04-2024-4b22-96d5-5168a05d1245.406,93010301,GR4330010193010301,ΚΡΗΤΗ-ΡΕΘΥΜΝΗΣ,RETHYMNIS,ΚΡΗΤΗ-ΡΕΘΥΜΝΗΣ,"ΚΟΥΤΣΟΛΙΔΙ,ΕΝΑΝΤΙ ΞΕΝΟΔΟΧΕΙΟΥ PEARL BEACH",ΡΕΘΥΜΝΟ 2,"RETHYMNO,KOUTSOLIDI - PEARL BEACH",KRITI,ΡΕΘΥΜΝΗΣ,Rethymni,1,24.47500038,35.36833191,POINT (543000.1396572657 3913705.4913686225)
2c8a3e04-2024-4b22-96d5-5168a05d1245.407,A2060203,GR30005401A2060203,ΒΑΡΗΣ,VARIS,ΒΑΡΗΣ,ΑΡΙΣΤ.ΑΚΡΟ ΑΚΤΗΣ ΕΝΑΝΤΙ ΚΤΙΡΙΟΥ Κ2,ΒΑΡΚΙΖΑ,"VARKIZA,EOT - KTIRIOU K2",ATTIKI,ΑΤΤΙΚΗΣ,Attiki,1,23.81444359,37.82249832,POINT (483519.84458279377 4185849.530414803)
2c8a3e04-2024-4b22-96d5-5168a05d1245.408,94180201,GR4340180294180201,ΚΡΗΤΗ-Ν.ΚΥΔΩΝΙΑΣ,NEAS KYDONIAS,ΚΡΗΤΗ-ΑΓ.ΜΑΡΙΝΑΣ,ΕΝΑΝΤΙ ΞΕΝΟΔΟΧΕΙΟΥ SANTA MARINA,ΑΓΙΑ ΜΑΡΙΝΑ,AGIA MARINA  - ENANTI HOTEL 'SANTA MARINA',KRITI,ΧΑΝΙΩΝ,Chania,1,23.9402771,35.51750183,POINT (494435.2258286613 3930146.920635768)
2c8a3e04-2024-4b22-96d5-5168a05d1245.409,94180301,GR4340180394180301,ΚΡΗΤΗ-Ν.ΚΥΔΩΝΙΑΣ,NEAS KYDONIAS,ΚΡΗΤΗ-ΓΑΛΑΤΑ,ΕΝΑΝΤΙ ΚΕΝΤΡΟΥ ΣΑΛΑΒΑΝΤΕΣ,ΚΑΛΑΜΑΚΙ,KALAMAKI  - ENANTI KENTROU SALAVANTES,KRITI,ΧΑΝΙΩΝ,Chania,1,23.92000008,35.50500107,POINT (492595.419795213 3928761.898495524)
2c8a3e04-2024-4b22-96d5-5168a05d1245.410,94180401,GR4340180494180401,ΚΡΗΤΗ-Ν.ΚΥΔΩΝΙΑΣ,NEAS KYDONIAS,ΚΡΗΤΗ-ΣΤΑΛΟΥ,ΕΝΑΝΤΙ ΚΕΝΤΡΟΥ ΚΑΤΙ ΑΛΛΟ,ΣΤΑΛΟΣ,STALOS  - ENANTI KENTROU 'KATI ALLO',KRITI,ΧΑΝΙΩΝ,Chania,1,23.93888855,35.51666641,POINT (494309.2227954619 3930054.613042181)
2c8a3e04-2024-4b22-96d5-5168a05d1245.411,43190301,GR1430190143190301,ΣΚΙΑΘΟΣ-ΣΚΙΑΘΟΥ,SKIATHOU,ΣΚΙΑΘΟΣ-ΣΚΙΑΘΟΥ,ΚΕΝΤΡΟ ΑΚΤΗΣ,ΑΧΛΑΔΙΑ,ACHLADIA,THESSALIA,ΜΑΓΝΗΣΙΑΣ,Magnisia,1,23.4683342,39.13999939,POINT (453902.9191590837 4332160.059756113)
2c8a3e04-2024-4b22-96d5-5168a05d1245.412,43190401,GR1430190143190401,ΣΚΙΑΘΟΣ-ΣΚΙΑΘΟΥ,SKIATHOU,ΣΚΙΑΘΟΣ-ΣΚΙΑΘΟΥ,ΚΕΝΤΡΟ ΑΚΤΗΣ,ΒΡΩΜΟΛΙΜΝΟΣ,VROMOLIMNOS,THESSALIA,ΜΑΓΝΗΣΙΑΣ,Magnisia,1,23.44666672,39.13499832,POINT (452027.11444108875 4331616.373141826)
2c8a3e04-2024-4b22-96d5-5168a05d1245.413,43190501,GR1430190143190501,ΣΚΙΑΘΟΣ-ΣΚΙΑΘΟΥ,SKIATHOU,ΣΚΙΑΘΟΣ-ΣΚΙΑΘΟΥ,ΚΕΝΤΡΟ ΑΚΤΗΣ,ΚΑΝΑΠΙΤΣΑ,KANAPITSA,THESSALIA,ΜΑΓΝΗΣΙΑΣ,Magnisia,1,23.46333313,39.13999939,POINT (453470.80849293794 4332162.602583994)
2c8a3e04-2024-4b22-96d5-5168a05d1245.414,43190601,GR1430190143190601,ΣΚΙΑΘΟΣ-ΣΚΙΑΘΟΥ,SKIATHOU,ΣΚΙΑΘΟΣ-ΣΚΙΑΘΟΥ,200 Μ.ΑΠΟ ΑΡΙΣΤ.ΑΚΡΟ ΑΚΤΗΣ,ΚΟΥΚΟΥΝΑΡΙΕΣ,KOUKOUNARIES - 200M APO ARISTERO AKRO,THESSALIA,ΜΑΓΝΗΣΙΑΣ,Magnisia,1,23.4066658,39.15333176,POINT (448583.2797245343 4333672.724265272)
2c8a3e04-2024-4b22-96d5-5168a05d1245.415,55030301,GR1150030655030301,ΕΛΕΥΘΕΡΩΝ,ELEFTHERON,Ν.ΗΡΑΚΛΙΤΣΑΣ,ΞΕΝΟΔΟΧΕΙΟ 'ΜΠΟΥΡΝΕΛΗ',Ν.ΗΡΑΚΛΙΤΣΑ,NEA IRAKLITSA - HOTEL BOURNELI,"ANATOLIKI MAKEDONIA, THRAKI",ΚΑΒΑΛΑΣ,Kavala,1,24.31666756,40.87166595,POINT (526534.4219517556 4524273.339678343)
2c8a3e04-2024-4b22-96d5-5168a05d1245.416,55030302,GR1150030655030302,ΕΛΕΥΘΕΡΩΝ,ELEFTHERON,Ν.ΗΡΑΚΛΙΤΣΑΣ,ΞΕΝΟΔΟΧΕΙΟ 'ΑΙΓΑΙΟ',Ν.ΗΡΑΚΛΙΤΣΑ,NEA IRAKLITSA - HOTEL AIGAIO,"ANATOLIKI MAKEDONIA, THRAKI",ΚΑΒΑΛΑΣ,Kavala,1,24.31666756,40.88000107,POINT (526531.0763344008 4525198.3705355)
2c8a3e04-2024-4b22-96d5-5168a05d1245.417,61070101,GR1250070161070101,ΚΟΡΙΝΟΥ,KORINOU,ΚΟΡΙΝΟΥ,ΕΝΑΝΤΙ  ΞΕΝΟΔΟΧΕΙΟΥ  DENIS,ΚΟΡΙΝΟΣ,KORINOS - HOTEL DENIS,KENTRIKI MAKEDONIA,ΠΙΕΡΙΑΣ,Pieria,1,22.625,40.3097229,POINT (383010.20305048674 4462754.87754445)
2c8a3e04-2024-4b22-96d5-5168a05d1245.418,61080201,GR1250080161080201,ΛΙΤΟΧΩΡΟΥ,LITOCHOROU,ΛΙΤΟΧΩΡΟΥ,ΕΝΑΝΤΙ CAMPING 'ΤΟΛΙΟΠΟΥΛΟΥ',ΛΙΤΟΧΩΡΟ-ΠΛΑΚΑ,"LITOCHORO,PLAKA - CAMPING TOLIOPOULOU",KENTRIKI MAKEDONIA,ΠΙΕΡΙΑΣ,Pieria,1,22.55833244,40.15277863,POINT (377061.8404701046 4445423.984590775)
2c8a3e04-2024-4b22-96d5-5168a05d1245.419,81090301,GR4210090181090301,ΡΟΔΟΣ-ΚΑΛΛΙΘΕΑΣ,KALLITHEAS,ΡΟΔΟΣ-ΚΑΛΥΘΙΩΝ,ΚΕΝΤΡΟ ΑΚΤΗΣ,ΚΑΘΑΡΑ ΦΑΛΗΡΑΚΙΟΥ,KATHARA FALIRAKIOU,NOTIO AIGAIO,ΔΩΔΕΚΑΝΗΣΟΥ,Dodekanisos,1,28.20277786,36.34583282,POINT (877078.9205369463 4030226.400528631)
2c8a3e04-2024-4b22-96d5-5168a05d1245.420,14130502,GR2330130114130502,ΚΑΣΤΡΟΥ  ΚΥΛΛΗΝΗΣ,KASTROU KYLLINIS,ΚΥΛΛΗΝΗΣ,OLYMPIA RIVIERA THALASSO-GRECOTEL,ΛΟΥΤΡΑ ΚΥΛΛΗΝΗΣ 2,LOUTRA KYLLINIS-OLYMPIA RIVIERA THALASSO,DYTIKI ELLADA,ΗΛΕΙΑΣ,Ileia,1,21.14999962,37.93333435,POINT (249374.99739469064 4201961.422417998)
2c8a3e04-2024-4b22-96d5-5168a05d1245.421,15010301,GR2530010115010301,ΚΟΡΙΝΘΙΩΝ,KORINTHION,ΚΟΡΙΝΘΟΥ,ΚΑΦΕΤΕΡΙΑ BAY WATCH,ΠΑΡΑΛΙΑ ΚΑΛΑΜΙΑ,PARALIA KALAMIA,PELOPONNISOS,ΚΟΡΙΝΘΙΑΣ,Korinthia,1,22.92083359,37.94166565,POINT (405025.6077438671 4199604.023478114)
2c8a3e04-2024-4b22-96d5-5168a05d1245.422,81091501,GR4210090281091501,ΡΟΔΟΣ-ΚΑΛΛΙΘΕΑΣ,KALLITHEAS,ΡΟΔΟΣ-ΚΟΣΚΙΝΟΥΣ,ΞΕΝΟΔΟΧΕΙΟ RODOS PALLADIUM,ΑΜΜΟΥΔΕΣ,AMMOUDES - HOTEL RODOS PALLADIUM,NOTIO AIGAIO,ΔΩΔΕΚΑΝΗΣΟΥ,Dodekanisos,1,28.21944427,36.35555649,POINT (878528.4196927088 4031371.0754797403)
2c8a3e04-2024-4b22-96d5-5168a05d1245.423,81140501,GR4210140181140501,ΚΩΣ-ΚΩ,KO,ΚΩΣ-ΚΩ,ΕΝΑΝΤΙ ΞΕΝΟΔΟΧΕΙΟΥ ΘΕΟΔΩΡΟΣ,ΚΩΣ-ΑΚΤΗ ΨΑΛΙΔΙ,AKTI PSALIDI  - HOTEL THEODOROS,NOTIO AIGAIO,ΔΩΔΕΚΑΝΗΣΟΥ,Dodekanisos,1,27.29166603,36.90833282,POINT (793127.8057763106 4089477.1513273264)
2c8a3e04-2024-4b22-96d5-5168a05d1245.424,83080102,GR4110080183080102,ΛΕΣΒΟΣ-ΚAΛΛΟΝΗΣ,KALLONIS,ΛΕΣΒΟΣ-ΚΑΛΛΟΝΗΣ,ΚΑΜΠΙΝΕΣ ΠΛΑΖ,ΣΚΑΛΑ ΚΑΛΛΟΝΗΣ,SCALA KALLONIS - PLAZ,VOREIO AIGAIO,ΛΕΣΒΟΥ,Lesvos,1,26.21333313,39.20166779,POINT (690972.3833047085 4341202.739963699)
2c8a3e04-2024-4b22-96d5-5168a05d1245.425,61080101,GR1250080161080101,ΛΙΤΟΧΩΡΟΥ,LITOCHOROU,ΛΙΤΟΧΩΡΟΥ,ΣΙΔ/ΚΟΣ ΣΤΑΘΜΟΣ ΕΝΑΝΤΙ ΔΗΜΟΤΙΚΟΥ ΚΑΤΑΣΤΗΜΑΤΟΣ,ΛΙΤΟΧΩΡΟ,LITOCHORO - DIMOTIKO KATASTIMA,KENTRIKI MAKEDONIA,ΠΙΕΡΙΑΣ,Pieria,1,22.55555534,40.17499924,POINT (376865.4254982156 4447894.471254793)
2c8a3e04-2024-4b22-96d5-5168a05d1245.426,92011401,GR4320010392011401,ΚΡΗΤΗ-ΑΓ.ΝΙΚΟΛΑΟΥ,AGIOU NIKOLAOU,ΚΡΗΤΗ-ΕΛΟΥΝΤΑΣ,"PORTO ELOUNDA MARE,ELOUNDA MARE ROCK","ΕΛΟΥΝΤΑ, MARE","ELOUNDA -ELOUNDA MARE ROCK,PORTO ELOUNDA MARE",KRITI,ΛΑΣΙΘΙΟΥ,Lasithi,1,25.73333359,35.2547226,POINT (657536.7674607676 3902379.1736332118)
2c8a3e04-2024-4b22-96d5-5168a05d1245.427,17200602,GR2550200617200602,ΜΕΘΩΝΗΣ,METHONIS,ΦΟΙΝΙΚΟΥΝΤΑΣ,ΔΕΞΙΟ ΑΚΡΟ ΚΟΙΝΟΤΙΚΗΣ ΑΚΤΗΣ,ΦΟΙΝΙΚΟΥΝΤΑ,FOINIKOUNTA,PELOPONNISOS,ΜΕΣΣΗΝΙΑΣ,Messinia,1,21.80833244,36.80611038,POINT (304336.1364732212 4075316.2658629133)
2c8a3e04-2024-4b22-96d5-5168a05d1245.428,92011601,GR4320010792011601,ΚΡΗΤΗ-ΑΓ.ΝΙΚΟΛΑΟΥ,AGIOU NIKOLAOU,ΚΡΗΤΗ-ΚΑΛΟΥ ΧΩΡΙΟΥ,"ΠΗΛΟΣ,ΕΝΑΝΤΙ ΞΕΝΟΔΟΧΕΙΟΥ 'ISTRON BAY'",ΚΑΛΟ ΧΩΡΙΟ,"KALO CHORIO - PYLOS,ENANTI HOTEL 'ISTRON BAY'",KRITI,ΛΑΣΙΘΙΟΥ,Lasithi,1,25.75555611,35.12749863,POINT (659807.9091878338 3888303.5510902395)
2c8a3e04-2024-4b22-96d5-5168a05d1245.429,92011701,GR4320010192011701,ΚΡΗΤΗ-ΑΓ.ΝΙΚΟΛΑΟΥ,AGIOU NIKOLAOU,ΚΡΗΤΗ-ΑΓ.ΝΙΚΟΛΑΟΥ,ΕΝΑΝΤΙ ΞΕΝΟΔΟΧΕΙΟΥ 'PALATSO',ΚΙΤΡΟΠΛΑΤΕΙΑ,KITROPLATEIA  - ENANTI HOTEL 'PALATSO',KRITI,ΛΑΣΙΘΙΟΥ,Lasithi,1,25.72222137,35.18888855,POINT (656652.4831836565 3895059.5421525487)
2c8a3e04-2024-4b22-96d5-5168a05d1245.430,92012001,GR4320010392012001,ΚΡΗΤΗ-ΑΓ.ΝΙΚΟΛΑΟΥ,AGIOU NIKOLAOU,ΚΡΗΤΗ-ΕΛΟΥΝΤΑΣ,ΟΡΜΟΣ ΠΟΡΟΥ ΕΝΑΝΤΙ ΞΕΝ. ELOUNDA BAY,ΠΟΡΟΣ 1,POROS  - ENANTI HOTEL ELOUNTA BAY,KRITI,ΛΑΣΙΘΙΟΥ,Lasithi,1,25.73333359,35.25138855,POINT (657543.2243192883 3902009.483149336)
2c8a3e04-2024-4b22-96d5-5168a05d1245.431,92012101,GR4320010392012101,ΚΡΗΤΗ-ΑΓ.ΝΙΚΟΛΑΟΥ,AGIOU NIKOLAOU,ΚΡΗΤΗ-ΕΛΟΥΝΤΑΣ,ΟΡΜΟΣ ΠΟΡΟΥ ΕΝΑΝΤΙ ΞΕΝΟΔΟΧΕΙΟΥ ELOUDA BEACH,ΠΟΡΟΣ 2,POROS  - ENANTI HOTEL ELOUNTA BEACH,KRITI,ΛΑΣΙΘΙΟΥ,Lasithi,1,25.73333359,35.25333405,POINT (657539.4583677837 3902225.108179387)
2c8a3e04-2024-4b22-96d5-5168a05d1245.432,92012201,GR4320010392012201,ΚΡΗΤΗ-ΑΓ.ΝΙΚΟΛΑΟΥ,AGIOU NIKOLAOU,ΚΡΗΤΗ-ΕΛΟΥΝΤΑΣ,ΔΗΜ.ΠΛΑΖ ΕΝΑΝΤΙ ΟΙΚΙΣΜΟΥ ΣΧΙΣΜΑ,ΣΧΙΣΜΑ,SCHISMA  - ENANTI OIKISMOU SCHISMA,KRITI,ΛΑΣΙΘΙΟΥ,Lasithi,1,25.72777748,35.26361084,POINT (657014.1937824513 3903356.3123634253)
2c8a3e04-2024-4b22-96d5-5168a05d1245.433,92012301,GR4320010892012301,ΚΡΗΤΗ-ΑΓ.ΝΙΚΟΛΑΟΥ,AGIOU NIKOLAOU,ΚΡΗΤΗ-ΚΡΙΤΣΑΣ,ΑΠΕΝΑΝΤΙ ΑΠΟ ΠΕΡΙΠΤΕΡΟ,ΑΜΜΟΥΔΑΡΑ,"AMOUDARA,AGIOS NIKOLAOS  - ENANTI PERIPTEROU",KRITI,ΛΑΣΙΘΙΟΥ,Lasithi,1,25.71333313,35.16666794,POINT (655885.5629729404 3892580.7665456943)
2c8a3e04-2024-4b22-96d5-5168a05d1245.434,93010801,GR4330010193010801,ΚΡΗΤΗ-ΡΕΘΥΜΝΗΣ,RETHYMNIS,ΚΡΗΤΗ-ΡΕΘΥΜΝΗΣ,ΕΝΑΝΤΙ ΞΕΝΟΔΟΧΕΙΟΥ 'ΠΕΤΡΑΔΙ BEACH',ΡΕΘΥΜΝΟ-ΚΟΥΜΠΕΣ,RETHYMNO - HOTEL PETRADI BEACH,KRITI,ΡΕΘΥΜΝΗΣ,Rethymni,1,24.45777702,35.36611176,POINT (541436.7961349657 3913451.690645411)
2c8a3e04-2024-4b22-96d5-5168a05d1245.435,93030401,GR4330030993030401,ΚΡΗΤΗ-ΑΡΚΑΔΙΟΥ,ARKADIOU,ΚΡΗΤΗ-ΠΗΓΗΣ,ΕΝΑΝΤΙ ΞΕΝΟΔΟΧΕΙΟΥ 'EL GRECO',ΠΗΓΙΑΝΟΣ ΚΑΜΠΟΣ,PIGIANOS KAMPOS  - HOTEL EL GRECO,KRITI,ΡΕΘΥΜΝΗΣ,Rethymni,1,24.57666588,35.38000107,POINT (552228.275154803 3915048.483331124)
2c8a3e04-2024-4b22-96d5-5168a05d1245.436,93030501,GR4330031093030501,ΚΡΗΤΗ-ΑΡΚΑΔΙΟΥ,ARKADIOU,ΚΡΗΤΗ-ΠΡΙΝΟΥ,ΕΝΑΝΤΙ ΞΕΝΟΔΟΧΕΙΟΥ 'CRETA STAR',ΣΚΑΛΕΤΑ,SKALETA - ENANTI HOTEL 'CRETA STAR',KRITI,ΡΕΘΥΜΝΗΣ,Rethymni,1,24.61444473,35.39250183,POINT (555650.9390768833 3916455.4549252545)
2c8a3e04-2024-4b22-96d5-5168a05d1245.437,93040301,GR4330041193040301,ΚΡΗΤΗ-ΓΕΡΟΠΟΤΑΜΟΥ,GEROPOTAMOU,ΚΡΗΤΗ-ΠΑΝΟΡΜΟΥ,"ΛΙΜΝΗ,ΞΕΝΟΔΟΧΕΙΟ GRECOTEL CLUB MARINE PALACE",ΠΑΝΟΡΜΟ-ΛΙΜΝΗ,"PANORMO - LIMNI, GRECOTEL CLUB MARINE PALACE",KRITI,ΡΕΘΥΜΝΗΣ,Rethymni,1,24.68666649,35.41555405,POINT (562192.1883990298 3919055.6491598017)
2c8a3e04-2024-4b22-96d5-5168a05d1245.438,93040401,GR4330041193040401,ΚΡΗΤΗ-ΓΕΡΟΠΟΤΑΜΟΥ,GEROPOTAMOU,ΚΡΗΤΗ-ΠΑΝΟΡΜΟΥ,ΚΕΝΤΡΟ ΑΚΤΗΣ,ΛΙΑΝΟΣ ΚΑΒΟΣ-ΛΑΥΡΙΣ,LIANOS KAVROS LAVRIS - MESON,KRITI,ΡΕΘΥΜΝΗΣ,Rethymni,1,24.64999962,35.42111206,POINT (558859.1323356336 3919649.2325654486)
2c8a3e04-2024-4b22-96d5-5168a05d1245.439,92022701,GR4320020292022701,ΚΡΗΤΗ-ΙΕΡΑΠΕΤΡΑΣ,IERAPETRAS,ΚΡΗΤΗ-ΑΓ.ΙΩΑΝΝΟΥ,ΚΕΝΤΡΟ ΑΚΤΗΣ,ΑΓΙΑ ΦΩΤΙΑ,AGIA FOTIA - MESON,KRITI,ΛΑΣΙΘΙΟΥ,Lasithi,1,25.87638855,35.02249908,POINT (671038.1464189184 3876857.9991211826)
2c8a3e04-2024-4b22-96d5-5168a05d1245.440,94020302,GR4340020494020302,ΚΡΗΤΗ-ΑΚΡΩΤΗΡΙΟΥ,AKROTIRIOU,ΚΡΗΤΗ-ΣΤΕΡΝΩΝ,ΔΕΞΙΑ ΑΚΤΗΣ,ΜΑΡΑΘΙ,MARATHI  -  DEXIO AKRO,KRITI,ΧΑΝΙΩΝ,Chania,1,24.18333244,35.5027771,POINT (516476.9660826005 3928527.971497737)
2c8a3e04-2024-4b22-96d5-5168a05d1245.441,94190501,GR4340190194190501,ΚΡΗΤΗ-ΠΕΛΕΚΑΝΟΥ,PELEKANOU,ΚΡΗΤΗ-ΠΑΛΑΙΟΧΩΡΑ,ΜΕΣΟΝ ΑΚΤΗΣ,ΒΟΥΛΙΣΜΕΝΗ,VOULISMENI,KRITI,ΧΑΝΙΩΝ,Chania,1,23.63416672,35.23416519,POINT (466562.78644833516 3898783.9883766603)
2c8a3e04-2024-4b22-96d5-5168a05d1245.442,14110201,GR2330110114110201,ΖΑΧΑΡΩΣ,ZACHAROS,ΖΑΧΑΡΩΣ,ΠΑΡΑΘΙΝΑΛΟΣ,"ΖΑΧΑΡΩ,ΠΑΡΑΘΙΝΑΛΟΣ",ZACHARO - PARATHINALOS,DYTIKI ELLADA,ΗΛΕΙΑΣ,Ileia,1,21.29999924,37.63333511,POINT (261598.47422568055 4168274.7026290116)
2c8a3e04-2024-4b22-96d5-5168a05d1245.443,14130101,GR2330130214130101,ΚΑΣΤΡΟΥ  ΚΥΛΛΗΝΗΣ,KASTROU KYLLINIS,ΚΑΣΤΡΟΥ,ROBINSON CLUB,ΚΑΣΤΡΟ-ΧΡΥΣΗ ΑΚΤΗ 2,KASTRO - ROBINSON CLUB,DYTIKI ELLADA,ΗΛΕΙΑΣ,Ileia,1,21.10833359,37.88333511,POINT (245540.07518716448 4196525.038685951)
2c8a3e04-2024-4b22-96d5-5168a05d1245.444,84060201,GR4120060784060201,ΣΑΜΟΣ-ΠΥΘΑΓΟΡΕΙΟΥ,PYTHAGOREIOU,ΣΑΜΟΣ-ΠΑΓΩΝΔΟΥ,ΟΙΚΙΣΜΟΣ ΗΡΑΙΟΥ,ΗΡΑΙΟ,IRAIO,VOREIO AIGAIO,ΣΑΜΟΥ,Samos,1,26.53333282,37.39166641,POINT (724115.4080516556 4141046.1692140633)
2c8a3e04-2024-4b22-96d5-5168a05d1245.445,84060301,GR4120061184060301,ΣΑΜΟΣ-ΠΥΘΑΓΟΡΕΙΟΥ,PYTHAGOREIOU,ΣΑΜΟΣ-ΧΩΡΑΣ,ΔΕΞΙΟ ΑΚΡΟ ΑΚΤΗΣ,ΠΟΤΟΚΑΚΙ,POTOKAKI,VOREIO AIGAIO,ΣΑΜΟΥ,Samos,1,26.5597229,37.41722107,POINT (726374.9155919896 4143945.123859092)
2c8a3e04-2024-4b22-96d5-5168a05d1245.446,16061001,GR2540061716061001,ΓΥΘΕΙΟΥ,GYTHEIOU,ΣΚΟΥΤΑΡΙΟΥ,ΚΕΝΤΡΟ ΑΚΤΗΣ,ΣΚΟΥΤΑΡΙ,SKOUTARI,PELOPONNISOS,ΛΑΚΩΝΙΑΣ,Lakonia,1,22.5,36.67499924,POINT (365815.4998797228 4059579.4820633302)
2c8a3e04-2024-4b22-96d5-5168a05d1245.447,A2620601,GR30007001A2620601,ΑΝΑΒΥΣΣΟΥ,ANAVYSSOU,,"ΚΕΝΤΡΙΚΗ ΠΑΡΑΛΙΑ,ΜΕΣΟΝ ΑΚΤΗΣ",ΑΝΑΒΥΣΣΟΣ ΚΕΝΤΡΙΚΗ,ANAVYSSOS - KENTRIKI PARALIA,ATTIKI,ΑΤΤΙΚΗΣ,Attiki,1,23.94000053,37.72527695,POINT (494562.98457056255 4175048.3896583575)
2c8a3e04-2024-4b22-96d5-5168a05d1245.448,A2080102,GR30005601A2080102,ΒΟΥΛΙΑΓΜΕΝΗΣ,VOULIAGMENIS,ΒΟΥΛΙΑΓΜΕΝΗΣ,ΑΡΙΣΤΕΡΟ ΑΚΡΟ ΟΡΓΑΝΩΜΕΝΗΣ ΑΚΤΗΣ-ΑΡΧΗ ΚΑΜΠΙΝΩΝ,ΑΣΤΕΡΑΣ,ASTERAS,ATTIKI,ΑΤΤΙΚΗΣ,Attiki,1,23.77833366,37.8133316,POINT (480339.3357663347 4184839.3826815696)
2c8a3e04-2024-4b22-96d5-5168a05d1245.449,16060901,GR2540060116060901,ΓΥΘΕΙΟΥ,GYTHEIOU,ΓΥΘΕΙΟΥ,"CAMPING ΔΡΑΚΟΥΛΑΚΟΥ, ΔΕΞΙΟ ΑΚΡΟ",ΜΑΥΡΟΒΟΥΝΙ 3,MAVROVOUNI - CAMPING DRAKOULAKOU,PELOPONNISOS,ΛΑΚΩΝΙΑΣ,Lakonia,1,22.58333397,36.79861069,POINT (373465.14594585606 4073179.4761880813)
2c8a3e04-2024-4b22-96d5-5168a05d1245.450,16060902,GR2540060116060902,ΓΥΘΕΙΟΥ,GYTHEIOU,ΓΥΘΕΙΟΥ,"CAMPING ΔΡΑΚΟΥΛΑΚΟΥ, ΑΡΙΣΤΕΡΟ ΑΚΡΟ",ΜΑΥΡΟΒΟΥΝΙ 3,MAVROVOUNI - CAMPING DRAKOULAKOU,PELOPONNISOS,ΛΑΚΩΝΙΑΣ,Lakonia,1,22.58333397,36.79999924,POINT (373467.4285668244 4073333.5713118063)
2c8a3e04-2024-4b22-96d5-5168a05d1245.451,22040101,GR2220041022040101,ΚΕΡΚΥΡΑ-ΕΣΠΕΡΙΩΝ,ESPERION,ΚΕΡΚΥΡΑ-ΠΕΡΟΥΛΑΔΩΝ,ΕΣΤΙΑΤΟΡΙΟ 'ΜΠΕΡΤΟΣ',CANAL D'AMOUR,CANAL D'AMOUR - ESTIATORIO MPERTOS,IONIA NISIA,ΚΕΡΚΥΡΑΣ,KERKYRA,1,19.70027733,39.78555679,POINT (131616.4313243902 4412520.022050573)
2c8a3e04-2024-4b22-96d5-5168a05d1245.452,61030301,GR1250030161030301,ΑΝΑΤ.ΟΛΥΜΠΟΥ,ANATOLIKOU OLYMPOU,ΛΕΠΤΟΚΑΡΥΑΣ,ΕΝΑΝΤΙ ΞΕΝΟΔΟΧΕΙΟΥ 'OLYMPIAN BAY',ΛΕΠΤΟΚΑΡΥΑ 2,LEPTOKARYA  - HOTEL OLYMPIAN BAY,KENTRIKI MAKEDONIA,ΠΙΕΡΙΑΣ,Pieria,1,22.56944466,40.07500076,POINT (377869.3062926632 4436775.398517096)
2c8a3e04-2024-4b22-96d5-5168a05d1245.453,81050301,GR4210050181050301,ΡΟΔΟΣ-ΑΦΑΝΤΟΥ,AFANTOU,ΡΟΔΟΣ-ΑΦΑΝΤΟΥ,ΞΕΝΟΔΟΧΕΙΟ IRENE PALACE,ΑΦΑΝΤΟΥ 2,AFANTOU - HOTEL 'IRENE PALACE',NOTIO AIGAIO,ΔΩΔΕΚΑΝΗΣΟΥ,Dodekanisos,1,28.17916679,36.29027939,POINT (875225.4233940567 4023967.182390526)
2c8a3e04-2024-4b22-96d5-5168a05d1245.454,81050401,GR4210050181050401,ΡΟΔΟΣ-ΑΦΑΝΤΟΥ,AFANTOU,ΡΟΔΟΣ-ΑΦΑΝΤΟΥ,ΚΕΝΤΡΟ ΑΚΤΗΣ,ΚΟΛΥΜΠΙΑ,KOLIMPIA,NOTIO AIGAIO,ΔΩΔΕΚΑΝΗΣΟΥ,Dodekanisos,1,28.17916679,36.29027939,POINT (875225.4233940567 4023967.182390526)
2c8a3e04-2024-4b22-96d5-5168a05d1245.455,81060101,GR4210060181060101,ΚΩΣ-ΔΙΚΑΙΟΥ,DIKAIOU,ΚΩΣ-ΑΣΦΕΝΔΙΟΥ,ΠΡΟΕΚΤΑΣΗ ΚΕΝΤΡΙΚΟΥ ΔΡΟΜΟΥ,ΚΩΣ-ΜΑΡΜΑΡΙ 1,MARMARI - ENANTI KENTRIKOU DROMOU,NOTIO AIGAIO,ΔΩΔΕΚΑΝΗΣΟΥ,Dοdekanisos,1,27.13555527,36.86888885,POINT (779358.7347086796 4084630.6193463835)
2c8a3e04-2024-4b22-96d5-5168a05d1245.456,81060201,GR4210060181060201,ΚΩΣ-ΔΙΚΑΙΟΥ,DIKAIOU,ΚΩΣ-ΑΣΦΕΝΔΙΟΥ,ΑΡΙΣΤΕΡΟ ΑΚΡΟ,ΚΩΣ-ΤΙΓΚΑΚΙ,TIGKAKI,NOTIO AIGAIO,ΔΩΔΕΚΑΝΗΣΟΥ,Dodekanisos,1,27.20000076,36.88333511,POINT (785051.2629629154 4086424.418980564)
2c8a3e04-2024-4b22-96d5-5168a05d1245.457,81060202,GR4210060181060202,ΚΩΣ-ΔΙΚΑΙΟΥ,DIKAIOU,ΚΩΣ-ΑΣΦΕΝΔΙΟΥ,ΔΕΞΙΟ ΑΚΡΟ,ΚΩΣ-ΤΙΓΚΑΚΙ,TIGKAKI,NOTIO AIGAIO,ΔΩΔΕΚΑΝΗΣΟΥ,Dodekanisos,1,27.20000076,36.88333511,POINT (785051.2629629154 4086424.418980564)
2c8a3e04-2024-4b22-96d5-5168a05d1245.458,81070201,GR4210070281070201,ΚΩΣ-ΗΡΑΚΛΕΙΔΩΝ,IRAKLEIDON,ΚΩΣ-ΚΑΡΔΑΜΑΙΝΗΣ,ΕΝΑΝΤΙ ΞΕΝΟΔΟΧΕΙΟΥ 'ΛΑΚΗΤΙΡΑ',ΚΩΣ-ΓΟΥΡΝΙΑΤΗΣ,GOURNIATIS  -  HOTEL LAKITHRA,NOTIO AIGAIO,ΔΩΔΕΚΑΝΗΣΟΥ,Dodekanisos,1,27.14999962,36.78333282,POINT (780959.8439222471 4075178.2095579333)
2c8a3e04-2024-4b22-96d5-5168a05d1245.459,32010203,GR2120010132010203,ΗΓΟΥΜΕΝΙΤΣΗΣ,IGOUMENITSIS,ΗΓΟΥΜΕΝΙΤΣΑΣ,ΕΝΑΝΤΙ BAR 'LA HOYA',ΔΡΕΠΑΝΟ,DREPANO - BAR 'LA HOYA',IPEIROS,ΘΕΣΠΡΩΤΙΑΣ,THESPROTIA,1,20.21694374,39.51444626,POINT (174606.91430714395 4380417.564891052)
2c8a3e04-2024-4b22-96d5-5168a05d1245.460,32070401,GR2120070332070401,ΣΥΒΟΤΩΝ,SYVOTON,ΣΥΒΟΤΩΝ,ΚΕΝΤΡΟ ΑΚΤΗΣ,ΣΥΒΟΤΑ-ΜΕΓΑΣ ΑΜΜΟΣ,SYVOTA - MEGAS AMMOS,IPEIROS,ΘΕΣΠΡΩΤΙΑΣ,THESPROTIA,1,20.26055527,39.39583206,POINT (177810.49946780945 4367091.751424887)
2c8a3e04-2024-4b22-96d5-5168a05d1245.461,A2160401,GR30006401A2160401,ΜΑΡΚΟΠΟΥΛΟ ΜΕΣΟΓΑΙΑΣ,MARKOPOULO MESOGEAS,ΜΑΡΚΟΠΟΥΛΟ ΜΕΣΟΓΑΙΑΣ,ΔΕΞΙΟ ΑΚΡΟ ΑΚΤΗΣ,ΑΥΛΑΚΙ,AVLAKI,ATTIKI,ΑΤΤΙΚΗΣ,Attiki,1,24.03055573,37.87333298,POINT (502537.7967595692 4191473.663884441)
2c8a3e04-2024-4b22-96d5-5168a05d1245.462,43030101,GR1430030243030101,ΑΙΣΩΝΙΑΣ,AISONIAS,ΣΕΣΚΛΟΥ,ΚΕΝΤΡΟ ΑΚΤΗΣ,ΧΡΥΣΗ ΑΚΤΗ ΠΑΝΑΓΙΑΣ,CHRYSI AKTI PANAGIAS,THESSALIA,ΜΑΓΝΗΣΙΑΣ,Magnisia,1,22.88361168,39.28333282,POINT (403565.2856342076 4348525.928042633)
2c8a3e04-2024-4b22-96d5-5168a05d1245.463,54350301,GR1220350154350301,ΡΕΝΤΙΝΑΣ,RENTINAS,ΣΤΑΥΡΟΥ,ΞΕΝΟΔΟΧΕΙΟ 'ΡΗΧΕΙΟΣ',ΡΗΧΕΙΟΣ,RICHIOS - HOTEL,KENTRIKI MAKEDONIA,ΘΕΣΣΑΛΟΝΙΚΗΣ,Thessaloniki,1,23.68527794,40.66833496,POINT (473249.39415454963 4501701.43559775)
2c8a3e04-2024-4b22-96d5-5168a05d1245.464,83170203,GR4110170183170203,ΛΕΣΒΟΣ-ΠΟΛΙΧΝΙΤΟΥ,POLICHNITOU,ΛΕΣΒΟΣ-ΠΟΛΙΧΝΙΤΟΥ,ΟΙΚΙΑ ΠΑΝΣΕΛΗΝΟΥ,ΝΥΦΙΔΑ,NYFIDA,VOREIO AIGAIO,ΛΕΣΒΟΥ,Lesvos,1,26.13055611,39.08611298,POINT (684125.0729762156 4328205.805492069)
2c8a3e04-2024-4b22-96d5-5168a05d1245.465,83150203,GR4110150183150203,ΛΕΣΒΟΣ-ΠΕΤΡΑΣ,PETRAS,ΛΕΣΒΟΣ-ΠΕΤΡΑΣ,HOTEL ISLAND,ΠΕΤΡΑ,PETRA - HOTEL 'ISLAND',VOREIO AIGAIO,ΛΕΣΒΟΥ,Lesvos,1,26.17000008,39.33000183,POINT (686888.6101873132 4355356.2667006375)
2c8a3e04-2024-4b22-96d5-5168a05d1245.466,92010501,GR4320010192010501,ΚΡΗΤΗ-ΑΓ.ΝΙΚΟΛΑΟΥ,AGIOU NIKOLAOU,ΚΡΗΤΗ-ΑΓ.ΝΙΚΟΛΑΟΥ,ΑΠΕΝΑΝΤΙ ΑΠΟ ΣΥΝΤΡΙΒΑΝΙ,ΑΛΜΥΡΟΣ,ALMYROS  - ENANTI SYNTRIVANI,KRITI,ΛΑΣΙΘΙΟΥ,Lasithi,1,25.70972252,35.17499924,POINT (655540.7815872101 3893499.3729888527)
2c8a3e04-2024-4b22-96d5-5168a05d1245.467,92010601,GR4320010192010601,ΚΡΗΤΗ-ΑΓ.ΝΙΚΟΛΑΟΥ,AGIOU NIKOLAOU,ΚΡΗΤΗ-ΑΓ.ΝΙΚΟΛΑΟΥ,ΞΕΝΟΔΟΧΕΙΟ 'MARINA',ΑΜΜΟΣ (MARINA),AMMOS - HOTEL 'MARINA',KRITI,ΛΑΣΙΘΙΟΥ,Lasithi,1,25.71944427,35.19083405,POINT (656395.800715552 3895270.7854825496)
2c8a3e04-2024-4b22-96d5-5168a05d1245.468,92010701,GR4320010192010701,ΚΡΗΤΗ-ΑΓ.ΝΙΚΟΛΑΟΥ,AGIOU NIKOLAOU,ΚΡΗΤΗ-ΑΓ.ΝΙΚΟΛΑΟΥ,ΚΕΝΤΡΟ ΑΚΤΗΣ,ΑΜΜΟΥΔΙ,AMOUDI  - MESON AKTIS,KRITI,ΛΑΣΙΘΙΟΥ,Lasithi,1,25.03472137,35.19972229,POINT (594042.5345795471 3895392.9796592663)
2c8a3e04-2024-4b22-96d5-5168a05d1245.469,32010202,GR2120010132010202,ΗΓΟΥΜΕΝΙΤΣΗΣ,IGOUMENITSIS,ΗΓΟΥΜΕΝΙΤΣΑΣ,CAMPING 'ΔΡΕΠΑΝΟ',ΔΡΕΠΑΝΟ,DREPANO - CAMPING DREPANO,IPEIROS,ΘΕΣΠΡΩΤΙΑΣ,THESPROTIA,1,20.22083282,39.51166534,POINT (174928.40166690163 4380095.177442752)
2c8a3e04-2024-4b22-96d5-5168a05d1245.470,A2140302,GR30006201A2140302,ΛΑΥΡΕΩΤΙΚΗΣ,LAVREOTIKIS,ΛΑΥΡΕΩΤΙΚΗΣ,ΑΡΙΣΤΕΡΟ ΑΚΡΟ ΑΚΤΗΣ,ΠΟΥΝΤΑΖΕΖΑ,POUNTAZEZA,ATTIKI,ΑΤΤΙΚΗΣ,Attiki,1,24.07638931,37.68916702,POINT (506585.4322930243 4171043.0305560627)
2c8a3e04-2024-4b22-96d5-5168a05d1245.471,A2150101,GR30006301A2150101,ΜΑΡΑΘΩΝΟΣ,MARATHONOS,ΜΑΡΑΘΩΝΟΣ,ΕΝΑΝΤΙ ΞΕΝΟΔΟΧΕΙΟΥ 'ΓΑΛΑΖΙΑ ΑΚΤΗ',ΣΧΟΙΝΙΑΣ/ΚΑΡΑΒΙ,GALAZIA AKTI - HOTEL GALAZIA AKTI,ATTIKI,ΑΤΤΙΚΗΣ,Attiki,1,24.02555466,38.13611221,POINT (502090.0471170461 4220629.467570224)
2c8a3e04-2024-4b22-96d5-5168a05d1245.472,34010302,GR2140010334010302,ΠΡΕΒΕΖΗΣ,PREVEZIS,ΜΥΤΙΚΑ,ΞΕΡΟΒΡΑΧΟΣ,ΜΟΝΟΛΙΘΙ,MONOLITHI - XEROVRACHOS,IPEIROS,ΠΡΕΒΕΖΑΣ,PREVEZA,1,20.91090012,39,POINT (232331.0807812092 4321029.904619635)
2c8a3e04-2024-4b22-96d5-5168a05d1245.473,64090702,GR1270090564090702,ΠΑΛΛΗΝΗΣ,PALLINIS,ΠΕΥΚΟΧΩΡΙΟΥ,ΞΕΝΟΔΟΧΕΙΟ 'PELY',ΠΕΥΚΟΧΩΡΙ,PEFKOCHORI - HOTEL 'PELY',KENTRIKI MAKEDONIA,ΧΑΛΚΙΔΙΚΗΣ,Chalkidiki,1,23.61264038,39.9892807,POINT (466780.07582458615 4426352.612100476)
2c8a3e04-2024-4b22-96d5-5168a05d1245.474,64090701,GR1270090564090701,ΠΑΛΛΗΝΗΣ,PALLINIS,ΠΕΥΚΟΧΩΡΙΟΥ,ΜΕΣΟΝ ΚΟΙΝΟΤΙΚΗΣ ΠΛΑΖ,ΠΕΥΚΟΧΩΡΙ,PEFKOCHORI - KOINOTIKI PLAZ,KENTRIKI MAKEDONIA,ΧΑΛΚΙΔΙΚΗΣ,Chalkidiki,1,23.61264038,39.9892807,POINT (466780.07582458615 4426352.612100476)
2c8a3e04-2024-4b22-96d5-5168a05d1245.475,13110101,GR2320110113110101,ΛΑΡΙΣΣΟΥ,LARISSOU,ΜΕΤΟΧΙΟΥ,"KALOGRIA BEACH ,ΔΕΞΙΟ ΑΚΡΟ",ΚΑΛΟΓΡΙΑ,KALOGRIA,DYTIKI ELLADA,ΑΧΑΙΑΣ,Achaia,1,21.35194397,38.15027618,POINT (267812.48849220667 4225514.502112985)
2c8a3e04-2024-4b22-96d5-5168a05d1245.476,A2170501,GR30006501A2170501,ΝΕΑΣ ΜΑΚΡΗΣ,NEAS MAKRIS,Ν.ΜΑΚΡΗΣ,ΚΕΝΤΡΟ ΑΚΤΗΣ,ΜΠΡΕΞΙΖΑ,BREXIZA,ATTIKI,ΑΤΤΙΚΗΣ,Attiki,1,24.00972176,38.06027603,POINT (500703.31136280857 4212215.191030636)
2c8a3e04-2024-4b22-96d5-5168a05d1245.477,A2620201,GR30007001A2620201,ΑΝΑΒΥΣΣΟΥ,ANAVYSSOU,ΑΝΑΒΥΣΣΟΥ,ΕΝΑΝΤΙ ΞΕΝΟΔΟΧΕΙΟΥ 'EDEN BEACH',"ΜΑΥΡΟ ΛΙΘΑΡΙ,EDEN",MAVRO LITHARI - HOTEL 'EDEN BEACH',ATTIKI,ΑΤΤΙΚΗΣ,Attiki,1,23.91277695,37.73416519,POINT (492164.9840273184 4176036.4880248597)
2c8a3e04-2024-4b22-96d5-5168a05d1245.478,A2140301,GR30006201A2140301,ΛΑΥΡΕΩΤΙΚΗΣ,LAVREOTIKIS,ΛΑΥΡΕΩΤΙΚΗΣ,ΔΕΞΙΟ ΑΚΡΟ ΑΚΤΗΣ,ΠΟΥΝΤΑΖΕΖΑ,POUNTAZEZA,ATTIKI,ΑΤΤΙΚΗΣ,Attiki,1,24.07250023,37.69138718,POINT (506242.35993568966 4171289.2819440947)
2c8a3e04-2024-4b22-96d5-5168a05d1245.479,A2070102,GR30005501A2070102,ΒΟΥΛΑΣ,VOULAS,ΒΟΥΛΑΣ,ΕΝΑΝΤΙ ΤΣΟΥΛΗΘΡΑΣ,ΑΠΟΛΛΩΝΙΕΣ ΒΟΥΛΑΣ Α,VOULA A,ATTIKI,ΑΤΤΙΚΗΣ,Attiki,1,23.76000023,37.85833359,POINT (478738.49256317486 4189836.1075136247)
2c8a3e04-2024-4b22-96d5-5168a05d1245.480,A2070103,GR30005501A2070103,ΒΟΥΛΑΣ,VOULAS,ΒΟΥΛΑΣ,ΕΝΑΝΤΙ ΠΑΡΑΤΗΡΗΤΗΡΙΟΥ ΑΡΙΣΤΕΡΑ ΤΗΣ ΑΚΤΗΣ,ΑΠΟΛΛΩΝΙΕΣ ΒΟΥΛΑΣ Α,VOULA A,ATTIKI,ΑΤΤΙΚΗΣ,Attiki,1,23.75166702,37.86000061,POINT (478005.95896296145 4190022.9785384675)
2c8a3e04-2024-4b22-96d5-5168a05d1245.481,A2070104,GR30005501A2070104,ΒΟΥΛΑΣ,VOULAS,ΒΟΥΛΑΣ,ΕΝΑΝΤΙ ΜΕΣΟΥ ΚΤΙΡΙΟΥ SELF SERVICE,ΑΠΟΛΛΩΝΙΕΣ ΒΟΥΛΑΣ Α,VOULA A,ATTIKI,ΑΤΤΙΚΗΣ,Attiki,1,23.77277756,37.83361053,POINT (479855.85579800943 4187090.3909023628)
2c8a3e04-2024-4b22-96d5-5168a05d1245.482,13030101,GR2320030113030101,ΑΙΓΙΟΥ,AIGIOU,ΑΙΓΙΟΥ,ΔΕΞΙΟ ΑΚΡΟ ΑΚΤΗΣ,ΑΛΥΚΕΣ,ALYKES,DYTIKI ELLADA,ΑΧΑΙΑΣ,Achaia,1,22.11111069,38.27583313,POINT (334626.2281419331 4237819.544752862)
2c8a3e04-2024-4b22-96d5-5168a05d1245.483,13070101,GR2320071213070101,ΔΙΑΚΟΠΤΟΥ,DIAKOPTOU,ΤΡΑΠΕΖΑΣ,ΚΕΝΤΡΟ ΑΚΤΗΣ,ΠΟΥΝΤΑ ΤΡΑΠΕΖΗΣ,POUNTA TRAPEZIS,DYTIKI ELLADA,ΑΧΑΙΑΣ,Achaia,1,22.22500038,38.18888855,POINT (344404.03702492005 4227974.020405182)
2c8a3e04-2024-4b22-96d5-5168a05d1245.484,A2060202,GR30005401A2060202,ΒΑΡΗΣ,VARIS,ΒΑΡΗΣ,ΕΝΑΝΤΙ ΚΤΙΡΙΟΥ Κ5,ΒΑΡΚΙΖΑ,"VARKIZA,EOT - KTIRIO  K5",ATTIKI,ΑΤΤΙΚΗΣ,Attiki,1,23.81027794,37.82222366,POINT (483153.1361752339 4185819.4227488227)
2c8a3e04-2024-4b22-96d5-5168a05d1245.485,22030201,GR2220031322030201,ΚΕΡΚΥΡΑ-ΑΧΙΛΛΕΙΩΝ,ACHILLEION,ΚΕΡΚΥΡΑ-ΜΠΕΝΙΤΣΕΣ,ΚΕΝΤΡΟ ΑΚΤΗΣ,ΜΠΕΝΙΤΣΕΣ,MPENITSES,IONIA NISIA,ΚΕΡΚΥΡΑΣ,KERKYRA,1,19.92361069,39.55833435,POINT (149601.1865416364 4386393.385480356)
2c8a3e04-2024-4b22-96d5-5168a05d1245.486,54350101,GR1220350154350101,ΡΕΝΤΙΝΑΣ,RENTINAS,ΣΤΑΥΡΟΥ,ΕΝΑΝΤΙ ΚΟΙΝΟΤΙΚΟΥ ΚΑΤΑΣΤΗΜΑΤΟΣ 'ΚΟΛΠΟΣ',ΜΗΛΙΕΣ,MILIES -KOINOTIKO KATASTIMA 'KOLPOS',KENTRIKI MAKEDONIA,ΘΕΣΣΑΛΟΝΙΚΗΣ,Thessaloniki,1,23.73888969,40.66944504,POINT (477781.09392234555 4501809.922785293)
2c8a3e04-2024-4b22-96d5-5168a05d1245.487,22060101,GR2220060422060101,ΚΕΡΚΥΡΑ-ΚΑΣΣΟΠΑΙΩΝ,KASSOPAION,ΚΕΡΚΥΡΑ-ΣΙΝΙΩΝ,ΕΝΑΝΤΙ ΕΣΤΙΑΤΟΡΙΟΥ 'ΑΥΛΑΚΙ',ΑΥΛΑΚΙ,AVLAKI - ESTIATORIO AVLAKI,IONIA NISIA,ΚΕΡΚΥΡΑΣ,KERKYRA,1,19.94861031,39.76889038,POINT (152806.79607087743 4409675.5125235)
2c8a3e04-2024-4b22-96d5-5168a05d1245.488,23010802,GR2230010123010802,ΚΕΦΑΛΛΗΝΙΑ-ΑΡΓΟΣΤΟΛΙ,ARGOSTOLIOU,ΚΕΦΑΛΛΗΝ-ΑΡΓΟΣΤΟΛΙΟΥ,ΚΕΝΤΡΟ ΑΚΤΗΣ,ΠΛΑΤΥΣ ΓΥΑΛΟΣ,PLATYS GIALOS,IONIA NISIA,ΚΕΦΑΛΛΗΝΙΑΣ,KEFALLINIA,1,20.47999954,38.16500092,POINT (191449.7152085037 4229692.244376235)
2c8a3e04-2024-4b22-96d5-5168a05d1245.489,07081101,GR2450080107081101,ΙΤΕΑΣ,ITEAS,ΙΤΕΑΣ,"ΠΛΑΖ ΑΓΚΑΛΗ,ΚΕΝΤΡΟ ΑΚΤΗΣ",ΤΡΟΚΑΝΤΕΡΟ-ΑΓΚΑΛΗ,TROKANTERO,STEREA ELLADA,ΦΩΚΙΔΑΣ,Fokida,1,22.41777802,38.41999817,POINT (361726.804609944 4253314.133284324)
2c8a3e04-2024-4b22-96d5-5168a05d1245.490,55010301,GR1150010155010301,ΚΑΒΑΛΑΣ,KAVALAS,ΚΑΒΑΛΑΣ,ΠΟΣΕΙΔΩΝΙΟ,ΚΑΛΑΜΙΤΣΑ,KALAMITSA - POSEIDONIO,"ANATOLIKI MAKEDONIA, THRAKI",ΚΑΒΑΛΑΣ,Kavala,1,24.3852787,40.92166519,POINT (532291.5129856758 4529846.946684657)
2c8a3e04-2024-4b22-96d5-5168a05d1245.491,55040701,GR1150040855040701,ΘΑΣΟΣ-ΘΑΣΟΥ,THASOU,ΘΑΣΟΣ-ΠΡΙΝΟΥ,"CAMPING ΕΟΤ ,ΑΡΙΣΤΕΡΑ ΚΟΛΠΟΥ",ΘΑΣΟΣ-ΠΡΙΝΟΣ ΔΑΣΥΛΙΟ,"PRINOS DASYLIO - CAMPING EOT,ARISTERA","ANATOLIKI MAKEDONIA, THRAKI",ΚΑΒΑΛΑΣ,Kavala,1,24.56666756,40.76166534,POINT (547679.7163282455 4512168.769119661)
2c8a3e04-2024-4b22-96d5-5168a05d1245.492,64050302,GR1270050164050302,ΚΑΛΛΙΚΡΑΤΕΙΑΣ,KALLIKRATEIAS,,ΔΕΞΙΟ ΑΚΡΟ,ΜΥΚΟΝΙΑΤΙΚΑ-ΓΕΩΠΟΝΙΚΑ,MYKONIATIKA-GEOPONIKA - DEXIA,KENTRIKI MAKEDONIA,ΧΑΛΚΙΔΙΚΗΣ,Chalkidiki,1,23.09277725,40.29972076,POINT (422748.82792782545 4461132.6975103505)
2c8a3e04-2024-4b22-96d5-5168a05d1245.493,15090102,GR2530091515090102,ΞΥΛΟΚΑΣΤΡΟΥ,XYLOKASTROU,ΜΕΛΙΣΣΙΟΥ,ΕΝΑΝΤΙ ΞΕΝΟΔΟΧΕΙΟΥ 'LIDO',ΜΕΛΙΣΣΙ,MELISSI - HOTEL 'LIDO',PELOPONNISOS,ΚΟΡΙΝΘΙΑΣ,Korinthia,1,22.68666649,38.04666519,POINT (384613.3890163646 4211518.960278249)
2c8a3e04-2024-4b22-96d5-5168a05d1245.494,81170701,GR4210170181170701,ΡΟΔΟΣ-ΛΙΝΔΙΩΝ,LINDION,ΡΟΔΟΣ-ΛΙΝΔΟΥ,ΚΕΝΤΡΟ ΑΚΤΗΣ,ΠΕΥΚΟΙ,PEFKOI,NOTIO AIGAIO,ΔΩΔΕΚΑΝΗΣΟΥ,Dodekanisos,1,28.04999924,36.06861115,POINT (864646.0469231264 3998867.291320134)
2c8a3e04-2024-4b22-96d5-5168a05d1245.495,43120102,GR1430120443120102,ΜΗΛΕΩΝ,MILEON,ΚΑΛΩΝ ΝΕΡΩΝ,ΕΚΚΛΗΣΙΑ ΚΑΛΩΝ ΝΕΡΩΝ,ΚΑΛΑ ΝΕΡΑ,KALA NERA - EKKLISIA,THESSALIA,ΜΑΓΝΗΣΙΑΣ,Magnisia,1,23.12333298,39.28333282,POINT (424240.9468096367 4348298.230820323)
2c8a3e04-2024-4b22-96d5-5168a05d1245.496,32010201,GR2120010132010201,ΗΓΟΥΜΕΝΙΤΣΗΣ,IGOUMENITSIS,ΗΓΟΥΜΕΝΙΤΣΑΣ,ΜΥΤΗ ΔΡΕΠΑΝΟΥ,ΔΡΕΠΑΝΟ,DREPANO - MYTI DREPANOU,IPEIROS,ΘΕΣΠΡΩΤΙΑΣ,THESPROTIA,1,20.2238884,39.50611115,POINT (175165.31973420808 4379467.266706753)
2c8a3e04-2024-4b22-96d5-5168a05d1245.497,15050101,GR2530050315050101,ΒΟΧΑΣ,VOCHAS,ΒΡΑΧΑΤΙΟΥ,ΕΝΑΝΤΙ ΠΑΙΔΙΚΗΣ ΧΑΡΑΣ,ΒΡΑΧΑΤΙ,VRACHATI,PELOPONNISOS,ΚΟΡΙΝΘΙΑΣ,Korinthia,1,22.80666733,37.95999908,POINT (395019.724603914 4201760.542721513)
2c8a3e04-2024-4b22-96d5-5168a05d1245.498,06190101,GR2440190306190101,ΠΕΛΑΣΓΙΑΣ,PELASGIAS,ΓΛΥΦΑΣ,ΔΥΤΙΚΗ ΠΛΑΖ,ΓΛΥΦΑ Δ,GLYFA - DYTIKI PLAZ,STEREA ELLADA,ΦΘΙΩΤΙΔΑΣ,Fthiotida,1,22.96555519,38.96250153,POINT (410227.31145307224 4312836.5880883625)
